name,position,address,phone,fax,mobile,address2
 Willie Jones,Adams County Constable," PO Box 1048, Natchez 39121",(601) 442-0199,,,
Scott Slover,Adams County Board Attorney," 314 State St, Natchez 39120",(601) 442-0075,(601) 442-9896,,
 Brandi B. Lewis,Adams County Chancery Clerk,"115 South Wall St, Natchez 39120",(601) 446-6684,(601) 445-7913,,
Edward C. (Eddie) Walker,Adams County Circuit Clerk,"115 South Wall St, Natchez 39120",(601) 446-6326,(601) 445-7955,,
 Lillie Blackmon Sanders,Adams County Circuit Court Judge," 115 South Wall St, Natchez 39120",(601) 445-7933,(601) 445-2369,,
 Forrest A. Johnson,Adams County Circuit Court Judge," 115 South Wall St, Natchez 39120",(601) 442-8363,(601) 445-7954,,
 Joe Murray,Adams County County Administrator," 314 State St, Natchez 39120",(601) 445-7934,(601) 304-8088,,
Walt Brown,Adams County County Court Judge," PO Box 1371, Natchez 39121",(601) 445-7933,(601) 455-2369,,
Ronnie Harper,Adams County District Attorney,"307 Market St, Natchez 39120",(601) 445-4099,(601) 445-7947,,
John Barrett Martin,Adams County Prosecuting Attorney,"PO Box 1603, Natchez 39121",(601) 442-7954,(601) 442-5659,,
Travis Lamont Patten,Adams County Sheriff,"306 State St, Natchez 39120",(601) 442-2752,(601) 442-2911,,
Fred T. Butler,Adams County Superintendent of Education,"PO Box 1188, Natchez 39121",(601) 442-0212,(601) 445-2818,,
 Mike Lazarus,Adams County Supervisor (D-1)," 314 State St, Natchez 39120",(601) 442-2431,(601) 304-8088,,
 David Carter,Adams County Supervisor (D-2),"314 State St, Natchez 39120",(601) 442-2431,(601) 304-8088,,
 Angela Gibson Hutchins,Adams County Supervisor (D-3)," 314 State St, Natchez 39120",(601) 442-2431,(601) 304-8088,,
 Ricky Gray,Adams County Supervisor (D-4),"314 State St, Natchez 39120",(601) 442-2431,(601) 304-8088,,
 Calvin Butler,Adams County Supervisor (D-5),"314 State St, Natchez 39120",(601) 442-2431,(601) 304-8088,,
Bill Davis,Alcorn County Board Attorney," 511 N Franklin St, Corinth 38835",(662) 396-4808,(662) 396-4805,,
John Weddle,Alcorn County District Attorney,"PO Box 7237, Tupelo 38802",(662) 432-2800,(662) 432-2831,,
Bob Moore,Alcorn County Prosecuting Attorney,"PO Box 1990, Corinth 38835",(662) 286-7739,,,
Ben Caldwell,Alcorn County Sheriff,"2833 S Harper Rd, Corinth 38834",(662) 286-5521,,,
Lowell Hinton,Alcorn County Supervisor (D-1)," PO Box 69, Corinth 38835-0069",(662) 286-7707,(662) 286-7065,,
James Voyles,Alcorn County Supervisor (D-2)," PO Box 69, Corinth 38835-0069",(662) 286-7707,(662) 286-7065,,
Tim Mitchell,Alcorn County Supervisor (D-3),"PO Box 69, Corinth 38835-0069",(662) 286-7707,(662) 286-7065,,
Steve Glidewell,Alcorn County Supervisor (D-4)," PO Box 69, Corinth 38835-0069",(662) 286-7707,(662) 286-7065,,
Jimmy Tate Waldon,Alcorn County Supervisor (D-5)," PO Box 69, Corinth 38835-0069",(662) 286-7707,(662) 286-7065,,
Reggie Jones,Amite County Board Attorney," PO Box 436, Liberty 39645 ",(601) 657-4113,(601) 657-4802,,
Ronnie Harper,Amite County District Attorney," 307 Market St, Natchez 39120",(601) 445-4099,(601) 445-7947,,
Sara Hemphill,Amite County Prosecuting Attorney," PO Box 43, Liberty 39645",(601) 657-4801,(601) 657-4802,,
Tim Wroten,Amite County Sheriff," PO Box 208, Liberty 39645",(601) 657-8057,(601) 657-4199,,
Warren Leake,Amite County Supervisor (D-1)," 3040 McLain Ln, Liberty 39645.",(601) 657-1024,(601) 657-8288,,
Will L. Powell,Amite County Supervisor (D-2)," 2098 Street Rd, Liberty 39645",(601) 657-5782,(601) 657-8288,,
J. P. (Jackie) Whittington,Amite County Supervisor (D-3)," 3162 Hunter Ln, Gloster 39638.",(601) 225-4734,(601) 657-8288,,
Melvin Quin (Butch) Graves,Amite County Supervisor (D-4),"5020 Hughey Rd, Smithdale 39664",(601) 567-2495,(601) 657-8288,,
Rickie Williams Jr,Amite County Supervisor (D-5)," 7100 Hwy. 584, Osyka 39657",(601) 248-1438,(601) 657-8288,,
L. Scott Pickle,Attala County Board Attorney,"PO Box 701, Kosciusko 39090",(662) 289-8888,(662) 289-8889,,
Doug Evans,Attala County District Attorney," PO Box 1262, Grenada 38902-1262",(662) 226-8545,(662) 227-9558,,
Doug Crosby,Attala County Prosecuting Attorney," 241 N Madison, Kosciusko 39090",(662) 289-0800,(662) 289-0700,,
Tim Nail,Attala County Sheriff,"112 W Adams St, Kosciusko 39090",(662) 289-5556,(662) 289-3476,,
Bobby Lindsay,Attala County Supervisor (D-1),"230 W Washington St, Kosciusko 39090",(662) 289-2898,,,
Charles Fancher,Attala County Supervisor (D-2),"230 W Washington St, Kosciusko 39090",(662) 289-2898,,,
Steven Goss,Attala County Supervisor (D-3),"230 W Washington St, Kosciusko 39090",(662) 289-2898,,,
Kary Ellington,Attala County Supervisor (D-4),"230 W Washington St, Kosciusko 39090",(662) 289-2898,,,
Tim Pinkard,Attala County Supervisor (D-5),"230 W Washington St, Kosciusko 39090",(662) 289-2898,,,
John S Farese,Benton County Board Attorney," PO Box 98, Ashland 38603 ",(662) 224-6211,(662) 224-6303,,
Ben Creekmore,Benton County District Attorney,"1301 Monroe Avenue, Oxford 38655",(662) 234-3304,(662) 234-0299,,
Bart Adams,Benton County Prosecuting Attorney,"108 Jefferson St, Ripley 38663",(662) 837-9976,(662) 773-4746,,
A. A. (Arnie) McMulleN ,Benton County Sheriff,"PO Box 245, Ashland 38603",(662) 224-8941,(662) 224-6307,,
Chris Shoup,Benton County Supervisor (D-1)," PO Box 218, Ashland 38603",(662) 224-6300,(662) 224-6303,,
James (Bubba) Griffin,Benton County Supervisor (D-2)," PO Box 218, Ashland 38603",(662) 224-6300,(662) 224-6303,,
James Lowry,Benton County Supervisor (D-3)," PO Box 218, Ashland 38603",(662) 224-6300,(662) 224-6303,,
Tommy Fortner,Benton County Supervisor (D-4)," PO Box 218, Ashland 38603",(662) 224-6300,(662) 224-6303,,
Ricky W (Taterbug) Pipkin,Benton County Supervisor (D-5)," PO Box 218, Ashland 38603",(662) 224-6300,(662) 224-6303,,
Ellis Turnage,Bolivar County Board Attorney," PO Box 216, Cleveland 38732",(662) 843-2811,(662) 843-3972,,
Marilyn L. Kelly,Bolivar County Circuit Clerk," PO Box 670, Cleveland 38732",(662) 843-2061,(662) 846-2943,,
Marilyn L. Kelly,Bolivar County Circuit Clerk," PO Box 205, Rosedale 38769",(662) 759-6521,(662) 759-3717,,
Brenda F. Mitchell,Bolivar County District Attorney,"PO Box 848, Cleveland 38732",(662) 843-8000,(662) 846-1711,,
Aelicia L. Thomas,Bolivar County Prosecuting Attorney,"PO Box 912, Rosedale 38769",(662) 843-3777,,,
Kelvin Williams Sr,Bolivar County Sheriff,"PO Box 157, Rosedale 38769",(662) 759-3536,(662) 759-3467,,"PO Box 539, Cleveland 38732"
Benitha Calivn-Williams,Bolivar County Supervisor (D-1)," PO Box 698, Cleveland 38732-0698",(662) 846-5877,(662) 846-5880,,
Donny Whitten,Bolivar County Supervisor (D-2)," PO Box 698, Cleveland 38732-0698",(662) 846-5877,(662) 846-5880,,
Preston Billings,Bolivar County Supervisor (D-3)," PO Box 698, Cleveland 38732-0698",(662) 846-5877,(662) 846-5880,,
James McBride,Bolivar County Supervisor (D-4)," PO Box 698, Cleveland 38732-0698",(662) 846-5877,(662) 846-5880,,
Larry L. King,Bolivar County Supervisor (D-5)," PO Box 698, Cleveland 38732-0698",(662) 846-5877,(662) 846-5880,,
Haven (Sonny) Clanton Jr,Calhoun County Board Attorney,"PO Box 630, Calhoun City 38916",(662) 628-4933,(662) 628-4030,,
Ben Creekmore,Calhoun County District Attorney,"1301 Monroe Avenue, Oxford 38655",(662) 234-3304,(662) 234-0299,,
Tina Dugard Scott,Calhoun County Prosecuting Attorney," PO Box 1545, Calhoun City 38916",(662) 628-5440,(662) 628-5450,,
Greg Pollan ,Calhoun County Sheriff," PO Box 158, Pittsboro 38951",(662) 412-3149,(662) 412-3197,,
Charles Bobo,Calhoun County Supervisor (D-1)," PO Box 36, Pittsboro 38951",(662) 412-3126,(662) 412-3128,,
Homer Moore,Calhoun County Supervisor (D-2),"PO Box 36, Pittsboro 38951",(662) 412-3126,(662) 412-3128,,
Gwin Longest,Calhoun County Supervisor (D-3),"PO Box 36, Pittsboro 38951",(662) 412-3126,(662) 412-3128,,
Barney J. Wade,Calhoun County Supervisor (D-4)," PO Box 36, Pittsboro 38951",(662) 412-3126,(662) 412-3128,,
Tony Morgan,Calhoun County Supervisor (D-5),"PO Box 36, Pittsboro 38951",(662) 412-3126,(662) 412-3128,,
M. Kevin Horan,Carroll County Board Attorney,"PO Box 2166, Grenada 38902-2166",(662) 226-2185,(662) 226-2127,,
Doug Evans,Carroll County District Attorney," PO Box 1262, Grenada 38902-1262",(662) 226-8545,(662) 227-9558,,
Lori M. Bell,Carroll County Prosecuting Attorney,"PO Box 623, Carrollton 38917",(662) 237-1117,(662) 237-6860,,
Clint Walker,Carroll County Sheriff," PO Box 291, Carrollton 38917",(662) 237-9283,(662) 237-6655,,
Jim Neill,Carroll County Supervisor (D-1),PO Box 60,(662) 237-9660,(662) 237-9642,,
Terry Brown,Carroll County Supervisor (D-2)," PO Box 60, Carrollton 38917",(662) 237-9660,(662) 237-9642,,
Dill Tucker,Carroll County Supervisor (D-3),"PO Box 60, Carrollton 38917",(662) 237-9660,(662) 237-9642,,
Claude Fluker,Carroll County Supervisor (D-4),"PO Box 60, Carrollton 38917",(662) 237-9660,(662) 237-9642,,
Rickie Corley,Carroll County Supervisor (D-5)," PO Box 60, Carrollton 38917",(662) 237-9660,(662) 237-9642,,
Gary Carnathan ,Chickasaw County Board Attorney,"316 N Boradway St, Tupelo 38804",(662) 842-3321,,,
Ben Creekmore,Chickasaw County District Attorney,"1301 Monroe Avenue, Oxford 38655",(662) 234-3304,(662) 234-0299,,
Gene Barton,Chickasaw County Prosecuting Attorney," PO Box 147, Okolona 38860",(662) 456-4201,,,
James Meyers,Chickasaw County Sheriff,"130 Lancaster Cir, Houston 38851",(662) 456-2339,(662) 456-5291,,
Anderson McFarland,Chickasaw County Supervisor (D-1)," 1 Pinson Square Rd, Houston 38851",(662) 456-2513,(662) 456-5295,,
Bill Blissard ,Chickasaw County Supervisor (D-2),"1 Pinson Square Rd, Houston 38851",(662) 456-2513,(662) 456-5295,,
Russell Earl Brooks,Chickasaw County Supervisor (D-3),"1 Pinson Square Rd, Houston 38851",(662) 456-2513,(662) 456-5295,,
Jerry Hall,Chickasaw County Supervisor (D-4),"1 Pinson Square Rd, Houston 38851",(662) 456-2513,(662) 456-5295,,
James R. King,Chickasaw County Supervisor (D-5),"1 Pinson Square Rd, Houston 38851",(662) 456-2513,(662) 456-5295,,
Kacey Young,Choctaw County Board Attorney,"PO Box 250, Ackerman 39735",(662) 285-6329,(662) 285-3444,,
Thomas Raybourn,Choctaw County Constable (P-1)," 1040 Bright Rd, Ackerman 39735",(662) 285-3599,(662) 285-9039,,
Chris Coleman,Choctaw County Constable (P-2)," PO Box 1308, Ackerman 39735 ",(662) 285-3599,(662) 285-9039,,
Doug Evans,Choctaw County District Attorney," PO Box 1262, Grenada 38902-1262",(662) 226-8545,(662) 227-9558,,
William Stephenson  ,Choctaw County Justice Court Judge (Post 1),"140 Jail House Rd, Ackerman 39735",(662) 285-3599,(662) 285-9039,,
Teresa Weeks,Choctaw County Justice Court Judge (Post 2),"140 Jail House Rd, Ackerman 39735",(662) 285-3599,(662) 285-9039,,
Kevin Null,Choctaw County Prosecuting Attorney," PO Box 756, Ackerman 39735",(662) 285-3880,(662) 285-3073,,
Cloyd Halford,Choctaw County Sheriff,"122 Jail House Rd, Ackerman 39735",(662) 285-6129,(662) 285-9040,,
Joey Stephenson,Choctaw County Supervisor (D-1),"PO Box 250, Ackerman 39735",(662) 285-6329,(662) 285-3444,,
Greg Fondren,Choctaw County Supervisor (D-2),"PO Box 250, Ackerman 39735",(662) 285-6329,(662) 285-3444,,
Chris McIntire,Choctaw County Supervisor (D-3)," PO Box 250, Ackerman 39735",(662) 285-6329,(662) 285-3444,,
John Shumaker,Choctaw County Supervisor (D-4)," PO Box 250, Ackerman 39735",(662) 285-6329,(662) 285-3444,,
Eric Chambers,Choctaw County Supervisor (D-5),"PO Box 250, Ackerman 39735",(662) 285-6329,(662) 285-3444,,
Lori Power Kerr.,Choctaw County Tax Assessor," PO Box 907, Ackerman 39735",(662) 285-6320,(662) 285-9067,,
Lori Power Kerr.,Choctaw County Tax Collector," PO Box 907, Ackerman 39735",(662) 285-6320,(662) 285-9067,,
Barbara Blackmon,Claiborne County Board Attorney," 907 Peace St, Canton 39046",(601) 859-1567,(601) 859-2311,,
Alexander C. Martin,Claiborne County District Attorney,"PO Drawer 767, Hazlehurst 39083",(601) 894-5040,(601) 894-9080,,
Michael KeytoN,Claiborne County Prosecuting Attorney,"PO Box 694, Port Gibson 39150",(601) 437-3322,(601) 437-0088,,
Frank Davis  ,Claiborne County Sheriff,"PO Box 427, Port Gibson 39150",(601) 437-5161,(601) 437-3824,,
Marie Clark,Claiborne County Supervisor (D-1)," PO Box 689, Port Gibson 39150",(601) 437-5216,(601) 437-4430,,
Kenneth R. Davis,Claiborne County Supervisor (D-2)," PO Box 689, Port Gibson 39150",(601) 437-5216,(601) 437-4430,,
Lonnie O’Quinn,Claiborne County Supervisor (D-3)," PO Box 689, Port Gibson 39150",(601) 437-5216,(601) 437-4430,,
Ronald Shoulders,Claiborne County Supervisor (D-4),"PO Box 689, Port Gibson 39150",(601) 437-5216,(601) 437-4430,,
Daniel L. Porter,Claiborne County Supervisor (D-5)," PO Box 689, Port Gibson 39150",(601) 437-5216,(601) 437-4430,,
Greg Snowden,Clarke County Board Attorney," PO Box 3807, Meridian 39303-3807",(601) 693-5700,,,
E. J. (Bilbo) Mitchell,Clarke County District Attorney," PO Box 5163, Meridian 39302.",(601) 482-9757,(601) 483-0085,,
Edward N Kramer III,Clarke County Prosecuting Attorney,"PO Box 46, Quitman 39355",(601) 776-5399,(601) 776-6888,,
Todd Kemp. ,Clarke County Sheriff,"444 West Donald St, Quitman 39355",(601) 776-5252,(601) 776-1025,,
Darrick L. Marshall,Clarke County Supervisor (D-1),"PO Box 616, Quitman 39355",(601) 776-5873,(601) 776-1013,,
Lorenzo Carter,Clarke County Supervisor (D-2)," PO Box 616, Quitman 39355",(601) 776-5873,(601) 776-1013,,
Troy Smith,Clarke County Supervisor (D-3)," PO Box 616, Quitman 39355",(601) 776-5873,(601) 776-1013,,
Paul Mosley,Clarke County Supervisor (D-4)," PO Box 616, Quitman 39355",(601) 776-5873,(601) 776-1013,,
Mickey Long,Clarke County Supervisor (D-5),"PO Box 616, Quitman 39355",(601) 776-5873,(601) 776-1013,,
Bob Marshall,Clay County Board Attorney," PO Box 835, West Point 39773.",(662) 494-5184,(662) 492-4059,,
Scott Colom,Clay County District Attorney," PO Box 1044, Columbus 39703 ",(662) 329-5911,(662) 327-1854,,
Michelle D. Easterling,Clay County Prosecuting Attorney,"PO Box 835, West Point 39773.",(662) 494-5184,,,
Eddie Scott,Clay County Sheriff,"PO Box 142, West Point 39773",(662) 494-2896,(662) 494-4034,,
Lynn Horton,Clay County Supervisor (D-1),"PO Box 815, West Point 39773",(662) 494-3313,(662) 492-4059,,
Luke Lummus,Clay County Supervisor (D-2),"PO Box 815, West Point 39773",(662) 494-3313,(662) 492-4059,,
R.B. Davis,Clay County Supervisor (D-3),"PO Box 815, West Point 39773",(662) 494-3313,(662) 492-4059,,
Shelton L. Deanes,Clay County Supervisor (D-4),"PO Box 815, West Point 39773",(662) 494-3313,(662) 492-4059,,
Joe D. Chandler,Clay County Supervisor (D-5)," PO Box 815, West Point  39773",(662) 494-3313,(662) 492-4059,,
Tom Ross Jr,Coahoma County Board Attorney," PO Box 1196, Clarksdale 38614",(662) 627-5251,,,
Brenda F. Mitchell,Coahoma County District Attorney,"PO Box 848, Cleveland 38732",(662) 843-8000,(662) 846-1711,,
John M. Sherman,Coahoma County Prosecuting Attorney," 203 Court Street, Clarksdale 38614 ",(662) 627-5310,(662) 627-6791,,
Charles Jones,Coahoma County Sheriff,"PO Box 1182, Clarksdale 38614",(662) 624-3081,(662) 624-3035,,
Paul Pearson,Coahoma County Supervisor (D-1)," 325 Pearson Rd, Lyon 38645",(662) 624-3028,(662) 624-3029,,
Pat Davis Jr,Coahoma County Supervisor (D-2),"4500 Farrell Rd, Clarksdale 38614",(662) 302-1761,(662) 624-3029,,
Derrell Washington,Coahoma County Supervisor (D-3),"PO Box 112, Jonestown 38639",(662) 902-8221,(662) 624-3029,,
Johnny Newson,Coahoma County Supervisor (D-4),"433 Andrews St, Clarksdale 38614",(662) 627-2279,(662) 624-3029,,
Will Young,Coahoma County Supervisor (D-5),"1820 Young Rd, Clarksdale 38614",(662) 902-3276,(662) 621-9022,,
Elise Munn,Copiah County Board Attorney,"P. O. Drawer 768, Hazlehurst 39083",(601) 894-4150,(601) 894-4717,,
Alexander C. Martin,Copiah County District Attorney,"PO Drawer 767, Hazlehurst 39083",(601) 894-5040,(601) 894-9080,,
Elise B. Munn,Copiah County Prosecuting Attorney,"PO Drawer 768, Hazlehurst 39083",(601) 894-4150,(601) 894-4717,,
Harold L. Jones Jr,Copiah County Sheriff," PO Box 547, Hazlehurst 39083",(601) 894-3011,(601) 892-2133,,
Daryl McMillian,Copiah County Supervisor (D-1)," PO Box 551, Hazlehurst 39083",(601) 894-1858,(601) 894-1908,(601) 953-9901,
Terry Channell,Copiah County Supervisor (D-2)," PO Box 551, Hazlehurst 39083",(601) 894-1858,(601) 894-1908,(601) 953-9902,
Perry Hood,Copiah County Supervisor (D-3)," PO Box 551, Hazlehurst 39083",(601) 894-1858,(601) 894-1908,(601) 953-9903,
Kenneth Powell,Copiah County Supervisor (D-4),"PO Box 551, Hazlehurst 39083",(601) 894-1858,(601) 894-1908,(601) 953-9904,
Jimmy L. Phillips,Copiah County Supervisor (D-5)," PO Box 551, Hazlehurst 39083",(601) 894-1858,(601) 894-1908,(601) 953-9905,
Tommy Rogers,Covington County Board Attorney," PO Box 1415, Collins 39428",(601) 765-8235,(601) 765-8237,,
Matt Sullivan,Covington County District Attorney,"100 Court Ave,Ste 4, Mendenhall 39114",(601) 847-1342,(601) 847-3428,,
John Alan Buffington,Covington County Prosecuting Attorney," PO Box 477, Prentiss 39471",(601) 792-4554,,,"PO Box 924, Collins 39428"
Stann Q. Smith,Covington County Sheriff,"PO Box 545, Collins 39428",(601) 765-8281,(601) 765-5003,,
Sterling Craft,Covington County Supervisor (D-1),"PO Box 1679, Collins 39428",(601) 765-8605,(601) 765-5016,,
John Holifield,Covington County Supervisor (D-2),"PO Box 1679, Collins 39428",(601) 765-8605,(601) 765-5016,,
Jimmy D. White,Covington County Supervisor (D-3),"PO Box 1679, Collins 39428",(601) 765-8605,(601) 765-5016,,
Guy Cecil Easterling,Covington County Supervisor (D-4),"PO Box 1679, Collins 39428",(601) 765-8605,(601) 765-5016,,
Arthur Keys,Covington County Supervisor (D-5),"PO Box 1679, Collins 39428",(601) 765-8605,(601) 765-5016,,
Tony Nowak,DeSoto County Board Attorney," 2545 Caffey St, Hernando 38632",(662) 429-7888,(662) 429-0107,,
John W Champion,DeSoto County District Attorney,"365 Losher St,Ste 210, Hernando 38632",(662) 469-8014,(662) 469-8231,,
Craig Treadway,DeSoto County Prosecuting Attorney," PO Box 681, Olive Branch 38654",(662) 469-8817,,,
Bill Rasco,DeSoto County Sheriff," 3091 Industrial Dr. W, Hernando 38632",(662) 469-8027,(662) 469-8543,,
Jessie Medlin,DeSoto County Supervisor (D-1)," 365 Losher St, Hernando 38632",(662) 469-8002,(662) 469-8181,,
Mark Gardner,DeSoto County Supervisor (D-2)," 365 Losher St, Hernando 38632",(662) 469-8002,(662) 469-8181,,
Bill Russell,DeSoto County Supervisor (D-3),"365 Losher St, Hernando 38632",(662) 469-8002,(662) 469-8181,,
Lee Caldwell,DeSoto County Supervisor (D-4)," 365 Losher St, Hernando 38632",(662) 469-8002,(662) 469-8181,,
Michael Lee,DeSoto County Supervisor (D-5)," 365 Losher St, Hernando 38632",(662) 469-8002,(662) 469-8181,,
David Miller,Forrest County Board Attorney," PO Box 1310, Hattiesburg 39403-1310 ",(601) 545-6006,(601) 545-6172,,
Patricia Burchell,Forrest County District Attorney,"PO Box 166, Hattiesburg 39403-0166",(601) 545-1551,(601) 545-6097,,
Pamela Luckie Castle,Forrest County Prosecuting Attorney," PO Box 2037, Hattiesburg 39403",(601) 544-4333,(601) 544-4331,,
Billy Bob McGee,Forrest County Sheriff," PO Box 747, Hattiesburg 39403",(601) 544-7800,(601) 544-8162,,
David Hogan,Forrest County Supervisor (D-1)," PO Box 1310, Hattiesburg 39403-1310 ",(601) 545-6000,(601) 545-6095,,
Charles E Marshall,Forrest County Supervisor (D-2)," PO Box 1310, Hattiesburg 39403-1310 ",(601) 545-6000,(601) 545-6095,,
Burkett Ross,Forrest County Supervisor (D-3),"PO Box 1310, Hattiesburg 39403-1310 ",(601) 545-6000,(601) 545-6095,,
Rod Woullard,Forrest County Supervisor (D-4),"PO Box 1310, Hattiesburg 39403-1310 ",(601) 545-6000,(601) 545-6095,,
Chris Bowen,Forrest County Supervisor (D-5),"PO Box 1310, Hattiesburg 39403-1310 ",(601) 545-6000,(601) 545-6095,,
William (Bill) Halford,Franklin County Board Attorney," 85 Main St. W, Meadville 39653",(601) 384-2100,(601) 384-2121,,
Ronnie Harper,Franklin County District Attorney," 307 Market St, Natchez 39120",(601) 445-4099,(601) 445-7947,,
Mary K. Williamson,Franklin County Prosecuting Attorney," PO Box 188, Meadville 39653",(601) 384-2343,(601) 384-5442,,
James Newman ,Franklin County Sheriff,"PO Box 396, Meadville 39653",(601) 384-2323,(601) 384-3770,,
Gary Cameron,Franklin County Supervisor (D-1)," PO Box 297, Meadville 39653",(601) 384-2330,(601) 384-5864,,
David (Tubb) Southerland,Franklin County Supervisor (D-2),"PO Box 297, Meadville 39653",(601) 384-2330,(601) 384-5864,,
Mike (Dirt) Hunt,Franklin County Supervisor (D-3)," PO Box 297, Meadville 39653",(601) 384-2330,(601) 384-5864,,
Jerry L. Howell,Franklin County Supervisor (D-4)," PO Box 297, Meadville 39653",(601) 384-2330,(601) 384-5864,,
Jimmie (Bodi) Bass,Franklin County Supervisor (D-5),"PO Box 297, Meadville 39653",(601) 384-2330,(601) 384-5864,,
Robert Shepard,George County Board Attorney,"922 Manila St, Lucedale 39452",(601) 947-7575,,,
Anthony (Tony) Lawrence III,George County District Attorney,"PO Box 1756, Pascagoula 39568-1756",(228) 769-3045,(228) 769-3345,,
Joey Griffin,George County Prosecuting Attorney,"368 Cox St, Lucedale 39452",(601) 508-0509,(601) 947-2939,,
Keith Havard,George County Sheriff," 355 Cox St,Ste B, Lucedale 39452 ",(601) 947-4811,(601) 947-0233,,
Fred A. Croom,George County Supervisor (D-1)," 355 Cox St,Ste D, Lucedale 39452",(601) 947-7506,,,
Kelly W Wright,George County Supervisor (D-2)," 355 Cox St,Ste D, Lucedale 39452",(601) 947-7506,,,
Larry D. McDonald,George County Supervisor (D-3),"355 Cox St,Ste D, Lucedale 39452",(601) 947-7506,,,
Larry Havard,George County Supervisor (D-4)," 355 Cox St,Ste D, Lucedale 39452",(601) 947-7506,,,
William Henry Cochran,George County Supervisor (D-5)," 355 Cox St,Ste D, Lucedale 39452",(601) 947-7506,,,
Roun McNeal,Greene County Board Attorney," PO Box 667, Leakesville 39451",(601) 394-2394,(601) 394-4650,,
Anthony (Tony) Lawrence III,Greene County District Attorney,"PO Box 1756, Pascagoula 39568-1756",(228) 769-3045,(228) 769-3345,,
Lee Turner,Greene County Prosecuting Attorney," PO Box 1492, Leakesville 39451",(601) 394-5008,(601) 394-2986,,
Stanley McLeod  ,Greene County Sheriff,"PO Box 637, Leakesville 39451",(601) 394-2341,(601) 394-5939,,
Gary L. Dearman,Greene County Supervisor (D-1),"PO Box 460, Leakesville 39451",(601) 394-2394,(601) 394-4650,,
William M. Hill,Greene County Supervisor (D-2)," PO Box 460, Leakesville 39451",(601) 394-2394,(601) 394-4650,,
Jerry Mills,Greene County Supervisor (D-3)," PO Box 460, Leakesville 39451",(601) 394-2394,(601) 394-4650,,
John W (Wayne) Barrow,Greene County Supervisor (D-4)," PO Box 460, Leakesville 39451",(601) 394-2394,(601) 394-4650,,
Harold Cook,Greene County Supervisor (D-5),"PO Box 460, Leakesville 39451",(601) 394-2394,(601) 394-4650,,
Jay Gore III,Grenada County Board Attorney," PO Box 901, Grenada 38902",(662) 226-1891,(662) 226-2237,,
Doug Evans,Grenada County District Attorney," PO Box 1262, Grenada 38902-1262",(662) 226-8545,(662) 227-9558,,
Judith Eldridge,Grenada County Justice Court Clerk,"16 First St, Grenada 38901.",(662) 226-3331,(662) 227-5513,,
Jimmy Tallant,Grenada County Justice Court Judge,"16 First St, Grenada 38901",(662) 226-3331,(662) 227-5513,,
Leon Williamson,Grenada County Justice Court Judge,"16 First St, Grenada 38901",(662) 226-3331,(662) 227-5513,,
Adam Kirk,Grenada County Prosecuting Attorney," PO Box 901, Grenada 38902-0901 ",(662) 226-1891,(662) 226-2237,,
Alton Strider,Grenada County Sheriff," 35 Doak St, Grenada 38901",(662) 227-2877,(662) 227-2872,,
Michael Lott,Grenada County Supervisor (D-1),"PO Box 1208, Grenada 38902",(662) 226-1821,(662) 227-2860,,
Chad Bridges,Grenada County Supervisor (D-2),"PO Box 1208, Grenada 38902",(662) 226-1821,(662) 227-2860,,
C. Columbus Hankins,Grenada County Supervisor (D-3),"PO Box 1208, Grenada 38902",(662) 226-1821,(662) 227-2860,,
Darrell Robinson,Grenada County Supervisor (D-4),"PO Box 1208, Grenada 38902",(662) 226-1821,(662) 226-2860,,
Chad P. Gray,Grenada County Supervisor (D-5),"PO Box 1208, Grenada 38902",(662) 226-1821,(662) 227-2860,,
Gary Yarborough,Hancock County Board Attorney," 854 Hwy. 90,Ste A, Bay St. Louis 39520",(228) 467-5771,,,
Joel Smith,Hancock County District Attorney," PO Drawer 1180, Gulfport 39502",(228) 865-4003,(228) 865-4239,,
Olen Anderson,Hancock County Prosecuting Attorney,"8450 Hwy. 90, Bay St. Louis 39520",(228) 255-5808,,,
Ricky Adam,Hancock County Sheriff,"8450 Hwy. 90, Bay St. Louis 39520",(228)466-6900,(228) 586-1636,,
David Yarborough,Hancock County Supervisor (D-1)," 854 Hwy. 90,Ste A, Bay St. Louis 39520",(228) 467-0172,(228) 466-5994,,
Greg Shaw,Hancock County Supervisor (D-2)," 854 Hwy. 90,Ste A, Bay St. Louis 39520",(228) 467-0172,(228) 466-5994,,
Blaine LaFontaine,Hancock County Supervisor (D-3)," 854 Hwy. 90,Ste A, Bay St. Louis 39520",(228) 467-0172,(228) 466-5994,,
Scotty Adam,Hancock County Supervisor (D-4)," 854 Hwy. 90,Ste A, Bay St. Louis 39520",(228) 467-0172,(228) 466-5994,,
Darrin (Bo) Ladner,Hancock County Supervisor (D-5)," 854 Hwy. 90,Ste A, Bay St. Louis 39520",(228) 467-0172,(228) 466-5994,,
Tim Holleman,Harrison County Board Attorney," 1720 23rd Ave, Gulfport 39501 ",(228) 863-3142,,,
John McAdams,Harrison County Chancery Clerk," PO Box 544, Biloxi 39533",(228) 435-8220,(228) 435-8292,,
John McAdams,Harrison County Chancery Clerk,"PO Drawer CC, Gulfport 39502",(228) 865-4164,(228) 214-1583,,
Joel Smith,Harrison County District Attorney," PO Drawer 1180, Gulfport 39502",(228) 865-4003,(228) 865-4239,,
Herman Cox,Harrison County Prosecuting Attorney,"PO Box 1754, Gulfport 39502",(228) 865-4255,(228) 867-6556,,
,Harrison County Sheriff,,,,,
Beverly Martin,Harrison County Supervisor (D-1),"PO Box 413, Biloxi 39533",(228) 435-8272,(228) 435-8289,,
Connie Rockco,Harrison County Supervisor (D-2)," PO Box 413, Biloxi 39533",(228) 865-4123,(228) 435-8289,,
Angel Kibler-Middleton ,Harrison County Supervisor (D-2)," PO Drawer CC, Gulfport 39502",(228) 865-4122,(228) 865-4206,,
Marlin Ladner,Harrison County Supervisor (D-3)," PO Drawer CC, Gulfport 39502",(228) 867-6528,(228) 865-4162,,
Kent Jones,Harrison County Supervisor (D-4)," PO Drawer CC, Gulfport 39502",(228) 865-4204,(228) 867-6551,,
David LaRosa,Harrison County Tax Collector," PO Box 1270, Gulfport 39502",(228) 865-4039,(228) 865-4180,,
David LaRosa,Harrison County Tax Collector," PO Box 1270, Gulfport 39502",(228) 865-4039,(228) 865-4180,,
Pieter Teeuwissen,Hinds County Board Attorney,"PO Box 686, Jackson 39205",(601) 968-6797,(601) 968-6594,,
Robert Shuler Smith,Hinds County District Attorney,PO Box 22747,(601) 968-6568,(601) 968-6655,,
Martin Perkins (Interim),Hinds County Prosecuting Attorney," PO Box 483, Jackson 39205",(601) 948-5030,(601) 948-5044,,
Charles Edwards,Hinds County Prosecuting Attorney," PO Box 956, Lexington 39095",(662) 843-9029,(662) 834-3117,,
,Hinds County Sheriff,,,,,
Robert Graham.,Hinds County Supervisor (D-1)," PO Box 686, Jackson 39205",(601) 968-6689,,,
Darrel McQuirter,Hinds County Supervisor (D-2)," PO Box 686, Jackson 39205",(601) 968-6690,,,
Peggy Hobson CalhouN,Hinds County Supervisor (D-3)," PO Box 686, Jackson 39205",(601) 968-6768,,,
Mike Morgan,Hinds County Supervisor (D-4)," PO Box 686, Jackson 39205",(601) 857-2622,,,
Bobby McGowan,Hinds County Supervisor (D-5)," PO Box 686, Jackson 39205",(601) 968-6699,,,
Katherine B. Riley,Holmes County Board Attorney," PO Box 927, Lexington 39095",(662) 834-2488,(662) 834-6136,,
Akillie Malone Oliver,Holmes County District Attorney," PO Box 311, Durant 39063 ",(662) 653-3191,(662) 653-6723,,
Noel D. Crook,Holmes County Prosecuting Attorney," PO Box 342, Belzoni 39038",(662) 247-4013,(662) 247-4092,,
Willie E March,Holmes County Sheriff," PO Box 1 20, Lexington 39095",(662) 834-1511,(662) 834-3362,,
Henry Anderson,Holmes County Supervisor (D-1)," PO Box 239, Lexington 39095",(662) 834-0911,(662) 834-3345,,
James H. Young,Holmes County Supervisor (D-2),"144 Wade Green Road, West 39192",(662) 967-2560,(662) 834-3117,,
Debra Mabry,Holmes County Supervisor (D-3)," PO Box 582, Pickens 39460",(662) 502-5214,(662) 834-3117,,
Larry Davis,Holmes County Supervisor (D-4),"729 H. Davis Rd, Tchula 39169",(662) 502-5214,(662) 834-3117,,
Eddie J. Carthan,Holmes County Supervisor (D-5),"PO Box 239, Lexington 3905",(662) 834-0911,(662) 834-3117,,
Willie Bailey,Humphreys County Board Attorney,"PO Box 189, Greenville 38702",(662) 335-1966,(662) 335-1969,,
Akillie Malone Oliver,Humphreys County District Attorney," PO Box 311, Durant 39063 ",(662) 653-3191,(662) 653-6723,,
Charles Weissinger,Humphreys County Prosecuting Attorney," PO Box 215, Rolling Fork 39159",(662) 873-6258,(662) 873-6903,,
J.D. (Bubba) Roseman,Humphreys County Sheriff,"106 Castleman St, Belzoni 39038",(662) 247-2551,(662) 247-3902,,
James Bankhead,Humphreys County Supervisor (D-1),"709 Cohn St, Belzoni 39038",(662) 247-2296,(662) 247-3906,,
R. D. (Dickie) Stevens,Humphreys County Supervisor (D-2),"126 S Belzoni St, Isola 38754",(662) 962-3101,(662) 247-5664,,
Woodrow Johnson Sr,Humphreys County Supervisor (D-3),"Rt. 6 Box 234, Yazoo City 39194.",(662) 746-6645,(662) 247-5664,,
Jerry Wood  ,Humphreys County Supervisor (D-4),"PO Box 375, Belzoni 39038",(662) 247-2285,(662) 247-1853,,
Roy Broomfield. ,Humphreys County Supervisor (D-5),"403 Eisenhower St, Belzoni 39038",(662) 247-3906,(662) 247-5664,,
Charles Weissinger,Issaquena County Board Attorney," PO Box 215, Rolling Fork 39159",(662) 873-6258,(662) 873-6903,,
Angela Williams,Issaquena County Coroner,"PO Box 152, Mayersville 39113",(662) 873-6254,(662) 873-2061,,
Richard (Ricky) Smith Jr,Issaquena County District Attorney," PO Box 648, Vicksburg 39181",(601) 636-5754,(601) 636-8664,,
Michael P. Mills Jr,Issaquena County Prosecuting Attorney," 100 A W Main St, Fulton 38843",(662) 862-5855,(662) 862-5811,,
Richard Jones,Issaquena County Sheriff,"PO Box 147, Mayersville 39113",(662) 873-2781,(662) 873-4500,,
"Lewis Hatcher, President",Issaquena County Supervisor (D-1)," PO Box 27, Mayersville 39113",(662) 873-4316,(662) 873-2061,,
John T. Kerr Jr,Issaquena County Supervisor (D-2),"PO Box 27, Mayersville 39113",(662) 907-1069,(662) 873-2061,,
Stallard Williams,Issaquena County Supervisor (D-3),"PO Box 27, Mayersville 39113",(662) 907-0266,(662) 873-2061,,
Michael Parker,Issaquena County Supervisor (D-4)," PO Box 27, Mayersville 39113",(662) 873-7100,(662) 873-2061,,
"Eddie Holcomb, Vice President",Issaquena County Supervisor (D-5)," PO Box 27, Mayersville 39113",(662) 873-6478,(662) 873-2061,,
Bo Russell,Itawamba County Board Attorney," PO Box 187, Fulton 38843",(662) 862-4656,(662) 862-7159,,
John Weddle,Itawamba County District Attorney,"PO Box 7237, Tupelo 38802",(662) 432-2800,(662) 432-2831,,
Shelia Spradling,Itawamba County Justice Court Clerk," 304 W Wiygul St,Ste D, Fulton 38843",(662) 862-4315,(662) 862-5805,,
John Bishop,Itawamba County Justice Court Judge," 304 W Wiygul St,Ste D, Fulton 38843",(662) 862-4315,(662) 862-5805,,
Harold Holcomb,Itawamba County Justice Court Judge," 304 W Wiygul St,Ste D, Fulton 38843.",(662) 862-4315,(662) 862-5805,,
Mark H. Watts,Itawamba County Prosecuting Attorney," PO Drawer 1499, Pascagoula 39568",(228) 762-2373,(228) 769-1417,,
Chris Dickinson,Itawamba County Sheriff," 201 S Cummings St, Fulton 38843 ",(662) 862-3401,(662) 862-3175,,
Michael Nanney,Itawamba County Superintendent of Education,"605 S Cummings St, Fulton 38843",(662) 862-2159,(662) 862-4713,,
Charles Horn,Itawamba County Supervisor (D-1),"PO Box 776, Fulton 38843",(662) 862-5600,(662) 862-3421,,
Cecil (Ike) Johnson Sr,Itawamba County Supervisor (D-2)," PO Box 776, Fulton 38843",(662) 862-5600,(662) 862-3421,,
Steve Moore,Itawamba County Supervisor (D-3)," PO Box 776, Fulton 38843",(662) 862-5600,(662) 862-3421,,
Eric (Tiny) Hughes,Itawamba County Supervisor (D-4),"PO Box 776, Fulton 38843",(662) 862-5600,(662) 862-3421,,
Steve Johnson,Itawamba County Supervisor (D-5),"PO Box 776, Fulton 38843",(662) 862-5600,(662) 862-3421,,
Gary Evans,Jackson County Board Attorney," PO Box 998, Pascagoula 39568-0998",(228) 769-3371,(228) 769-3119,,
Anthony (Tony) Lawrence III,Jackson County District Attorney,"PO Box 1756, Pascagoula 39568-1756",(228) 769-3045,(228) 769-3345,,
Joseph T. (JoJo) Sims,Jackson County Prosecuting Attorney,"PO Box 361, Bay Springs 39422",(601) 784-4497,(601) 764-4499,,
Mike Ezell,Jackson County Sheriff," PO Box 998, Pascagoula 39568-0998",(228) 769-3024,(228) 762-6168,,
Barry Cumbest,Jackson County Supervisor (D-1),"PO Box 998, Pascagoula 39568-0998",(228) 769-3403,(228) 769-3475,,
Melton Harris Jr,Jackson County Supervisor (D-2)," PO Box 998, Pascagoula 39568-0998",(228) 769-3170,(228) 762-6578,,
Kenneth Taylor,Jackson County Supervisor (D-3),"PO Box 998, Pascagoula 39568-0998",(228) 762-7641,(228) 769-3363,,
Troy Ross,Jackson County Supervisor (D-4),"PO Box 998, Pascagoula 39568-0988",(228) 769-3457,(228) 769-3482,,
Randy Bosarge,Jackson County Supervisor (D-5),"PO Box 998, Pascagoula 39568-0998",(228) 769-3378,(228) 696-6500,,
William Ruffin,Jasper County Board Attorney,"PO Box 565, Bay Springs 39422 ",(601) 764-4555,(601) 764-2234,,
Matt Sullivan,Jasper County District Attorney,"100 Court Ave,Ste 4, Mendenhall 39114",(601) 847-1342,(601) 847-3428,,
Jeffery Harness,Jasper County Prosecuting Attorney," PO Box 758, Fayette 39069",(601) 702-1947,,,
Randy Johnson,Jasper County Sheriff," PO Box 464, Bay Springs 39422",(601) 764-2588,(601) 764-4016,,
Eddie Helms,Jasper County Supervisor (D-1),"PO Box 406, Bay Springs 39422 ",(601) 764-3469,(601) 764-3468,,
Sandy Stephens ,Jasper County Supervisor (D-2)," PO Box 406, Bay Springs 39422 ",(601) 764-3469,(601) 764-3468,,
Doug Rogers,Jasper County Supervisor (D-3)," PO Box 406, Bay Springs 39422 ",(601) 764-3469,(601) 764-3468,,
Johnny B. Rowell,Jasper County Supervisor (D-4),"PO Box 406, Bay Springs 39422 ",(601) 764-3469,(601) 764-3468,,
Curtis Gray Sr,Jasper County Supervisor (D-5)," PO Box 406, Bay Springs 39422",(601) 764-3469,(601) 764-3468,,
Everett SanderS ,Jefferson County Board Attorney,"PO Box 565, Natchez 39121",(601) 445-5570,(601) 445-0777,,
Alexander C. Martin,Jefferson County District Attorney,"PO Drawer 767, Hazlehurst 39083",(601) 894-5040,(601) 894-9080,,
Alan BuffingtoN,Jefferson County Prosecuting Attorney,"PO Box 1137, Prentiss 39474",(601) 792-4204,(601) 792-2894,,
Peter E Walker,Jefferson County Sheriff," PO Box 218, Fayette 39069(601) 786-3403",(601) 786-3403,(601) 786-6000,,
James Well.,Jefferson County Supervisor (D-1)," PO Box 145, Fayette 39069",(601) 786-3021,(601) 786-6009,,
Cammie Hutcherson,Jefferson County Supervisor (D-2)," PO Box 145, Fayette 39069",(601) 786-3021,(601) 786-6009,,
Jerry Wilson,Jefferson County Supervisor (D-3),"PO Box 145, Fayette 39069",(601) 786-3021,(601) 786-6009,,
SD. Johnson,Jefferson County Supervisor (D-4)," PO Box 145, Fayette 39069",(601) 786-3021,(601) 786-6009,,
Tracy Collins,Jefferson County Supervisor (D-5),"PO Box 145, Fayette 39069",(601) 786-3021,(601) 786-6009,,
Wes Daughdrill,Jefferson Davis County Board Attorney," PO Box 6005, Ridgeland 39158-6005",(601) 792-8591,(601) 792-0311,,
Hal Kittrell,Jefferson Davis County District Attorney,"500 Courthouse Sq,Ste 3, Columbia 39429",(601) 731-1476,(601) 731-1489,,
M. Wayne Thompson,Jefferson Davis County Prosecuting Attorney," PO Box 6509, Laurel 39441",(601) 426-0056,(601) 426-0058,,
Ron Strickland,Jefferson Davis County Sheriff,"PO Box 339, Prentiss 39474",(601) 792-5169,(601) 792-5980,,
Macon (Corky) Holliman,Jefferson Davis County Supervisor (D-1),"PO Box 1317, Prentiss 39474",(601) 792-4336,(601) 792-4038,,
Charles Reid,Jefferson Davis County Supervisor (D-2),"PO Box 1317, Prentiss 39474",(601) 792-4336,(601) 792-4038,,
John H. Thompson,Jefferson Davis County Supervisor (D-3),"PO Box 1317, Prentiss 39474",(601) 792-4336,(601) 792-4038,,
Michael O. Evans,Jefferson Davis County Supervisor (D-4)," PO Box 1317, Prentiss 39474",(601) 792-4336,(601) 792-4038,,
Bobby R. Rushing,Jefferson Davis County Supervisor (D-5),"PO Box 1317, Prentiss 39474",(601) 792-4336,(601) 792-4038,,
M. Wayne Thompson,Jones County Board Attorney," PO Box 6509, Laurel 39441",(601) 426-0056,(601) 426-0058,,
Anthony J. Buckley,Jones County District Attorney,"PO Box 313, Laurel 39441",(601) 649-4606,(601) 428-3191,,
Marvin Wiggins,Jones County Prosecuting Attorney,"PO Box 188, DeKalb 39328 ",(601) 743-4290,(601) 743-2789,,
,Jones County Sheriff,,,,,
Johnny Burnett,Jones County Supervisor (D-1)," PO Box 1468, Laurel 39441",(601) 428-3139,(601) 428-3602,,
Danny Spradley,Jones County Supervisor (D-2)," PO Box 1468, Laurel 39441",(601) 428-3139,(601) 428-3602,,
Barry E Saul,Jones County Supervisor (D-3)," PO Box 1468, Laurel 39441",(601) 428-3139,(601) 428-3602,,
David Scruggs,Jones County Supervisor (D-4)," PO Box 1468, Laurel 39441",(601) 428-3139,(601) 428-3602,,
Jerome Wyatt,Jones County Supervisor (D-5)," PO Box 1468, Laurel 39441",(601) 428-3139,(601) 428-3602,,
Robert (Bo) Bailey,Kemper County Board Attorney,"PO Box 188, DeKalb 39328 ",(601) 743-4477,(601) 743-5273,,
E. J. (Bilbo) Mitchell,Kemper County District Attorney," PO Box 5163, Meridian 39302",(601) 482-9757,(601) 483-0085,,
Linda Sciple Wright,Kemper County Justice Court Judge," PO Box 661, DeKalb 39328 ",(601) 743-2793,(601) 743-2789,,
Mary Gully,Kemper County Justice Court Judge," PO Box 661, DeKalb 39328 ",(601) 743-2793,(601) 743-2789,,
Bela J. Chain III,Kemper County Prosecuting Attorney,"PO Box 913, Oxford 38655 ",(662) 234-1667,(601) 236-3021,,
James Moore Sr,Kemper County Sheriff," PO Box 188, DeKalb 39328 ",(601) 743-2255,(601) 743-2266,,
James Granger,Kemper County Supervisor (D-1),"PO Box 188, DeKalb 39328 ",(601) 743-4477,(601) 743-2789,,
Johnny B. Whitsett,Kemper County Supervisor (D-2)," PO Box 188, DeKalb 39328 ",(601) 743-4477,(601) 743-2789,,
Justin Creer,Kemper County Supervisor (D-3)," PO Box 188, DeKalb 39328 ",(601) 743-4477,(601) 743-2789,,
Mike Luke,Kemper County Supervisor (D-4)," PO Box 188, DeKalb 39328 ",(601) 743-4477,(601) 743-2789,,
Chris Cole,Kemper County Supervisor (D-5),"PO Box 188, DeKalb 39328 ",(601) 743-4477,(601) 743-2789,,
David O’Donnell,Lafayette County Board Attorney," PO Drawer 676, Oxford 38655",(662) 234-0900,,,
Ben Creekmore,Lafayette County District Attorney,"1301 Monroe Avenue, Oxford 38655",(662) 234-3304,(662) 234-0299,,
Joseph Parker,Lafayette County Prosecuting Attorney," PO Box 1762 , Purvis 39475",(601) 794-2683,(601) 794-2685,,
F.D. (Buddy) East,Lafayette County Sheriff,"711 Jackson Ave, Oxford 38655",(662) 234-6421,(662) 236-0203,,
Kevin Frye,Lafayette County Supervisor (D-1)," PO Box 1240, Oxford 38655",(662) 236-2717,(662) 234-5402,,
Jeff Busby,Lafayette County Supervisor (D-2)," PO Box 1240, Oxford 38655",(662) 236-2717,(662) 234-5402,,
David Rikard,Lafayette County Supervisor (D-3)," PO Box 1240, Oxford 38655",(662) 236-2717,(662) 234-5402,,
Chad D. McLarty,Lafayette County Supervisor (D-4)," PO Box 1240, Oxford 38655",(662) 236-2717,(662) 234-5402,,
James M. Roberts,Lafayette County Supervisor (D-5)," PO Box 1240, Oxford 38655",(662) 236-2717,(662) 234-5402,,
Perry Phillips,Lamar County Board Attorney,"PO Box 1978, Purvis 39475",(601) 794-4545,(601) 794-1049,,
Hal Kittrell,Lamar County District Attorney,"500 Courthouse Sq,Ste 3, Columbia 39429",(601) 731-1476,(601) 731-1489,,
Justin M. Cobb,Lamar County Prosecuting Attorney,"PO Box 5633, Meridian 39302",(601) 693-1933,(601) 693-1935,,
Danny Rigel ,Lamar County Sheriff,"PO Box 352, Purvis 39475",(601) 794-8504,(601) 794-1002,,
Steve Lampton,Lamar County Supervisor (D-1),"PO Box 1240, Purvis 39475",(601) 794-8504,(601) 794-1049,,
Warren Byrd,Lamar County Supervisor (D-2)," PO Box 1240, Purvis 39475",(601) 794-8504,(601) 794-1049,,
Joe B. Bounds,Lamar County Supervisor (D-3)," PO Box 1240, Purvis 39475",(601) 794-8504,(601) 794-1049,,
Phillip Carlisle,Lamar County Supervisor (D-4)," PO Box 1240, Purvis 39475",(601) 794-8504,(601) 794-1049,,
Dale Lucus,Lamar County Supervisor (D-5)," PO Box 1240, Purvis 39475",(601) 794-8504,(601) 794-1049,,
Rick Barry,Lauderdale County Board Attorney,"PO Box 2009, Meridian 39302",(601) 693-2393,(601) 482-9744,,
Carolyn Mooney,Lauderdale County Chancery Clerk,"PO Box 1587, Meridian 39302-1587",(601) 482-9701,(601) 486-4943,,
Jerry G. Mason,Lauderdale County Chancery Court Judge (D-12),"PO Box 5681, Meridian 39302-5681",(601) 482-9729,,,
Larry Primeaux,Lauderdale County Chancery Court Judge (D-12),"PO Box 5165, Meridian 39302-5165",(601) 482-9729,,,
Justin M. Cobb,Lauderdale County Circuit Court Judge (D-10),"PO Box 5631, Meridian 39302",(601) 482-9741,,,
Lester F. Williamson Jr,Lauderdale County Circuit Court Judge (D-10),"PO Box 86, Meridian 39302",(601) 482-9741,,,
Tommie L. Coker,Lauderdale County Constable (D-1),"4205 50th St, Meridian 39305",(601) 693-4023,(601) 482-9813,,
Ondray M. Harris Sr,Lauderdale County Constable (D-2),"5552 Charlie Dunn Rd, Meridian 39301",(601) 483-7281,(601) 482-9813,,
Lee (Chuck) Roberts Jr,Lauderdale County Constable (D-4),"1069 Lee Roberts Rd. S, Meridian 39301 ",(601) 482-0261,(601) 482-9813,,
Frank M. Coleman,Lauderdale County County Court Judge,"PO Box 5822, Meridian 39302",(601) 482-9756,,,
Veldore F. Young-Graham,Lauderdale County County Court Judge,"PO Box 1970, Meridian 39302",(601) 482-9756,(601) 484-4940,,
Bruce Williams,Lauderdale County County Surveyor,"5418 Locust St, Meridian 39307",(601) 693-6156,,,
E. J. (Bilbo) Mitchell,Lauderdale County District Attorney,"PO Box 5163, Meridian 39302-5127",(601) 482-9757,(601) 483-0085,,
Chuck Overby,Lauderdale County Election Commissioner (D-1)," 2323 39th St, Meridian 39305",(601) 484-3981,,,
Consuella Naylor,Lauderdale County Election Commissioner (D-2),"4427 Experimental Station Rd, Lauderdale 39335 ",(601) 484-3980,,,
Awana Daniel Simmons,Lauderdale County Election Commissioner (D-3),"9505 W Lauderdale Rd, Collinsville 39325",(601) 482-9809,,,
Gloria Dancy,Lauderdale County Election Commissioner (D-4),"1110 39th Ave, Meridian 39307 – 6072",(601) 482-9808,,,
Jeff Tate,Lauderdale County Election Commissioner (D-5)," 5470 Gene Carr Rd, Meridian 39301",(601) 484-3982,,,
Darlene Jones,Lauderdale County Justice Court Clerk,"PO Box 5126, Meridian 39302-5126",(601) 482-9874,(601) 482-9813,,
Richard (Ricky) L. Roberts,Lauderdale County Justice Court Judge,"PO Box 5126, Meridian 39302",(601) 482-9874,(601) 482-9813,,
M. Robbie Robinson,Lauderdale County Justice Court Judge,"PO Box 5126, Meridian 39302",(601) 482-9874,(601) 482-9813,,
Darrell J. Theall,Lauderdale County Justice Court Judge,"PO Box 5126, Meridian 39302",(601) 482-9874,(601) 482-9813,,
Gerald Wayne Thompson,Lauderdale County Justice Court Judge,"PO Box 5126, Meridian 39302",(601) 482-9874,(601) 482-9813,,
Greer Goldman,Lauderdale County Road Manager,"410 Constitution Ave, Meridian 39301",(601) 482-9754,(601) 482-9744,,
William D. (Billy) Sollie,Lauderdale County Sheriff,"410 Constitution Ave, Meridian 39302",(601) 482-9806,(601) 486-4976,,
Randy Hodges,Lauderdale County Superintendent of Education,"PO Box 5498, Meridian 39302-5498",(601) 693-1683,(601) 485-1748,,
Jonathan (Coach) Wells ,Lauderdale County Supervisor (D-1),"410 Constitution Ave, 11th Fl, Meridian 39301",(601) 482-9746,(601) 482-9744,,
Wayman Newell ,Lauderdale County Supervisor (D-2),"410 Constitution Ave, 11th Fl, Meridian 39301",(601) 482-9746,(601) 482-9744,,
Josh Todd,Lauderdale County Supervisor (D-3),"410 Constitution Ave, 11th Fl, Meridian 39301",(601) 482-9746,(601) 482-9744,,
Joe Norwood,Lauderdale County Supervisor (D-4),"410 Constitution Ave, 11th Fl, Meridian 39301",(601) 482-9746,(601) 482-9744,,
Kyle Rutledge,Lauderdale County Supervisor (D-5),"410 Constitution Ave, 11th Fl, Meridian 39301",(601) 482-9746,(601) 482-9744,,
James D. Rainey,Lauderdale County Tax Assessor,"PO Box 687, Meridian 39302-0687",(601) 482-9779,(601) 484-3976,,
Doris Spidle ,Lauderdale County Tax Collector,"PO Box 5205, Meridian 39302-5205",(601) 482-9786,,,
John D. Sutton,Lawrence County Board Attorney," PO Box 1157, Monticello 39654",(601) 587-7900,(601) 587-7916,,
Hal Kittrell,Lawrence County District Attorney,"500 Courthouse Sq,Ste 3, Columbia 39429",(601) 731-1476,(601) 731-1489,,
Damond Ready,Lawrence County Prosecuting Attorney," PO Box 958, Monticello 39654",(601) 587-0029,(601) 587-0740,,
Lessie Butler,Lawrence County Sheriff," PO Box 816, Monticello 39654",(601) 587-2961,(601) 587-4740,,
Steve Garrett,Lawrence County Supervisor (D-1)," PO Box 1160, Monticello 39654",(601) 587-7351,(601) 587-0750,,
Billy Joe Boutwell,Lawrence County Supervisor (D-2),"PO Box 1160, Monticello 39654",(601) 587-7351,(601) 587-0750,,
Jerry Wayne Smithie,Lawrence County Supervisor (D-3)," PO Box 1160, Monticello 39654",(601) 587-7351,(601) 587-0750,,
Stanely Stephens,Lawrence County Supervisor (D-4)," PO Box 1160, Monticello 39654",(601) 587-7351,(601) 587-0750,,
Coach Archie Ross,Lawrence County Supervisor (D-5)," PO Box 1160, Monticello 39654",(601) 587-7351,(601) 587-0750,,
Jeff Webb,Leake County Board Attorney,"PO Box 452, Carthage 39051",(601) 267-9762,(601) 267-6132,,
Steven S Kilgore,Leake County District Attorney," PO Box 603, Philadelphia 39350",(601) 656-1991,(601) 656-2287,,
Carmen Wright,Leake County Prosecuting Attorney," PO Box 436, Carthage 39051",(601) 267-8061,(601) 267-7302,,
Greg Waggoner,Leake County Sheriff,"316 C.O. Brooks St, Carthage 39051",(601) 267-7361,(601) 267-4658,,
Tony M. Smith,Leake County Supervisor (D-1),"PO Box 595, Carthage 39051",(601) 267-8002,(601) 267-6132,,
Joe Andy Helton,Leake County Supervisor (D-2)," PO Box 595, Carthage 39051",(601) 267-8002,(601) 267-6132,,
Oliver Smith,Leake County Supervisor (D-3),"PO Box 595, Carthage 39051",(601) 267-8002,(601) 267-6132,,
Lucas Brown,Leake County Supervisor (D-4)," PO Box 595, Carthage 39051",(601) 267-8002,(601) 267-6132,,
Curtis Johnson,Leake County Supervisor (D-5)," PO Box 595, Carthage 39051",(601) 267-8002,(601) 267-6132,,
Gary Carnathan  ,Lee County Board Attorney,"PO Box 70, Tupelo 38802",(662) 842-3321,(662) 842-3324,,
John Weddle,Lee County District Attorney,"PO Box 7237, Tupelo 38802",(662) 432-2800,(662) 432-2831,,
James D. Moore,Lee County Prosecuting Attorney,"PO Box 911, Tupelo 38802.",(662) 840-8141,(662) 840-8140,,
Jim Howell Johnson,Lee County Sheriff," 510 N Commerce, Tupelo 38804",(662) 841-9040,(662) 841-9044,,
Phil Morgan,Lee County Supervisor (D-1)," PO Box 1785, Tupelo 38802",(662) 432-2000,(662) 840-4275,,
Mike Smith,Lee County Supervisor (D-2)," PO Box 1785, Tupelo 38802",(662) 432-2000,(662) 840-4275,,
Tony Roper.,Lee County Supervisor (D-3)," PO Box 1785, Tupelo 38802",(662) 432-2000,(662) 840-4275,,
Tommie Lee Ivy,Lee County Supervisor (D-4)," PO Box 1785, Tupelo 38802",(662) 432-2000,(662) 840-4275,,
Billy Joe Holland,Lee County Supervisor (D-5)," PO Box 1785, Tupelo 38802",(662) 432-2000,(662) 840-4275,,
Joyce Chiles,Leflore County Board Attorney," PO Box 250, Greenwood 38935",(662) 822-5940,(662) 455-7965,,
W Dewayne Richardson,Leflore County District Attorney," PO Box 426, Greenville 38702",(662) 378-2105,(662) 332-4665,,
Richard A. Oakes,Leflore County Prosecuting Attorney,"PO Drawer 1640, Greenwood 38935",(662) 453-7373,(662) 453-7378,,
Fredrick L. (Ricky) Banks,Leflore County Sheriff," PO Box 905, Greenwood 38935",(662) 453-5141,(662) 453-2221,,
Sam Abraham,Leflore County Supervisor (D-1)," PO Box 250, Greenwood 38935",(662) 455-3904,(662) 455-7965,,
Robert Moore,Leflore County Supervisor (D-2),"PO Box 250, Greenwood 38935",(662) 455-3904,(662) 455-7965,,
Anjuan Brown,Leflore County Supervisor (D-3),"PO Box 250, Greenwood 38935",(662) 455-3904,(662) 455-7965,,
Wayne Self.,Leflore County Supervisor (D-4),"PO Box 250, Greenwood 38935",(662) 455-3904,(662) 455-7965,,
Robert L. Collins,Leflore County Supervisor (D-5),"PO Box 250, Greenwood 38935",(662) 455-3904,(662) 455-7965,,
Robert Allen,Lincoln County Board Attorney,"PO Box 751, Brookhaven 39602",(601) 833-4361,(601) 833-6647,,
Dewitt (Dee) T. Bates Jr.,Lincoln County District Attorney,"284 E Bay St, Magnolia 39652",(601) 783-6677,(601) 783-5646,,
W Brady Kellems,Lincoln County Prosecuting Attorney," PO Box 1406, Brookhaven 39602",(601) 835-2900,(601) 833-7174,,
Steve Henry Rushing ,Lincoln County Sheriff,"PO Box 587, Brookhaven 39602",(601) 833-5231,(601) 833-4492,,
Jerry L. Wilson,Lincoln County Supervisor (D-1)," 116 St. George St, Brookhaven 39601",(601) 833-7172,(601) 835-3423,,
Bobby Watts,Lincoln County Supervisor (D-2)," PO Box 555, Brookhaven 39602",(601) 833-5820,(601) 835-3423,,
Nolan Earl Williamson,Lincoln County Supervisor (D-3)," 2451 Pleasant Hill Dr, Bogue Chitto 39629",(601) 734-2325,(601) 835-3423,,
C.E. (Eddie) Brown,Lincoln County Supervisor (D-4)," 3125 Maude LN SW, Bogue Chitto 39629",(601) 734-6455,(601) 835-3423,,
Doug Falvey,Lincoln County Supervisor (D-5)," PO Box 55, Brookhaven 39601",(601) 833-2680,(601) 835-3423,,
Tim Hudson,Lowndes County Board Attorney," PO Box 1364, Columbus 39703 ",(662) 328-2711,(662) 328-0745,,
Scott Colom,Lowndes County District Attorney," P.O Box 1044, Columbus 39703",(662) 329-5911,(662) 327-1854,,
Allison Pritchard Kizer,Lowndes County Prosecuting Attorney,"PO Box 291, Columbus 39703",(662) 329-4474,(662) 329-3030,,
Mike Arledge,Lowndes County Sheriff," PO Box 2341, Columbus 39704 ",(662) 329-5826,(662) 244-0769,,
Harry S Sanders,Lowndes County Supervisor (D-1)," PO Box 1364, Columbus 39703 ",(662) 329-5844,(662) 329-5881,,
Bill Brigham,Lowndes County Supervisor (D-2)," PO Box 1364, Columbus 39703 ",(662) 329-5844,(662) 329-5881,,
John Holliman,Lowndes County Supervisor (D-3),"PO Box 1364, Columbus 39703 ",(662) 329-5844,(662) 329-5881,,
Jeff A. Smith,Lowndes County Supervisor (D-4),"PO Box 1364, Columbus 39703 ",(662) 329-5844,(662) 329-5881,,
Leroy Brooks,Lowndes County Supervisor (D-5),"PO Box 1364, Columbus 39703 ",(662) 329-5844,(662) 329-5881,,
Michael Guest,Madison County District Attorney," PO Box 121, Canton 39046",(601) 859-7838,(601) 859-8880,,
Pamela Hancock,Madison County Prosecuting Attorney," 2961 South Liberty St, Canton 39046",(601) 855-5735,(601) 859-5878,,
Randall Tucker,Madison County Sheriff,"2941 S Liberty St, Canton 39046-8665",(601) 859-2345,(601) 859-5805,,
Sheila Jones,Madison County Supervisor (D-1)," PO Box 608, Canton 39046",(601) 855-5500,(601) 859-5875,,
Trey Baxter.,Madison County Supervisor (D-2)," PO Box 608, Canton 39046",(601) 855-5500,(601) 859-5875,,
Gerald Steen,Madison County Supervisor (D-3),"PO Box 608, Canton 39046",(601) 855-5500,(601) 859-5875,,
David Bishop,Madison County Supervisor (D-4),"PO Box 608, Canton 39046",(601) 855-5500,(601) 859-5875,,
Paul GriffiN,Madison County Supervisor (D-5)," PO Box 608, Canton 39046",(601) 855-5500,(601) 859-5875,,
Joseph Shepard ,Marion County Board Attorney,"PO Box 747, Columbia 39429",(601) 736-1122,(601) 736-1232,,
Cass Barnes,Marion County Chancery Clerk,"250 Broad St,Ste 2, Columbia 39429",(601) 736-2691,(601) 444-0206,,
Rhea H. Sheldon,Marion County Chancery Court Judge,"250 Broad St,Ste 12, Columbia 39429.",(601) 736-2220,,,
Johnny L. Williams,Marion County Chancery Court Judge,"PO Box 1664, Hattiesburg 39403-1664.",(601) 545-6037,,,
M. Ronald Doleac,Marion County Chancery Court Judge,"PO Box 872, Hattiesburg 39403-0872",(601) 544-2836,,,
Deborah J. Gabrell,Marion County Chancery Court Judge,"PO Box 807, Hattiesburg 39403-0807",(601) 545-6028,,,
Janette Nolan,Marion County Circuit Clerk,"250 Broad St,Ste 1, Columbia 39429",(601) 736-8246,(601) 731-6344,,
Anthony A. Mozingo,Marion County Circuit Court Judge,"PO Drawer 269, Purvis 39475",(601) 794-6035,,,
Prentiss G. Harrell,Marion County Circuit Court Judge,"PO Box 488, Purvis 39475",(601) 794-6035,,,
Claiborne McDonald,Marion County Circuit Court Judge,"PO Box 590, Poplarville 39470",(601) 403-2360,,,
Brian Foxworth,Marion County Constable,"500 Courthouse Sq, Columbia 39429",(601) 736-2572,(601) 736-2580,,
Robbie Gill,Marion County Constable," 500 Courthouse Sq, Columbia 39429",(601) 736-2572,(601) 736-2580,,
Norma Williamson,Marion County Coroner,"758 Goss-Bunkerhill Rd, Columbia 39429",(601) 731-2823,(601) 731-2429,,
Hal Kittrell,Marion County District Attorney,"500 Courthouse Sq,Ste 3, Columbia 39429",(601) 731-1476,(601) 731-1489,,
Mike Bennett,Marion County Election Commissioner,"36 Bay Ln, Columbia 39429",,,,
Van Lowry Jr,Marion County Election Commissioner,"475 River Bend Rd, Columbia 39429",,,,
Smitty Bracey,Marion County Election Commissioner,"421 John Thornhill Rd, Foxworth 39483",,,,
Thomas Rowell,Marion County Election Commissioner,"298 Pickwick Rd, Foxworth 39483",,,,
Charles (Coach) Marshall,Marion County Election Commissioner,"No. 4 Rural Center Ln, Columbia 39429",,,,
Wynette Parkman,Marion County Justice Court Clerk,"500 Courthouse Sq,Ste 2, Columbia 39429",(601) 736-2572,(601) 736-2580,,
Gwen Broom,Marion County Justice Court Judge,"500 Courthouse Sq,Ste 2, Columbia 39429",(601) 736-2572,(601) 736-2580,,
Sharon Hatfield Whitfield,Marion County Justice Court Judge,"500 Courthouse Sq,Ste 2, Columbia 39429",(601) 736-2572,(601) 736-2580,,
Scott Phillips,Marion County Prosecuting Attorney,"326-A 2nd Street, Columbia 39429",(601) 736-9301,(601) 731-6344,,
Berkley Hall,Marion County Sheriff,"219 Broad St, Columbia 39429",(601) 736-5051,(601) 731-3780,,
Wendy Bracey,Marion County Superintendent of Education,"1010 Hwy.13 North,Ste Z, Columbia 39429 ",(601) 736-7193,(601) 736-6274,,
Charles R. Dyess,Marion County Supervisor (D-1),"215 Broad St, Columbia 39429",(601) 736-7382,(601) 736-1232,,
Terry Broome,Marion County Supervisor (D-2),"215 Broad St, Columbia 39429",(601) 736-7382,(601) 736-1232,,
Tony Morgan,Marion County Supervisor (D-3),"215 Broad St, Columbia 39429",(601) 736-7382,(601) 736-1232,,
Raymon Rowell.,Marion County Supervisor (D-4),"215 Broad St, Columbia 39429",(601) 736-7382,(601) 736-1232,,
Calvin Newsom Sr,Marion County Supervisor (D-5),"215 Broad St, Columbia 39429",(601) 736-7382,(601) 736-1232,,
Teresa Terrell,Marion County Tax Assessor,"250 Broad St,Ste 3, Columbia 39429",(601) 736-3157,(601) 731-2304,,
Teresa Terrell,Marion County Tax Collector,"250 Broad St,Ste 3, Columbia 39429",(601) 736-8256,(601) 731-2304,,
Kent Smith,Marshall County Board Attorney," PO Box 849, Holly Springs 38635",(662) 252-3003,(662) 252-3006,,
Ben Creekmore,Marshall County District Attorney,"1301 Monroe Avenue, Oxford 38655",(662) 234-3304,(662) 234-0299,,
Shirley C. Byers,Marshall County Prosecuting Attorney,"PO Box 5008, Holly Springs 38634.",(662) 252-6530,(662) 252-6535,,
Kenny Dickerson,Marshall County Sheriff," PO Box 5100, Holly Springs 38635",(662) 252-1311,(662) 252-0006,,
Charles Terry,Marshall County Supervisor (D-1),"640 N West St, Holly Springs 38635",(662) 252-7903,(662) 252-0004,,
Eddie Dixon,Marshall County Supervisor (D-2),"4226 Hwy. 72 E, Holly Springs 38635",(662) 252-7903,(662) 252-0004,,
Keith Taylor,Marshall County Supervisor (D-3),"288 Peach Tree Rd, Byhalia 38611",(662) 252-7903,(662) 252-0004,,
George Zinn III,Marshall County Supervisor (D-4)," 3768 Marianna Rd, Holly Springs 38635",(662) 252-7903,(662) 252-0004,,
Ronnie Joe Bennett,Marshall County Supervisor (D-5)," 4927 Potts Camp Rd, Potts Camp 38659",(662) 252-7903,(662) 252-0004,,
David W Houston III  ,Monroe County Board Attorney,"PO Box 72, Aberdeen 39730",(662) 620-6219,,,
John Weddle,Monroe County District Attorney,"PO Box 7237, Tupelo 38802",(662) 432-2800,(662) 432-2831,,
Candace Cooper Blalock,Monroe County Prosecuting Attorney,"PO Box 81, Aberdeen 39730",(662) 368-8691,(662) 369-7674,,
Cecil Cantrell,Monroe County Sheriff,"PO Box 683, Aberdeen 39730",(662) 369-2468,(662) 369-2470,,
M. Joseph Richardson,Monroe County Supervisor (D-1)," PO Box 578, Aberdeen 39730",(662) 369-8143,(662) 369-7928,,
Billy Kirkpatrick.,Monroe County Supervisor (D-2),"PO Box 578, Aberdeen 39730",(662) 369-8143,(662) 369-7928,,
Glenn (Chip) Chism,Monroe County Supervisor (D-3),"PO Box 578, Aberdeen 39730",(662) 369-8143,(662) 369-7928,,
Fulton Ware,Monroe County Supervisor (D-4),"PO Box 578, Aberdeen 39730",(662) 369-8143,(662) 369-7928,,
Hosea Bogan,Monroe County Supervisor (D-5),"PO Box 578, Aberdeen 39730",(662) 369-8143,(662) 369-7928,,
Alan Lancaster,Montgomery County Board Attorney," PO Box 71, Winona 38967.",(662) 283-2132,(662) 283-2233,,
Doug Evans,Montgomery County District Attorney," PO Box 1262, Grenada 38902-1262",(662) 226-8545,(662) 227-9558,,
J. Lane Greenlee,Montgomery County Prosecuting Attorney," PO Box 430, Winona 38967",(662) 283-1354,(662) 283-4805,,
Jerry C. (Bubba) Nix Jr,Montgomery County Sheriff,"PO Box 346, Winona 38967",(662) 283-3343,(662) 283-4000,,
Keith McGee,Montgomery County Supervisor (D-1),"PO Box 71, Winona 38967",(662) 283-2333,(662) 283-2233,,
Edwin Taylor,Montgomery County Supervisor (D-2),"PO Box 71, Winona 38967",(662) 283-2333,(662) 283-2233,,
Willie Townsend Jr,Montgomery County Supervisor (D-3),"PO Box 71, Winona 38967",(662) 283-2333,(662) 283-2233,,
James Ron Wood Jr,Montgomery County Supervisor (D-4),"PO Box 71, Winona 38967",(662) 283-2333,(662) 283-2233,,
Janet Roby-Harper,Montgomery County Supervisor (D-5),"PO Box 71, Winona 38967",(662) 283-2333,(662) 283-2233,,
Wade White,Neshoba County Board Attorney,"PO Box 459, Philadelphia 39350",(601) 656-2451,(601) 656-2458,,
Steven S Kilgore,Neshoba County District Attorney," PO Box 603, Philadelphia 39350",(601) 656-1991,(601) 656-2287,,
Caleb E May,Neshoba County Prosecuting Attorney,"PO Box 388, Philadelphia 39350",(601) 656-4830,(601) 389-5844,,
Tommy G. Waddell,Neshoba County Sheriff," 401 E Beacon St,Ste 108, Philadelphia 39350",(601) 656-1414,(601) 650-3281,,
Keith E Lillis,Neshoba County Supervisor (D-1),"401 E Beacon St,Ste 201, Philadelphia 39350",(601) 656-6281,(601) 650-3280,,
Kevin Cumberland,Neshoba County Supervisor (D-2)," 401 E Beacon St,Ste 201, Philadelphia 39350",(601) 656-6281,(601) 650-3280,,
Jerry Goforth,Neshoba County Supervisor (D-3)," 401 E Beacon St,Ste 201, Philadelphia 39350",(601) 656-6281,(601) 650-3280,,
Allen White,Neshoba County Supervisor (D-4),"401 E Beacon St,Ste 201, Philadelphia 39350",(601) 656-6281,(601) 650-3280,,
Obbie Riley,Neshoba County Supervisor (D-5)," 401 E Beacon St,Ste 201, Philadelphia 39350",(601) 656-6281,(601) 650-3280,,
Jason Mangum,Newton County Board Attorney," PO Box 85, Decatur 39327.",(601) 635-3432,(601) 635-3479,,
Steven S Kilgore,Newton County District Attorney," PO Box 603, Philadelphia 39350",(601) 656-1991,(601) 656-2287,,
J. Douglas Smith,Newton County Prosecuting Attorney," PO Box 567, Decatur 39327",(601) 635-4444,(601) 635-4448,,
Jackie Knight,Newton County Sheriff,"PO Box 395, Decatur 39327",(601) 635-4401,(601) 635-5768,,
Kenneth Harris,Newton County Supervisor (D-1),"PO Box 68, Decatur 39327",(601) 635-4150,(601) 635-4531,,
Joe Alexander,Newton County Supervisor (D-2),"PO Box 68, Decatur 39327",(601) 635-4150,(601) 635-4531,,
Charles MouldS,Newton County Supervisor (D-3),"PO Box 68, Decatur 39327",(601) 635-4150,(601) 635-4531,,
Charles Godwin,Newton County Supervisor (D-4),"PO Box 68, Decatur 39327",(601) 635-4150,(601) 635-4531,,
Glenn Hollingsworth,Newton County Supervisor (D-5),"PO Box 68, Decatur 39327",(601) 635-4150,(601) 635-4531,,
May Bender,Newton County Tax Assessor," PO Box 7, Decatur 39327",(601) 635-2517,(601) 635-3402,,
May Bender,Newton County Tax Collector," PO Box 7, Decatur 39327",(601) 635-2517,(601) 635-3402,,
Chris D. Hemphill,Noxubee County Board Attorney,"PO Drawer 866, Columbus 39703",(662) 327-4211,,,
Scott Colom,Noxubee County District Attorney," PO Box 1044, Columbus 39703 ",(662) 329-5911,(662) 327-1854,,
Ricky D. Walker,Noxubee County Prosecuting Attorney,"PO Box 427, Macon 39341 ",(662) 726-5977,,,
Terry M. Grassaree,Noxubee County Sheriff," 2832 Jefferson, Macon 39341",(662) 726-5133,(662) 726-4166,,
Larry Tate,Noxubee County Supervisor (D-1),"PO Box 147, Macon 39341 ",(662) 726-5181,(662) 726-2272,,
William Oliver,Noxubee County Supervisor (D-2),"PO Box 147, Macon 39341 ",(662) 726-5181,(662) 726-2272,,
Sherman Patterson,Noxubee County Supervisor (D-3)," PO Box 147, Macon 39341 ",(662) 726-5181,(662) 726-2272,,
Eddie Coleman,Noxubee County Supervisor (D-4)," PO Box 147, Macon 39341 ",(662) 726-5181,(662) 726-2272,,
Bruce Bernard Brooks,Noxubee County Supervisor (D-5),"PO Box 147, Macon 39341 ",(662) 726-5181,(662) 726-2272,,
Jackson M. Brown,Oktibbeha County Board Attorney,"PO Box 57, Starkville 39760-2257",(662) 323-4126,(662) 323-4188,,
Scott Colom,Oktibbeha County District Attorney," PO Box 1044, Columbus 39703 ",(662) 329-5911,(662) 327-1854,,
Haley M. Brown,Oktibbeha County Prosecuting Attorney,"PO Box 1859, Starkville 39760",(662) 546-0861,,,
Steve Gladney,Oktibbeha County Sheriff,"111 Dr. D.L. Conner Dr, Starkville 39760",(662) 323-2421,(662) 324-5680,,
John P. Montgomery Jr.,Oktibbeha County Supervisor (D-1)," PO Box 80285, Starkville 39760",(662) 323-1520,(662) 338-1065,,
Orlando Trainer,Oktibbeha County Supervisor (D-2)," PO Box 80285, Starkville 39760",(662) 323-1520,(662) 338-1065,,
Marvell Howard,Oktibbeha County Supervisor (D-3)," PO Box 80285, Starkville 39760",(662) 323-1520,(662) 338-1065,,
Bricklee Miller,Oktibbeha County Supervisor (D-4)," PO Box 80285, Starkville 39760",(662) 323-1520,(662) 338-1065,,
Joe Williams,Oktibbeha County Supervisor (D-5),"PO Box 80285, Starkville 39760",(662) 323-1520,(662) 338-1065,,
William McKenzie III  ,Panola County Board Attorney,"PO Box 837, Batesville 39606",(662) 563-3536,(662) 563-2566,,
James R. Pitcock,Panola County Chancery Clerk," 151 Public Sq,Ste B, Batesville 38606",(662) 563-6205,(662) 563-6277,,
James R. Pitcock,Panola County Chancery Clerk," 215 S Pocahontas St, Sardis 38666",(662) 487-2070,(662) 487-3559,,
Mike Wilson,Panola County Constable (P-1),"PO Box 249, Sardis 38666",(662) 487-2080,(662) 487-2008,,
Charlie Baglan,Panola County Constable (P-2),"PO Box 249, Sardis 38666",(662) 487-2080,(662) 487-2008,,
John W Champion,Panola County District Attorney,"365 Losher St,Ste 210, Hernando 38632",(662) 469-8014,(662) 469-8231,,
Julius Harris,Panola County Election Commissioner," PO Box 495, Como 38619",null,null,,
Dorothy Kerney Wilbourn,Panola County Election Commissioner," PO Box 696, Como 38619",null,null,,
Wayne Belk,Panola County Election Commissioner,"10848 Hwy 35, Batesville 38606",null,null,,
Wanda Lawrence Carmichael,Panola County Election Commissioner," 36124 Hwy. 315, Batesville 38606",null,null,,
Kaye Smythe,Panola County Election Commissioner," 200 Bruce St, Batesville 38606",null,null,,
C. Gaines Baker.,Panola County Prosecuting Attorney,"136 Public Sq,Ste 1, Batesville 38606",(662) 563-9385,(662) 561-0743,,
Dennis L. Darby ,Panola County Sheriff," PO Box 273, Batesville 38606",(662) 563-6230,,,
James Birge,Panola County Supervisor (D-1),"PO Box 807, Batesville 38606",(662) 563-6200,(662) 563-6237,,
Vernice Avant,Panola County Supervisor (D-2)," 1332 Avant Rd, Crenshaw 38621",(662) 703-0102,(662) 563-6237,,
John F. Thomas,Panola County Supervisor (D-3)," PO Box 807, Batesville 38606",(662) 563-6200,(662) 563-6237,,
Donald Phelps,Panola County Supervisor (D-4),"PO Box 807, Batesville 30606",(662) 563-6200,(662) 563-6237,,
Barry C. Flint,Panola County Supervisor (D-5)," PO Box 807, Batesville 38606",(662) 563-6200,(662) 563-6237,,
David Garner,Panola County Tax Assessor," 151 Public Sq,Ste E, Batesville 38606",(662) 563-6270,(662) 563-4665,,
David Garner,Panola County Tax Assessor," 215 S Pocahontas, Sardis 38666",(662) 487-2092,(662) 487-2090,,
David Garner,Panola County Tax Collector," 151 Public Sq,Ste E, Batesville 38606",(662) 563-6215,(662) 563-6241,,
David Garner,Panola County Tax Collector," 215 S Pocahontas, Sardis 38666",(662) 487-2092,(662) 487-2090,,
Joe Montgomery,Pearl River County Board Attorney," PO Box 113, Poplarville 39470",(601) 795-4572,(601) 795-8382,,
Jason Hunt,Pearl River County Constable,"169 Savannah-Millard Rd,Ste A, Poplarville 39470",(601) 403-2500,(601) 403-2553,,
Adrian Lumpkin,Pearl River County County Administrator," PO Box 569, Poplarville 39470",(601) 403-2302,(601) 403-2309,,
Hal Kittrell,Pearl River County District Attorney,"500 Courthouse Sq,Ste 3, Columbia 39429",(601) 731-1476,(601) 731-1489,,
James Hal Breland,Pearl River County Justice Court Judge,"169 Savannah-Millard Rd,Ste A, Poplarville 39470",(601) 403-2500,(601) 403-2553,,
Aaron L. Russell Jr.,Pearl River County Prosecuting Attorney,"PO Box 476, Picayune 39466",(601) 403-2332,(601) 403-2553,,
David Allison,Pearl River County Sheriff," 200 S Main, Poplarville 39470",(601) 403-2340,(601) 403-2344,,
Alan Lumpkin,Pearl River County Superintendent of Education,"7903 Hwy. 11, Carriere 39426",(601) 798-7744,(601) 798-3527,,
Donald Hart,Pearl River County Supervisor (D-1)," PO Box 569, Poplarville 39470",(601) 403-2302,(601) 403-2309,,
Malcolm Perry,Pearl River County Supervisor (D-2)," PO Box 569, Poplarville 39470",(601) 403-2302,(601) 403-2309,,
Hudson Holliday,Pearl River County Supervisor (D-3)," PO Box 569, Poplarville 39470",(601) 403-2302,(601) 403-2309,,
Farron Moller,Pearl River County Supervisor (D-4)," PO Box 569, Poplarville 39470",(601) 403-2302,(601) 403-2309,,
Sandy Kane Smith,Pearl River County Supervisor (D-5)," PO Box 569, Poplarville 39470",(601) 403-2302,(601) 403-2309,,
Paul Walley  ,Perry County Board Attorney,"PO Box 183, New Augusta 39642",(601) 964-7878,(601) 964-7879,,
Guy A. Harvison,Perry County Constable,"12 Hubert Edwards Dr, Richton 39476",(601) 964-8366,(601) 964-8368,,
Patricia Burchell,Perry County District Attorney,"PO Box 166, Hattiesburg 39403-0166",(601) 545-1551,(601) 545-6097,,
Paul D. Walley,Perry County Prosecuting Attorney,"PO Box 183, New Augusta 39462",(601) 964-7878,(601) 964-7879,,
Mitch Nobles,Perry County Sheriff," PO Box 228, New Augusta 39462",(601) 964-8461,(601) 964-8463,,
Bobby Bolton,Perry County Supervisor (D-1),"PO Box 345, New Augusta 39462",(601) 964-8370,(601) 964-8265,,
Kevin Shows,Perry County Supervisor (D-2),"PO Box 345, New Augusta 39462",(601) 964-8370,(601) 964-8265,,
Tommy Walley,Perry County Supervisor (D-3)," PO Box 345, New Augusta 39462",(601) 964-8370,(601) 964-8265,,
Mitchell HintoN,Perry County Supervisor (D-4),"PO Box 345, New Augusta 39462",(601) 964-8370,(601) 964-8265,,
Marc Williams,Perry County Supervisor (D-5),"PO Box 345, New Augusta 39462",(601) 964-8370,(601) 964-8265,,
Wayne Dowdy,Pike County Board Attorney," PO Box 30, Magnolia 39652",(601) 783-6600,(601) 783-3670,,
Dewitt (Dee) T. Bates Jr.,Pike County District Attorney,"223 W Bay St, Magnolia 39652",(601) 783-6677,(601) 783-5646,,
David L. Brewer,Pike County Prosecuting Attorney,"249 Louisiana Ave, McComb 39648",(601) 551-4905,(866) 545-7876,,
Kenny Cotton,Pike County Sheriff," 2109 Jessie Hall Rd, Magnolia 39652",(601) 783-2327,(601) 783-6586,,
Tazwell Bowsky.,Pike County Supervisor (D-1)," PO Box 431, Magnolia 39652",(601) 783-6569,(601) 783-6540,,
Faye Hodges,Pike County Supervisor (D-2)," PO Box 431, Magnolia 39652",(601) 783-6569,(601) 783-6540,,
Chuck E Lambert,Pike County Supervisor (D-3),"PO Box 431, Magnolia 39652",(601) 783-6569,(601) 783-6540,,
Luke Brewer,Pike County Supervisor (D-4),"PO Box 431, Magnolia 39652",(601) 783-6569,(601) 783-6540,,
Gary Honea,Pike County Supervisor (D-5)," PO Box 431, Magnolia 39652",(601) 783-6569,(601) 783-6540,,
Phillip Tutor,Pontotoc County Board Attorney," PO Box 487, Pontotoc 38863",(662) 489-2415,(662) 489-6815,,
John Weddle,Pontotoc County District Attorney,"PO Box 7237, Tupelo 38802",(662) 432-2800,(662) 432-2831,,
Malcolm McAuley,Pontotoc County Prosecuting Attorney,"PO Box 878, Pontotoc 38863",(662) 489-1551,(662) 489-2726,,
Leo Mask,Pontotoc County Sheriff," PO Box 240, Pontotoc 38863",(662) 489-3915,(662) 489-3312,,
Wayne Stokes,Pontotoc County Supervisor (D-1)," PO Box 209, Pontotoc 38863",(662) 489-3900,(662) 489-3940,,
Mike McGregor.,Pontotoc County Supervisor (D-2),"PO Box 209, Pontotoc 38863",(662) 489-3900,(662) 489-3940,,
Brad Ward,Pontotoc County Supervisor (D-3),"PO Box 209, Pontotoc 38863",(662) 489-3900,(662) 489-3940,,
Ernie Wright,Pontotoc County Supervisor (D-4)," PO Box 209, Pontotoc 38863",(662) 489-3900,(662) 489-3940,,
Dan McKnight,Pontotoc County Supervisor (D-5)," PO Box 209, Pontotoc 38863",(662) 489-3900,(662) 489-3940,,
Tommy Cadle,Prentiss County Board Attorney," 101 South Main, Booneville 38829",(662) 728-2131,(662) 728-2007,,
Harry Allen,Prentiss County Constable," 1901-C E Chambers Dr, Booneville 38829",(662) 728-2001,(662) 728-2009,,
Sammy D. Henderson,Prentiss County Constable," 1901-C E Chambers Dr, Booneville 38829",(662) 728-2001,(662) 728-2009,,
John Weddle,Prentiss County District Attorney,"PO Box 7237, Tupelo 38802",(662) 432-2800,(662) 432-2831,,
Donna Inman,Prentiss County Justice Court Clerk,"1901-C E Chambers Dr, Booneville 38829",(662) 728-8696,(662) 728-2009,,
Allison A. Worley,Prentiss County Prosecuting Attorney," PO Box 430, Booneville 38829",(662) 720-1141,(662) 720-1142,,
Randy Tolar,Prentiss County Sheriff,"1901-B E Chambers Dr, Booneville 38829",(662) 728-6232,(662) 728-2003,,
James Ray Plaxico,Prentiss County Supervisor (D-1)," PO Box 477, Booneville 38829",(662) 728-4610,(662) 728-2007,,
Matt Murphy,Prentiss County Supervisor (D-2)," PO Box 477, Booneville 38829",(662) 728-4610,(662) 728-2007,,
Mike Kesler,Prentiss County Supervisor (D-3)," PO Box 477, Booneville 38829",(662) 728-4610,(662) 728-2007,,
Mike Huddleston,Prentiss County Supervisor (D-4)," PO Box 477, Booneville 38829",(662) 728-4610,(662) 728-2007,,
Larry Lambert,Prentiss County Supervisor (D-5)," PO Box 477, Booneville 38829",(662) 728-4610,(662) 728-2007,,
Robert Roy,Quitman County Board Attorney,"PO Drawer 250, Marks 38646",(662) 326-8530,(662) 326-2754,,
Brenda F. Mitchell,Quitman County District Attorney,"PO Box 848, Cleveland 38732",(662) 843-8000,(662) 846-1711,,
Jimmy Miller,Quitman County Prosecuting Attorney," PO Box 209, Marks 38646-0209",(662) 326-4223,,,
Oliver Parker Jr,Quitman County Sheriff,"PO Box 365, Marks 38646",(662) 326-3131,(662) 326-8004,,
Sheridan Boyd,Quitman County Supervisor (D-1)," 220 Chestnut St,Ste 2, Marks 38646",(662) 326-2661,(662) 326-8004,,
Greg Thomas,Quitman County Supervisor (D-2)," 220 Chestnut St,Ste 2, Marks 38646",(662) 326-2661,(662) 326-8004,,
Johnny Tullos,Quitman County Supervisor (D-3)," 220 Chestnut St,Ste 2, Marks 38646",(662) 326-2661,(662) 326-8004,,
Manuel Killebrew,Quitman County Supervisor (D-4)," 220 Chestnut St,Ste 2, Marks 38646",(662) 326-2661,(662) 326-8004,,
Jesse Ellis Sr,Quitman County Supervisor (D-5)," 220 Chestnut St,Ste 2, Marks 38646",(662) 326-2661,(662) 326-8004,,
Craig L. Slay,Rankin County Board Attorney,"211 E Government St,Ste A, Brandon 39042",(601) 824-2437,(601) 825-0431,,
Michael Guest,Rankin County District Attorney,"PO Box 68, Brandon 39043",(601) 825-1472,(601) 825-9605,,
Richard H. Wilson,Rankin County Prosecuting Attorney,"117 N Timber St, Brandon 39042",(601) 824-2590,(601) 824-2591,,
Bryan Bailey,Rankin County Sheriff,"221 N Timber, Brandon 39042",(601) 825-1480,(601) 824-0268,,
Jared K. Morrison ,Rankin County Supervisor (D-1),"211 E Government St,Ste A, Brandon 39042",(601) 825-1475,(601) 825-9600,,
Daniel Cross,Rankin County Supervisor (D-2),"211 E Government St,Ste A, Brandon 39042",(601) 825-1475,(601) 825-9600,,
Bob Morrow,Rankin County Supervisor (D-3),"211 E Government St,Ste A, Brandon 39042",(601) 825-1475,(601) 825-9600,,
Steve Gaines,Rankin County Supervisor (D-4),"211 E Government St,Ste A, Brandon 39042",(601) 825-1475,(601) 825-9600,,
Jay Bishop ,Rankin County Supervisor (D-5),"211 E Government St,Ste A, Brandon 39042",(601) 825-1475,(601) 825-9600,,
Roy Noble Lee Jr,Scott County Board Attorney," PO Box 370, Forest 39074",(601) 469-2721,(601) 469-4216,,
Steven S Kilgore,Scott County District Attorney," PO Box 603, Philadelphia 39350",(601) 656-1991,(601) 656-2287,,
Tanya Carl,Scott County Prosecuting Attorney," PO Box 57, Forest 39074",(601) 469-0112,(601) 469-0712,,
Mike Lee,Scott County Sheriff," 531 Airport Rd, Forest 39074",(601) 469-1511,(601) 469-5224,,
Jackie Bradford,Scott County Supervisor (D-1)," PO Box 630, Forest 39074",(601) 469-1926,(601) 469-5180,,
Tim Sorey,Scott County Supervisor (D-2),"PO Box 630, Forest 39074",(601) 469-1926,(601) 469-5180,,
Steven Crotwell,Scott County Supervisor (D-3),"PO Box 630, Forest 39074",(601) 469-1926,(601) 469-5180,,
Johnny P. Harrell,Scott County Supervisor (D-4),"PO Box 630, Forest 39074",(601) 469-1926,(601) 489-5180,,
Bruce McMillan,Scott County Supervisor (D-5),"PO Box 630, Forest 39074",(601) 469-1926,(601) 469-5180,,
Allen S Woodard,Sharkey County Board Attorney,"PO Box 10, Rolling Fork 39159",(662) 873-6777,(662) 873-9000,,
Richard (Ricky) Smith Jr,Sharkey County District Attorney," PO Box 648, Vicksburg 39181",(601) 636-5754,(601) 636-8664,,
Charles Weissinger,Sharkey County Prosecuting Attorney," PO Box 215, Rolling Fork 39159",(662) 873-6258,(662) 873-6903,,
Lindsey Adams Jr,Sharkey County Sheriff," 120 Locust St, Rolling Fork 39159",(662) 873-4321,(662) 873-6135,,
William E Newsom,Sharkey County Supervisor (D-1)," PO Box 218, Rolling Fork 39159",(662) 873-2755,(662) 873-6045,,
Leroy Smith Jr,Sharkey County Supervisor (D-2)," PO Box 218, Rolling Fork 39159",(662) 873-2755,(662) 873-6045,,
Samuel Matthews,Sharkey County Supervisor (D-3),"PO Box 218, Rolling Fork 39159",(662) 873-2755,(662) 873-6045,,
Tommy Ewing,Sharkey County Supervisor (D-4)," PO Box 218, Rolling Fork 39159",(662) 873-2755,(662) 873-6045,,
Willie Smith,Sharkey County Supervisor (D-5)," PO Box 218, Rolling Fork 39159",(662) 873-2755,(662) 873-6045,,
Danny Welch,Simpson County Board Attorney," 224 N Main St, Mendenhall 39114",(601) 847-2539,(601) 847-4449,,
Matt Sullivan,Simpson County District Attorney,"100 Court Ave,Ste 4, Mendenhall 39114",(601) 847-1342,(601) 847-3428,,
Wesley Broadhead.,Simpson County Prosecuting Attorney,"PO Box 446, Mendenhall 39114",(601) 847-2056,,,
Donald O’Cain,Simpson County Sheriff,"1496 Simpson Hwy. 149, Mendenhall 39114",(601) 847-2155,(601) 847-2156,,
Curtis Skiffer,Simpson County Supervisor (D-1)," PO Box 308, Mendenhall 39114",(601) 847-1418,(601) 847-7004,,
Danny Craft,Simpson County Supervisor (D-2)," PO Box 308, Mendenhall 39114",(601) 847-1418,(601) 847-7004,,
Brian Kennedy,Simpson County Supervisor (D-3)," PO Box 308, Mendenhall 39114",(601) 847-1418,(601) 847-7004,,
Mickey Berry,Simpson County Supervisor (D-4),"PO Box 308, Mendenhall 39114",(601) 847-1418,(601) 847-7004,,
Randy Moore,Simpson County Supervisor (D-5),"PO Box 308, Mendenhall 39114",(601) 847-1418,(601) 847-7004,,
Wendell James ,Smith County Board Attorney,"PO Box 302, Taylorsville 39168 (601) 452-5055",(601) 452-5055,(601) 452-5056,,
Matt Sullivan,Smith County District Attorney,"100 Court Ave,Ste 4, Mendenhall 39114",(601) 847-1342,(601) 847-3428,,
Wendell James,Smith County Prosecuting Attorney,"PO Box 861, Raleigh 39153",(601) 452-5055,(601) 782-9004,,
Charlie Crumpton,Smith County Sheriff,"PO Box 307, Raleigh 39153",(601) 782-4531,(601) 782-4003,,
Kenny Cain,Smith County Supervisor (D-1),"PO Box 160, Raleigh 39153",(601) 782-4000,(601) 782-4002,,
Dwight D. Norris,Smith County Supervisor (D-2),"PO Box 160, Raleigh 39153",(601) 782-4000,(601) 782-4002,,
Benjie Ford,Smith County Supervisor (D-3),"PO Box 160, Raleigh 39153",(601) 782-4000,(601) 782-4002,,
Danny Arender,Smith County Supervisor (D-4),"PO Box 160, Raleigh 39153",(601) 782-4000,(601) 782-4002,,
Howard Hammons,Smith County Supervisor (D-5),"PO Box 160, Raleigh 39153",(601) 782-4000,(601) 782-4002,,
Scott Gibson,Stone County Board Attorney,"PO Box 1270, Wiggins 39577",(601) 528-6028,,,
Gerald W Bond,Stone County Chancery Clerk,"PO Drawer 7, Wiggins 39577",(601) 928-5266,(601) 928-6464,,
Sanford (Sandy) Steckler,Stone County Chancery Court Judge (D-8),"PO Box 659, Gulfport 39502",(228) 865-4008,,,
Jim Persons,Stone County Chancery Court Judge (D-8),"PO Box 457, Gulfport 39502",(228) 865-4096,,,
Jennifer Schoegel,Stone County Chancery Court Judge (D-8),"PO Box 986, Gulfport 39502",(228) 865-4008,,,
Carter Bise,Stone County Chancery Court Judge (D-8),"PO Box 1542, Gulfport 39502 ",(228) 865-4008,,,
Jeffrey O’Neal,Stone County Circuit Clerk,"323 Cavers Ave, Wiggins 39577",(601) 928-5246,(601) 928-5248,,
Christopher L. Schmidt,Stone County Circuit Court Judge (D-2),"PO Box 1461, Gulfport 39502 ",(228) 865-4104,,,
Lawrence P. Bourgeois Jr. ,Stone County Circuit Court Judge (D-2),"PO Box 1461, Gulfport 39502 ",(228) 865-4262,,,
Roger T. Clark,Stone County Circuit Court Judge (D-2),"PO Box 1461, Gulfport 39502 ",(228) 865-4158,,,
Lisa P. Dodson,Stone County Circuit Court Judge (D-2),"PO Box 1461, Gulfport 39502",(228) 865-4220,,,
Wayne Flurry,Stone County Constable,"PO Drawer 7, Wiggins 39577",(601) 528-4256,(601) 927-7292,,
Steve Compston,Stone County Constable (ED),"231 Third St, Wiggins 39577",(601) 928-4415,(601) 928-2114,,
Louis Simmons,Stone County Constable (WD),"231 Third St, Wiggins 39577",(601) 928-4415,(601) 928-2114,,
Gerald W Bond,Stone County County Administrator,"PO Drawer 7, Wiggins 39577",(601) 928-5266,(601) 928-6464,,
Jon Bond,Stone County County Engineer,"PO Box 369, Wiggins 39577",(601) 928-7390,,,
Joel Smith,Stone County District Attorney,"PO Drawer 1180, Gulfport 39502",(228) 865-4003,(228) 865-4239,,
Martha B. Smith,Stone County Election Commissioner,"231 Third St, Wiggins 39577",,,,
Clifton D. Anderson,Stone County Election Commissioner,"231 Third St, Wiggins 39577",,,,
"Connie Smith 231 Third St, Wiggins 39577",Stone County Election Commissioner,"231 Third St, Wiggins 39577",,,,
Debra B. Lee,Stone County Election Commissioner,"231 Third St, Wiggins 39577",,,,
Debra S Hatten,Stone County Election Commissioner,"231 Third St, Wiggins 39577",,,,
Glenda Joyce Cobb,Stone County Justice Court Clerk,"231 Third St, Wiggins 39577",(601) 928-4415,(601) 928-2114,,
Ricky Farmer,Stone County Justice Court Judge,"231 Third St, Wiggins 39577",(601) 928-4415,(601) 928-2114,,
Justin Miles,Stone County Justice Court Judge,"231 Third St, Wiggins 39577",(601) 928-4415,(601) 928-2114,,
Thomas M. Matthews III,Stone County Prosecuting Attorney,"PO Box 270, Wiggins 39577",(601) 528-6028,(601) 928-6132,,
Mike Farmer,Stone County Sheriff,"1420 Industrial Park Rd, Wiggins 39577",(601) 928-7251,(601) 928-6455,,
Inita Owen,Stone County Superintendent of Education,"214 Critz St, Wiggins 39577",(601) 928-7247,(601) 928-5122,,
Clark Byrd,Stone County Supervisor (D-1),"PO Drawer 7, Wiggins 39577",(601) 928-5266,(601) 928-6464,,
Daniel HarriS,Stone County Supervisor (D-2),"PO Drawer 7, Wiggins 39577",(601) 928-5266,(601) 928-6464,,
Lance D. Pearson,Stone County Supervisor (D-3),"PO Drawer 7, Wiggins 39577",(601) 928-5266,(601) 928-6464,,
Scott Strickland,Stone County Supervisor (D-4),"PO Drawer 7, Wiggins 39577",(601) 928-5266,(601) 928-6464,,
Dale T. Bond,Stone County Supervisor (D-5),"PO Drawer 7, Wiggins 39577",(601) 928-5266,(601) 928-6464,,
Charles Williams Jr,Stone County Tax Assessor,"308 Court St, Wiggins 39577",(601) 928-3121,(601) 928-2507,,
Charles Williams Jr,Stone County Tax Collector,"308 Court St, Wiggins 39577",(601) 928-3121,(601) 928-2507,,
John H. McWilliams,Sunflower County Board Attorney," PO Box 288, Drew 38737",(662) 745-8517,(662) 745-8518,,
James Lee ,Sunflower County Constable,"402 Cleveland St, Indianola 38751",(662) 887-6334,(662) 887-2798,,
Mike Myers,Sunflower County Constable,"355 N Ruby Ave, Ruleville 38771",(662) 756-2835,(662) 756-4175,,
Gloria S McIntosh,Sunflower County County Administrator,PO Box 988,(662) 887-4703,(662) 887-2336,,
W Dewayne Richardson,Sunflower County District Attorney," PO Box 426, Greenville 38702",(662) 378-2105,(662) 332-4665,,
Gary Austin,Sunflower County Prosecuting Attorney,"PO Box 1590, Indianola 38751",(662) 887-5398,(662) 887-2106,,
James Haywood,Sunflower County Sheriff,"1300 Allen Rd, Indianola 38751",(662) 887-2121,(662) 887-4614,,
Glenn Donald,Sunflower County Supervisor (D-1),"1 David Matthew Ln, Indianola 38751",(662) 303-8877,(662) 887-1755,,
Riley Rice,Sunflower County Supervisor (D-2)," PO Box 1158, Indianola 38751",(662) 303-5324,(662) 887-8424,,
Dennis W Holmes,Sunflower County Supervisor (D-3)," PO Box 946, Indianola 38751",(662) 207-8001,(662) 887-1000,,
Anthony Clark,Sunflower County Supervisor (D-4),"179 Fisackerly Rd, Indianola 38751",(662) 303-9108,(662) 887-9312,,
Gloria Dickerson,Sunflower County Supervisor (D-5)," 166 Broadway, Drew 38737",(662) 303-9049,(662) 345-8345,,
Thomas U. Reynolds  ,Tallahatchie County Board Attorney,"PO Box 220, Charleston 38921",(662) 647-3203,(662) 647-2811,,
Daphane B. Neal,Tallahatchie County Circuit Clerk,"PO Box 96, Sumner 38957",(662) 375-8515,(662) 375-7252,,
Daphane B. Neal,Tallahatchie County Circuit Clerk,"PO Box 86, Charleston 38921",(662) 647-8758,(662) 647-8490,,
John W Champion,Tallahatchie County District Attorney,"365 Losher St,Ste 210, Hernando 38632",(662) 469-8014,(662) 469-8231,,
Carol Turner,Tallahatchie County Prosecuting Attorney,"PO Box 185, Charleston 38957",(662) 647-8929,,,
,Tallahatchie County Sheriff,,,,,
Kenneth (Buck) Havens,Tallahatchie County Supervisor (D-1),"PO Box 350, Charleston 38921",(662) 647-5551,(662) 647-3702,,
Johnny Goodwin,Tallahatchie County Supervisor (D-2),"PO Box 350, Charleston 38921",(662) 647-5551,(662) 647-3702,,
Larry Cole,Tallahatchie County Supervisor (D-3)," PO Box 350, Charleston 38921",(662) 647-5551,(662) 647-3702,,
Marcus Echols,Tallahatchie County Supervisor (D-4),"PO Box 350, Charleston 38921",(662) 647-5551,(662) 647-3702,,
Eddie J. Meeks,Tallahatchie County Supervisor (D-5)," PO Box 350, Charleston 38921",(662) 647-5551,(662) 647-3702,,
Dorothy M. Martin,Tallahatchie County Tax Assessor,"PO Box 87, Sumner 38957 ",(662) 375-8386,(662) 375-7275,,
Dorothy M. Martin,Tallahatchie County Tax Assessor," PO Box 307, Charleston 38921",(662) 647-8922,(662) 647-8490,,
Dorothy M. Martin,Tallahatchie County Tax Collector,"PO Box 87, Sumner 38957 ",(662) 375-8386,(662) 375-7275,,
Dorothy M. Martin,Tallahatchie County Tax Collector," PO Box 307, Charleston 38921",(662) 647-8922,(662) 647-8490,,
"Lamar & Hannaford, P.A",Tate County Board Attorney," 214 S Ward St, Senatobia 38668",(662) 562-6537,(662) 562-4858,,
John W Champion,Tate County District Attorney,"365 Losher St,Ste 210, Hernando 38632",(662) 469-8014,(662) 469-8231,,
Ginger Miller,Tate County Prosecuting Attorney," 201 Ward St, Senatobia 38668",(662) 562-7626,,,
Brad Lance,Tate County Sheriff," 1 Justice Dr, Senatobia 38668",(662) 562-4434,(662) 562-9236,,
Cam Walker,Tate County Supervisor (D-1)," 201 Ward St, Senatobia 38668",(662) 562-5661,(662) 560-6205,,
Mike Campbell,Tate County Supervisor (D-2),"201 Ward St, Senatobia 38668",(662) 562-5661,(662) 560-6205,,
Tony M. Sandridge,Tate County Supervisor (D-3),"201 Ward St, Senatobia 38668",(662) 562-5661,(662) 560-6205,,
Billy Saunders,Tate County Supervisor (D-4),"201 Ward St, Senatobia 38668",(662) 562-5661,(662) 560-6205,,
Josh Meredith,Tate County Supervisor (D-5),"201 Ward St, Senatobia 38668",(662) 562-5661,(662) 560-6205,,
B. Sean Akins,Tippah County Board Attorney,"108 Jefferson St, Ripley 38663",(662) 837-9976,(662) 837-1009,,
Ben Creekmore,Tippah County District Attorney,"1301 Monroe Avenue, Oxford 38655",(662) 234-3304,(662) 234-0299,,
Sonny Meeks,Tippah County Justice Court Judge,"205-B Spring Ave, Ripley 38663 ",(662) 837-8842,(662) 837-1398,,
Jerome Brown,Tippah County Justice Court Judge,"205-B Spring Ave, Ripley 38663 ",(662) 837-8842,(662) 837-1398,,
Bart Adams,Tippah County Prosecuting Attorney,"108 Jefferson St, Ripley 38663",(662) 837-9976,(662) 837-1009,,
Karl Gaillard,Tippah County Sheriff,"205 W Spring St, Ripley 38663",(662) 837-9336,(662) 837-1191,,
Jimmy W Gunn,Tippah County Supervisor (D-1),"101 E Spring St, Ripley 38663",(662) 837-3655,(662) 837-1105,,
Greg Harrell,Tippah County Supervisor (D-2)," 101 E Spring St, Ripley 38663",(662) 837-3655,(662) 837-1105,,
Mike Graves,Tippah County Supervisor (D-3),"101 E Spring St, Ripley 38663",(662) 837-3655,(662) 837-1105,,
Phillip Whitehead,Tishomingo County Board Attorney," 1008 Battleground Dr, Iuka 38852",(662) 423-7032,(662) 423-7005,,
John Weddle,Tishomingo County District Attorney,"PO Box 7237, Tupelo 38802",(662) 432-2800,(662) 432-2831,,
Phillip Whitehead,Tishomingo County Prosecuting Attorney," 1008 Battleground Dr, Iuka 38852",(662) 423-7033,(662) 423-7050,,
John Dennis Daugherty  ,Tishomingo County Sheriff,"1111 Maria Ln, Iuka 38852 ",(662) 423-7000,(662) 423-9712,,
Brandon L. Grissom,Tishomingo County Supervisor (D-1)," 1008 Battleground Dr, Iuka 38852",(662) 423-7032,(662) 423-7005,,
Nicky McRae,Tishomingo County Supervisor (D-2),"1008 Battleground Dr, Iuka 38852  ",(662) 423-7032,(662) 423-7005,,
Michael Busby,Tishomingo County Supervisor (D-3)," 1008 Battleground Dr, Iuka 38852",(662) 423-7032,(662) 423-7005,,
Jeff Holt,Tishomingo County Supervisor (D-4),"1008 Battleground Dr, Iuka 38852",(662) 423-7032,(662) 423-7005,,
Greg Collier,Tishomingo County Supervisor (D-5),"1008 Battleground Dr, Iuka 38852",(662) 423-7032,(662) 423-7005,,
John K.Perry,Tunica County Board Attorney,"5699 Getwell Bldg. G5, Southaven 38672",(662) 536-6868,,,
Brenda F. Mitchell,Tunica County District Attorney,"PO Box 848, Cleveland 38732",(662) 843-8000,(662) 846-1711,,
Charles B. Graves Jr,Tunica County Prosecuting Attorney," PO Box 1413, Tunica 38676",(662) 363-3100,(662) 363-3174,,
K.C. Hamp  ,Tunica County Sheriff,"PO Box 25, Tunica 38676 ",(662) 363-1411,(662) 363-2593,,
Margie Pulley,Tunica County State Conservator,"PO Box 758, Tunica 38676",(662) 363-2811,(662) 363-3061,,
James Dunn,Tunica County Supervisor (D-1)," PO Box 217, Tunica 38676",(662) 363-1304,(662) 357-5934,,
Michael E Johnson Jr.,Tunica County Supervisor (D-2)," PO Box 217, Tunica 38676",(662) 363-1465,(662) 357-5934,,
Phillis Williams,Tunica County Supervisor (D-3)," PO Box 217, Tunica 38676",(662) 363-1465,(662) 357-5934,,
Henry Nickson Jr,Tunica County Supervisor (D-4)," PO Box 217, Tunica 38676",(662) 363-1465,(662) 357-5934,,
William Pegram,Tunica County Supervisor (D-5)," PO Box 217, Tunica 38676",(662) 363-1465,(662) 357-5934,,
Chandler Rogers,Union County Board Attorney," 201 E Bankhead St, New Albany 38652",(662) 538-5990,(662) 534-5205,,
Pam Boman,Union County Coroner," PO Box 847, New Albany 38652",(662) 534-1902,,,
Ben Creekmore,Union County District Attorney,"1301 Monroe Avenue, Oxford 38655",(662) 234-3304,(662) 234-0299,,
Joe Marshall Davis,Union County Prosecuting Attorney,"PO Drawer 29, New Albany 38652 ",(662) 534-6421,(662) 534-0053,,
Jimmy Edwards ,Union County Sheriff,"300 Carter Ave, New Albany 38652",(662) 534-1941,(662) 534-1993,,
Evan Denton,Union County Supervisor (D-1)," PO Box 847, New Albany 38652",(662) 534-1902,(662) 534-1907,,
Chad Coffey,Union County Supervisor (D-2)," PO Box 847, New Albany 38652",(662) 534-1902,(662) 534-1907,,
Dave Kitchens,Union County Supervisor (D-3)," PO Box 847, New Albany 38652",(662) 534-1902,(662) 534-1907,,
Randy Owen,Union County Supervisor (D-4)," PO Box 847, New Albany 38652",(662) 534-1902,(662) 534-1907,,
Steve Watson,Union County Supervisor (D-5),"PO Box 847, New Albany 38652",(662) 534-1902,(662) 534-1907,,
Conrad Mord,Walthall County Board Attorney," PO Box 311, Tylertown 39667",(601) 876-2611,(601) 876-4379,,
DeWitt (Dee) T. Bates Jr,Walthall County District Attorney," 284 E Bay St, Magnolia 39652",(601) 783-6677,(601) 783-5646,,
Mark R. Holmes,Walthall County Prosecuting Attorney,"PO Drawer 1128, McComb 39649",(601) 249-3112,(601) 684-0566,,
Kyle Breland,Walthall County Sheriff,"807 Magnolia Ave, Tylertown 39667",(601) 876-3481,(601) 876-6688,,
Larry Montgomery,Walthall County Supervisor (D-1)," PO Box 351, Tylertown 39667",(601) 876-4947,(601) 876-6026,,
Fred Magee,Walthall County Supervisor (D-2)," PO Box 351, Tylertown 39667",(601) 876-4947,(601) 876-6026,,
Shelton Stogner,Walthall County Supervisor (D-3)," PO Box 351, Tylertown 39667",(601) 876-4947,(601) 876-6026,,
Bruce Boyd,Walthall County Supervisor (D-4)," PO Box 351, Tylertown 39667",(601) 876-4947,(601) 876-6026,,
Clennel Brown,Walthall County Supervisor (D-5)," PO Box 351, Tylertown 39667",(601) 876-4947,(601) 876-6026,,
B. Blake Teller,Warren County Board Attorney," 1201 Cherry St, Vicksburg 39183",(601) 636-6565,(601) 631-0114,,
John Henry Heggins,Warren County Constable,"PO Box 1598, Vicksburg 39181",(601) 634-6402,(601) 630-8015,,
Troy Kimble ,Warren County Constable,"PO Box 1598, Vicksburg 39181",(601) 634-6402,(601) 630-8015,,
Richard (Ricky) Smith Jr,Warren County District Attorney," PO Box 648, Vicksburg 39181",(601) 636-5754,(601) 636-8664,,
W Richard Johnson,Warren County Prosecuting Attorney," 1100 Clay St, Vicksburg 39180",(601) 529-9343,,,
W Martin Pace Jr,Warren County Sheriff," 1000 Grove St, Vicksburg 39183",(601) 636-1761,(601) 634-4803,,
John Arnold,Warren County Supervisor (D-1)," 913 Jackson St, Vicksburg 39183",(601) 634-8073,(601) 630-8020,,
William H. Banks Jr,Warren County Supervisor (D-2)," 913 Jackson St, Vicksburg 39183",(601) 634-8073,(601) 630-8020,,
Charles Selmon,Warren County Supervisor (D-3)," 913 Jackson St, Vicksburg 39183",(601) 634-8073,(601) 630-8020,,
John Carlisle,Warren County Supervisor (D-4)," 913 Jackson St, Vicksburg 39183",(601) 634-8073,(601) 630-8020,,
Richard George,Warren County Supervisor (D-5)," 913 Jackson St, Vicksburg 39183",(601) 634-8073,(601) 630-8020,,
Frank Power,Washington County Board Attorney,"PO Box 1856, Greenville 38702 ",(662) 335-6011,(662) 334-6407,,
W Dewayne Richardson,Washington County District Attorney," PO Box 426, Greenville 38702",(662) 378-2105,(662) 332-4665,,
Eric Hawkins,Washington County Prosecuting Attorney," 249 S Poplar St, Greenville 38701.",(662) 335-2102,(662) 335-7066,,
Milton M. Gaston Sr,Washington County Sheriff," PO Box 786, Greenville 38702",(662) 334-4523,(662) 334-2764,,
Lee Gordon,Washington County Supervisor (D-1)," PO Box 158, Greenville 38702",(662) 378-8355,(662) 335-3739,,
Tommy Benson III,Washington County Supervisor (D-2)," PO Box 158, Greenville 38702",(662) 378-8355,(662) 335-3739,,
Carl McGee,Washington County Supervisor (D-3)," PO Box 158, Greenville 38702",(662) 378-8355,(662) 335-3739,,
Jesse Amos,Washington County Supervisor (D-4)," PO Box 158, Greenville 38702",(662) 378-8355,(662) 335-3739,,
Jerry Redmond Sr,Washington County Supervisor (D-5)," PO Box 158, Greenville 38702",(662) 378-8355,(662) 335-3739,,
Cooper Leggett,Wayne County Board Attorney,"PO Box 384, Waynesboro 39367",(601) 735-4920,(601) 735-3859,,
E. J. (Bilbo) Mitchell,Wayne County District Attorney,"PO Box 5163, Meridian 39302",(601) 482-9757,(601) 483-0085,,
Curtis Bates,Wayne County Prosecuting Attorney,"801-C Station St, Waynesboro 39367.",(601) 735-7006,(601) 735-0730,,
Jody Ashley,Wayne County Sheriff,"613 Court St, Waynesboro 39367",(601) 735-3801,(601) 735-6262,,
David Mills,Wayne County Supervisor (D-1),"Courthouse, 609 Azalea, Waynesboro 39367",(601) 735-3414,(601) 735-6248,,
Joe Dyess,Wayne County Supervisor (D-2),"Courthouse, 609 Azalea, Waynesboro 39367",(601) 735-3414,(601) 735-6248,,
Jerry Hutto,Wayne County Supervisor (D-3),"Courthouse, 609 Azalea, Waynesboro 39367",(601) 735-3414,(601) 735-6248,,
Tommy Roberts Sr,Wayne County Supervisor (D-4),"Courthouse, 609 Azalea, Waynesboro 39367",(601) 735-3414,(601) 735-6248,,
Gaston D. Hutcherson,Wayne County Supervisor (D-5),"Courthouse, 609 Azalea, Waynesboro 39367",(601) 735-3414,(601) 735-6248,,
Buchanan Meek Jr,Webster County Board Attorney," PO Box 555, Eupora 39744 ",(662) 258-3521,(662) 258-6657,,
Doug Evans,Webster County District Attorney," PO Box 1262, Grenada 38902-1262",(662) 226-8545,(662) 227-9558,,
Jan R. Butler,Webster County Prosecuting Attorney,"PO Drawer 888, Eupora 39744",(662) 258-7275,,,
Tim Mitchell,Webster County Sheriff,"87 Government Ave, Eupora 39744",(662) 258-7701,(662) 258-6069,,
Curtis Morris,Webster County Supervisor (D-1),"PO Box 398, Walthall 39771",(662) 258-2666,(662) 258-6657,,
Patrick Scott Cummings,Webster County Supervisor (D-2)," PO Box 398, Walthall 39771",(662) 258-4131,(662) 258-6657,,
Randy Rico,Webster County Supervisor (D-3)," PO Box 398, Walthall 39771",(662) 258-4131,(662) 258-6657,,
William P. Crowley,Webster County Supervisor (D-4)," PO Box 398, Walthall 39771",(662) 552-2627,(662) 258-6657,,
Doug Burgess,Webster County Supervisor (D-5),"PO Box 398, Walthall 39771",(662) 456-2673,(662) 258-4131,,
William Bruce Lewis ,Wilkinson County Board Attorney," 319 Market St, Natchez 39120",(601) 446-6621,(601) 442-6175,,
Ronnie Harper,Wilkinson County District Attorney," 307 Market St, Natchez 39120",(601) 445-4099,(601) 445-7947,,
Holmes Sturgeon,Wilkinson County Prosecuting Attorney," PO Box 1175, Woodville 39669 ",(601) 888-6152,(601) 888-6134,,
Reginald Jackson,Wilkinson County Sheriff,"PO Box 980, Woodville 39669",(601) 888-3511,(601) 888-1832,,
Wil Seal,Wilkinson County Supervisor (D-1),"PO Box 1284, Woodville 39669",(601) 888-4387,(601) 888-6776,,
Richard Hollins,Wilkinson County Supervisor (D-2),"140 Mary Ln, Woodville 39669",(601) 888-5045,(601) 888-6776,,
Venton McNabb Jr,Wilkinson County Supervisor (D-3)," PO Box 806, Centreville 39631",(601) 645-5712,(601) 888-6776,,
Kenyon Jackson,Wilkinson County Supervisor (D-4),"PO Box 121, Woodville 39339",(601) 888-4851,(601) 888-6776,,
Jennings Nettles,Wilkinson County Supervisor (D-5)," 201 Box Wood Ln, Woodville 39669",(601) 639-4530,(601) 888-6776,,
Hugh Hathorn,Winston County Board Attorney,"PO Box 39, Louisville 39339",(662) 773-8181,(662) 773-8485,,
Doug Evans,Winston County District Attorney," PO Box 1262, Grenada 38902-1262",(662) 226-8545,(662) 227-9558,,
Kiley C. Kirk,Winston County Prosecuting Attorney,"PO Box 387, Louisville 39339",(662) 773-6687,(662) 773-8650,,
Jason Pugh,Winston County Sheriff,"PO Box 927, Louisville 39339",(662) 773-5881,(662) 773-8831,,
James L. (Burr) Warner Jr,Winston County Supervisor (D-1),"PO Drawer 69, Louisville 39339 ",(662) 773-7170,(662) 773-8824,,
Luke Lamar Parkes,Winston County Supervisor (D-2),"PO Drawer 69, Louisville 39339 ",(662) 773-7170,(662) 773-8824,,
Marion Jordan,Winston County Supervisor (D-3),"PO Drawer 69, Louisville 39339 ",(662) 773-7170,(662) 773-8824,,
Ralph GosS,Winston County Supervisor (D-4),"PO Drawer 69, Louisville 39339",(662) 773-7170,(662) 773-8824,,
Larry Duran,Winston County Supervisor (D-5),"PO Drawer 69, Louisville 39339",(662) 773-7170,(662) 773-8824,,
John J. Crow Jr,Yalobusha County Board Attorney," 203 Wagner St, Water Valley 38965",(662) 473-1870,(662) 473-2030,,
John W Champion,Yalobusha County District Attorney,"365 Losher St,Ste 210, Hernando 38632",(662) 469-8014,(662) 469-8231,,
Gail Barton,Yalobusha County Prosecuting Attorney,"PO Box 95, Oakland 38948 ",(662) 623-0043,(662) 623-0698,,
,Yalobusha County Sheriff,,,,,
Cayce Washington,Yalobusha County Supervisor (D-1)," 6759 CR 436, Water Valley 38965",(662) 473-6797,(662) 473-3622,,
Kenny Rogers,Yalobusha County Supervisor (D-2)," 5907 CR 223, Water Valley 38965",(662) 473-6795,(662) 473-3622,,
John L. McMinn Jr,Yalobusha County Supervisor (D-3),"1202 CR 18, Water Valley 38965",(662) 816-8024,(662) 473-3622,,
Timothy Booker,Yalobusha County Supervisor (D-4),"PO Box 127, Oakland 38948",(662) 473-6038,(662) 473-3622,,
Gaylon Gray,Yalobusha County Supervisor (D-5)," 4113 CR 147, Coffeeville 38922",(662) 473-8324,(662) 473-3622,,
Jay Barbour ,Yazoo County Board Attorney,"PO Box 1569, Yazoo City 39194",(662) 746-2134,(662) 746-2167,,
Akillie Malone Oliver,Yazoo County District Attorney," PO Box 311, Durant 39063 ",(662) 653-3191,(662) 653-6723,,
Richard J. Rohman,Yazoo County Prosecuting Attorney," PO Box 151, Yazoo City 39194",(662) 746-2211,,,
Jake Sheriff,Yazoo County Sheriff,"PO Box 108, Yazoo City 39194",(662) 746-5611,(662) 746-3890,,
Van Foster,Yazoo County Supervisor (D-1),"PO Box 1106, Yazoo City 39194 ",(662) 746-8668,(662) 746-5116,,
David Berry,Yazoo County Supervisor (D-2),"PO Box 1106, Yazoo City 39194",(662) 746-8668,(662) 746-5116,,
Gretta Winters,Yazoo County Supervisor (D-3),"PO Box 108, Yazoo City 39194",(662) 746-8668,(662) 746-5116,,
Lynn McCallister III,Yazoo County Supervisor (D-4)," PO Box 108, Yazoo City 39194",(662) 746-8668,(662) 746-5116,,
Cobie Collins,Yazoo County Supervisor (D-5)," PO Box 1106, Yazoo City 39194",(662) 746-8668,(662) 746-5116,,
Donna Jill Johnson,Lauderdale County Circuit Clerk,"PO Box 1005, Meridian 39302-1005",(601) 482-9731,(601) 482-9734,,
Clayton Cobler III,Lauderdale County Coroner,"11112 Suqualena Dr, Meridian 39305 ",(601) 934-7911,(601) 482-4033,,
Chris Lafferty,Lauderdale County County Administrator,"410 Constitution Ave, 11th Floor, Meridian 39301",(601) 482-9751,(601) 482-9744,,
Danny Joe Slade,Pearl River County Constable,"169 Savannah-Millard Rd,Ste A, Poplarville 39470",(601) 403-2500,(601) 403-2553,,
Ray Bennett,Pearl River County Constable," 169 Savannah-Millard Rd,Ste A, Poplarville 39470",(601) 403-2500,(601) 403-2553,,
Glenn McKay,Warren County Constable,"PO Box 1598, Vicksburg 39181",(601) 634-6402,(601) 630-8015,,
Scott,Newton County Justice Court Clerk," PO Box 69, Decatur 39327.",(601) 635-2927,(601) 635-4047,,
Sue Ard,Chickasaw County Tax Assessor," 1 Pinson Square, Rm. 3, Houston 38851",(662) 456-3327,(662) 456-5496,,
Sue Ard,Chickasaw County Tax Assessor," 234 W Main St, Rm. 204, Okolona 38860",(662) 447-2242,(662) 447-5022,,
Sam Bell,Attala County Coroner,"3093 HWY. 19 S, Kosciusko 39090",(662) 674-5883,,,
Sue Gann,Chickasaw County Constable (P-2)," 234 W Main St, Rm. 207, Okolona 38860",(662) 447-3402,(662) 447-5020,,
Roy Gill,Harrison County Superintendent of Education,"11072 Hwy. 49, Gulfport 39503", (228) 539-6500,(228) 539-6507,,
Ted Wood,Lee County Constable," PO Box 108, Tupelo 38802.",(662) 432-2502,,,
Adam Kirk,Adams County Constable,"PO Box 1048, Natchez 39121",(601) 442-0199,,,
Terry Ray,Attala County Constable,"112 W Adams St, Kosciusko 39090",(662) 289-5556,,,
Rob Banks,Carroll County Constable," PO Box 251, Vaiden 39176 ",(662) 897-2795,(662) 464-8824,,
Amy Berry,Clay County Chancery Clerk,"PO Box 815, West Point 39773.",(662) 494-3124,(662) 492-4059,,
Mona Carr,Copiah County Justice Court Clerk," 121 W Frost St, Hazlehurst 39083",(601) 894-3218,(601) 894-6038,,
Jim Faulk,Hancock County Coroner,"PO Box 188, Bay St. Louis 39520",(228) 369-7560,,,
Jeff Mayo  ,Neshoba County County Administrator,"401 E Beacon St,Ste 201, Philadelphia 39350",(601) 656-6281,(601) 650-3280,,
Von Brown,Rankin County Constable,"PO Box 71, Brandon 39043",(601) 939-1885,(601) 824-2668,,
Greg Paes,Simpson County Superintendent of Education,"111 Education Ln, Mendenhall 39114",(601) 847-1562,(601) 847-8001,,
Ed Taylor,Tate County Tax Assessor," 201 Ward St, Senatobia 38668",(662) 562-6011,(662) 562-7486,,
Mike Long,Tippah County Chancery Clerk," 101 E Spring St, Ripley 38663",(662) 837-7374,(662) 837-7148,,
Ken Basil,Union County Superintendent of Education," PO Box 939, New Albany 38652",(662) 534-1960,(662) 534-1961,,
Jone Dixon,Alcorn County Justice Court Clerk," PO Box 226, Corinth 38835-0226",(662) 286-7776,(662) 286-2157,,
Larry Ross,Alcorn County Tax Collector," PO Box 190, Corinth 38835-0190",(662) 286-7750,(662) 286-5713,,
Mike Moore,Calhoun County Superintendent of Education,"119 W Main St, Pittsboro 38951",(662) 412-3152,(662) 412-3157,,
Judy Posey,Chickasaw County Constable (P-2)," 234 W Main St, Rm. 207, Okolona 38860",(662) 447-3402,(662) 447-5020,,
Chris Kent,Franklin County Superintendent of Education," PO Box 605, Meadville 39653",(601) 384-2340,(601) 384-2393,,
Tal Flurry,Harrison County Tax Assessor,"PO Box 462, Gulfport 39502",(228) 435-8266,(228) 865-4076,,
Fred Clark,Holmes County County Surveyor," PO Box 567, Yazoo City 39194",(662) 746-1863,,,
Pam Horton,Issaquena County Tax Assessor," PO Box 67, Mayersville 39113",(662) 873-4665,(662) 873-2600,,
Pam Horton,Issaquena County Tax Collector," PO Box 67, Mayersville 39113",(662) 873-4665,(662) 873-2600,,
Joe Tucker,Jackson County Tax Collector,"PO Box 998, Pascagoula 39568-0998",(228) 769-3074,(228) 769-3270,,
Wayne Hale,Lamar County Constable," PO Box 1010, Purvis 39475",(601) 794-2950,(601) 794-1076,,
Cody Creel,Lamar County Coroner," PO Box 196, Purvis 39475",(601) 794-1571,(601) 794-3455,,
Jody Waits,Lamar County County Administrator," PO Box 1240, Purvis 39475",(601) 794-3406,(601) 794-1049,,
Jack Smith,Lamar County Tax Assessor,"PO Box 309, Purvis 39475",(601) 794-8504,(601) 794-1064,,
Jack Smith,Lamar County Tax Collector,"PO Box 309, Purvis 39475",(601) 794-8504,(601) 794-1064,,
Ronny Lott,Madison County Chancery Clerk," PO Box 404, Canton 39046",(601) 859-1177,(601) 855-5759,,
Larry Hall,Marshall County County Administrator," PO Box 219, Holly Springs 38634",(662) 252-9067,(662) 252-0004,,
Susie Hill,Marshall County Comptroller," PO Box 219, Holly Springs 38634",(662) 252-4431,,,
Betty Byrd,Marshall County Tax Collector," PO Box 40, Holly Springs 38635",(662) 252-3661,(662) 252-1881,,
Evan Adams,Monroe County County Administrator," PO Box 578, Aberdeen 39730",(662) 319-5995,(662) 369-7928,,
Guy Nowell,Neshoba County Chancery Clerk," 401 E Beacon St,Ste 107, Philadelphia 39350",(601) 656-3581,(601) 656-5915,,
Paul Payne,Neshoba County Constable," 200 Byrd Ave, Philadelphia 39350",(601) 656-7968,,,
Ken Spears,Neshoba County Constable," 200 Byrd Ave, Philadelphia 39350",(601) 656-5935,(601) 656-6482,,
Mike Lewis,Neshoba County Tax Assessor,"401 E Beacon St,Ste 105, Philadelphia 39350",(601) 656-4541,(601) 656-5121,,
Mike Lewis,Neshoba County Tax Collector,"401 E Beacon St,Ste 105, Philadelphia 39350",(601) 656-4541,(601) 650-5121,,
J. O. Amis,Newton County Superintendent of Education," PO Box 97, Decatur 39327.",(601) 635-2317,(601) 635-4025,,
 Gary Beech,Pearl River County Tax Assessor," PO Box 509, Poplarville 39470",(601) 403-2320,(601) 403-2229,,
Gary Beech,Pearl River County Tax Collector," PO Box 509, Poplarville 39470",(601) 403-2220,(601) 403-2229,,
Becky Buie,Pike County Chancery Clerk," PO Box 309, Magnolia 39652",(601) 783-3362,(601) 783-5982,,
John Price,Pike County County Court Judge," 101 N Cherry St, Magnolia 39652.",(601) 783-2262,(601) 783-5185,,
Chad Toles,Pike County County Engineer," 206 Maryland Ave, McComb 39648",(601) 684-4564,,,
Bob Maddox,Prentiss County Tax Assessor," PO Box 342, Booneville 38829",(662) 728-4349,(662) 728-4472,,
Becky Boyd,Rankin County Circuit Clerk,"PO Box 1599, Brandon 39043",(601) 825-1466,(601) 825-1465,,
David Ruth,Rankin County Coroner,"PO Box 5646, Pearl 39208",(601) 939-5997,(601) 939-6798,,
Betty Odom,Scott County Justice Court Clerk," PO Box 371, Forest 39074",(601) 469-4555,(601) 469-5193,,
Tony McGee,Scott County Superintendent of Education,"100 E First St, Forest 39074",(601) 469-3861,(601) 469-3874,,
Debra Dace,Sunflower County Superintendent of Education," PO Box 70, Indianola 38751 ",(662) 887-4919,(662) 887-7051,,
Mike Jones,Tate County Constable (P-2),"171 E Tate Rd, Senatobia 38668",(662) 562-7626,(662) 562-7663,,
Joe Atkins,Tippah County Tax Assessor," 102-D N Main St, Ripley 38663 ",(662) 837-9956,(662) 837-9138,,
Joe Atkins,Tippah County Tax Collector," 102-C N Main St, Ripley 38663.",(662) 837-9410,(662) 837-1193,,
Jan Daigre,Warren County Circuit Clerk," PO Box 351, Vicksburg 39181",(601) 636-3961,(601) 630-4100,,
Jimmy McGee,Alcorn County Constable (P-2),"PO Box 226, Corinth 38835-0226",(662) 286-7777,(662) 286-2157,,
Jana Causey,Amite County Chancery Clerk," PO Box 680, Liberty 39645 ",(601) 657-8022,(601) 657-8288,,
Murry Toney,Amite County Constable," PO Box 362, Liberty 39645 ",(601) 684-7712,,,
Jimmy Vance,Calhoun County Constable (P-2),"PO Box 7, Pittsboro 38951.",(662) 412-3134,,,
Amy Burdine,Choctaw County Circuit Clerk,"PO Box 34, Ackerman 39735",(662) 285-6245,(662) 285-2196,,
Sherman Ivy,Clay County Constable,"PO Box 674, West Point 39773.",(662) 494-2051,(662) 494-4034,,
Todd Mooney,Copiah County Tax Assessor," PO Box 730, Hazlehurst 39083",(601) 894-2721,(601) 894-3026,,
Glen Ecroyd,George County Constable," 2226 Fig Farm Rd, Lucedale 39452 ",(601) 947-5314,,,
Ryan Walley,Greene County Constable (P-1)," PO Box 547, Leakesville 39451",(601) 394-2347,,,
Mark Holder,Greene County Tax Assessor," PO Box 477, Leakesville 39451",(601) 394-2378,(601) 394-6199,,
Mark Holder,Greene County Tax Collector," PO Box 477, Leakesville 39451",(601) 394-2378,(601) 394-6199,,
Alex Farmer,Grenada County Constable," 16 First St, Grenada 38901.",(662) 226-3331,(662) 227-5513,,
Greg Illich,Harrison County Justice Court Clerk," PO Box 1754, Gulfport 39502",(228) 865-4213,(228) 865-4216,,
Jerry Moore,Hinds County Constable," PO Box 3490, Jackson 39207",(601) 965-8800,,,
Paul Greene,Hinds County County Surveyor," PO Box 723, Clinton 39060",(601) 924-9434,,,
Joe McRaney,Holmes County Comptroller," PO Box 239, Lexington 39095",(662) 834-2508,(662) 834-3020,,
Stella Ross,Holmes County Justice Court Clerk," PO Box 99, Lexington 39095",(662) 834-4565,(662) 834-1402,,
Angel Meeks,Holmes County Superintendent of Education,"PO Box 630, Lexington 39095",(662) 834-2175,(662) 834-9060,,
Carol Gates,Itawamba County Circuit Clerk,"201 W Main St, Fulton 38843",(662) 862-3511,(662) 862-4006,,
Ty Thompson,Jackson County Constable," 5343 Jefferson Ave, Moss Point 39563",(228) 769-3080,,,
Nick Elmore,Jackson County Tax Assessor," PO Box 998, Pascagoula 39568-0998",(228) 769-3070,(228) 769-3005,,
Carl Bailey,Jefferson County Constable,"PO Box 553, Fayette 39069",(601) 786-8594,(601) 786-6017,,
Greg Pettis,Lafayette County Constable," 713 Jackson Ave, Oxford 38655 ",(662) 234-1545,(662) 238-7990,,
Wayne Smith,Lamar County Chancery Clerk," PO Box 247, Purvis 39475",(601) 794-8504,(601) 794-3903,,
Sandra Owen,Lamar County Justice Court Clerk," PO Box 1010, Purvis 39475",(601) 794-2950,(601) 794-1076,,
Kim Withers,Leake County Tax Assessor,"101 Court Sq,Ste 123, Carthage 39051",(601) 267-3021,(601) 267-6131,,
Kim Withers,Leake County Tax Collector,"101 Court Sq,Ste 123, Carthage 39051",(601) 267-3021,(601) 267-6131,,
Joe Huckaby,Lee County Constable,"PO Box 108, Tupelo 38802.",(662) 432-2502,,,
Jimmy Weeks,Lee County Superintendent of Education,"PO Box 832, Tupelo 38802.",(662) 841-9144,(662) 680-6012,,
Lynn Wright,Lowndes County Superintendent of Education," 1053 Hwy. 45 S, Columbus 39701",(662) 244-5005,(662) 224-5043,,
Johnny Sims,Madison County Constable,"2961 South Liberty St, Canton 39046",(601) 859-6337,(601) 859-5878,,
Don Cothern,Marshall County Constable," PO Box 5125, Holly Springs 38634.",(662) 252-4120,,,
Monet Autry,Marshall County Justice Court Clerk,"PO Drawer 729, Holly Springs 38635",(662) 252-3585,(662) 252-0028,,
Tina Morrow,Monroe County Justice Court Clerk,"PO Box 518, Amory 38821.",(662) 256-8493,(662) 256-7876,,
Allan Pratt,Montgomery County Coroner,"135 Liberty, Winona 38967.",(662) 283-2121,(662) 283-3339,,
Joe Killens,Neshoba County Superintendent of Education," PO Box 338, Philadelphia 39350",(601) 656-3752,(601) 656-3789,,
Mark Spence,Newton County Constable,"PO Box 69, Decatur 39327.",(601) 635-2740,(601) 635-4047,,
Tom Gregory,Oktibbeha County County Surveyor,"141 Kody Rd, Sturgis 39769",(662) 323-1800,(662) 724-2304,,
Eric Harris,Panola County Constable (P-1)," PO Box 249, Sardis 38666",(662) 487-2080,(662) 487-2008,,
Ray Hawkins,Panola County Constable (P-2)," PO Box 325, Batesville 38606",(662) 563-4193,(662) 487-2008,,
Billy Young,Pike County Constable," PO Box 509, Magnolia 39652",(601) 783-5333,(601) 783-4181,,
Lauren Munn,Pontotoc County Justice Court Clerk," 29 E Washington, Pontotoc 38863.",(662) 489-3921,(662) 488-2986,,
Tracy Brown,Sharkey County Tax Assessor,"PO Box 245, Rolling Fork 39159",(662) 873-4317,(662) 873-0115,,
Tracy Brown,Sharkey County Tax Collector,"PO Box 245, Rolling Fork 39159",(662) 873-4317,(662) 873-0115,,
Terry Tutor,Simpson County Coroner," PO Box 370, Magee 39111",(601) 849-9995,(601) 849-3880,,
Kim Jackson,Simpson County Justice Court Clerk," 1498 Simpson Hwy. 149, Mendenhall 39114",(601) 847-5848,(601) 847-5856,,
Glenn Grant,Tunica County Coroner," PO Box 2725, Tunica 38676",(662) 363-0134,(662) 363-2693,,
Janet Laird,Walthall County Justice Court Clerk," 808 Magnolia Ave, Tylertown 39667",(601) 876-2311,(601) 222-1351,,
Wade Carney,Walthall County Superintendent of Education," 814-A Morse Ave, Tylertown 39667",(601) 876-3401,(601) 876-6982,,
Doug Huskey,Warren County Coroner,"PO Box 1140, Vicksburg 39181.",(601) 634-8073,(601) 636-8020,,
Chad Shealy,Warren County Superintendent of Education," 1500 Mission 66, Vicksburg 39180",(601) 638-5122,(601) 631-2819,,
Scott Frost,Wayne County Constable (P-1),"25 Cedar Ridge Dr, Waynesboro 39367",(601) 735-0106,(601) 735-6266,,
Jamie Beard,Wayne County Constable (P-2),"810 Chickasawhay St, Waynesboro 39367",(601) 735-3118,(601) 735-6266,,
Jeff McMinn,Webster County Constable,"24 E Fox Ave, Eupora 39744",(662) 258-2590,(662) 258-3093,,
Irene Surma,Webster County Justice Court Clerk," 24 E Fox Ave, Eupora 39744",(662) 258-2590,(662) 258-3093,,
Edward Hunt,Winston County Constable,"PO Box 327, Louisville 39339",(662) 773-6016,(662) 773-8817,,
Donna Kraft,Yazoo County County Administrator," 211 E Broadway, Yazoo City 39194 ",(662) 746-8668,(662) 746-5116,,
Greg Younger,Alcorn County Chancery Clerk,"PO Box 69, Corinth 38835-0069",(662) 286-7700,(662) 286-7706,,
Joe Caldwell,Alcorn County Circuit Clerk,"PO Box 430, Corinth 38835-0430",(662) 286-7740,(662) 286-7767,,
Wayne Duncan,Alcorn County Constable (P-2)," PO Box 226, Corinth 38834",(662) 286-7776,,,
Jay H. Jones,Alcorn County Coroner," 4 Eagle Dr, Corinth 38834",(662) 284-6470,,,
Greg Younger,Alcorn County County Administrator,"PO Box 69, Corinth 38835",(662) 286-7702,(662) 286-7706,,
Eunice Blake,Amite County Tax Assessor," PO Box 356, Liberty 39645 ",(601) 657-8973,(601) 657-1083,,
Eunice Blake,Amite County Tax Collector," PO Box 356, Liberty 39645 ",(601) 657-8973,(601) 657-1083,,
Gerry Taylor,Attala County Chancery Clerk," 230 W Washington St, Kosciusko 39090",(662) 289-2921,(662) 289-7662,,
Bryan Weaver,Attala County Superintendent of Education," 100 Courthouse,Ste 3, Kosciusko 39090",(662) 289-2801,(662) 289-2804,,
Kathy Graves,Benton County Circuit Clerk,"PO Box 262, Ashland 38603",(662) 224-6310,(662) 224-6312,,
Larry Hobson,Benton County Coroner," 46 Chardean Ave, Ashland 38603",(662) 471-1139,(662) 224-6307,,
Cook Coggins,Benton County County Engineer," PO Box 218, Ashland 38603",(662) 224-6300,,,
Joe W Holman,Carroll County Constable,"PO Box 215, North Carrollton 38947",(662) 299-5222,,,
Garry Turner,Chickasaw County Constable (P-1)," 1 Pinson Square Rd, Houston 38851",(662) 456-3941,(662) 448-8122,,
Heather Wood,Choctaw County Justice Court Clerk," 140 Jail House Rd, Ackerman 39735",(662) 285-3599,(662) 285-9039,,
Darlean Lake,Coahoma County Justice Court Clerk,"144 Ritch St, Clarksdale 38614",(662) 624-3060,,,
Ronnie Earls,Copiah County Constable (P-2),"PO Box 798, Hazlehurst 39083",(601) 894-3218,(601) 894-1676,,
Ellis Stuart,Copiah County Coroner,"1087 Russell Rd, Wesson 39191",(601) 891-0101,(601) 894-1908,,
John R. Klem,Forrest County Constable," 700 Main St, Hattiesburg 39401",(601) 544-3136,(601) 545-6114,,
Chad Welford,George County Circuit Clerk,"355 Cox St,Ste C, Lucedale 39452 ",(601) 947-4881,(601) 947-8804,,
Stacy Dungan,George County Constable,"167 B Hempstead Rd, Lucedale 39452",(601) 508-9799,,,
Pam Touchard,George County Superintendent of Education,"5152 Main St, Lucedale 39452",(601) 947-6993,(601) 947-8805,,
Ladd Pulliam,Greene County Coroner," 909 Lakeview Dr, Leakesville 39451",(601) 525-6054,,,
L. Joe Beard,Greene County Constable (P-2)," PO Box 547, Leakesville 39451",(601) 394-2347,(601) 394-2114,,
Jimmy Malone,Grenada County Constable," 16 First St, Grenada 38901.",(662) 226-3331,(662) 227-5513,,
David Melton,Grenada County Tax Assessor,"PO Box 1488, Grenada 38902-1488",(662) 226-1741,(662) 226-3701,,
David Melton,Grenada County Tax Collector,"PO Box 1488, Grenada 38902-1488",(662) 226-1741,(662) 226-3701,,
Alan Dedeaux,Hancock County Superintendent of Education," 17304 Hwy. 603, Kiln 39556",(228) 255-0376,(228) 255-0378,,
Paul Johnson,Harrison County Constable,"1620 23rd Ave, Gulfport 39501",(228) 865-4278,,,
Sharkey Ford,Holmes County Constable,"PO Box 99, Lexington 39095",(662) 834-4565,(662) 834-1402,,
Randy Carney,Jackson County Circuit Clerk,"PO Box 998, Pascagoula 39568-0998",(228) 769-3040,(228) 769-3180,,
Brian Fulton,Jackson County County Administrator,"PO Box 998, Pascagoula 39568",(228) 769-3089,(228) 769-3348,,
Lisa Fairley,Jackson County Justice Court Administrator," 5343 Jefferson St, Moss Point 39563",(228) 769-3080,(228) 769-3364,,
Greg Terrell  ,Jasper County Constable,"4034 Hwy. 528, Heidelberg 39439",(601) 727-3489,(601) 727-3489,,
Keith Barlow,Jasper County Constable," PO Box 1054, Bay Springs 39422",(601) 764-2065,(601) 764-3402,,
Randy Graham,Jasper County Coroner,"378 CR 212, Laurel 39443",(601) 670-1109,,,
Zack Jackson,Jefferson Davis County Constable (P-1)," PO Box 1407, Prentiss 39474",(601) 792-5129,(601) 792-5980,,
Jimmy Slater,Jefferson Davis County Coroner," PO Box 479, Prentiss 39474",(601) 792-4229,(601) 792-4957,,
Mike Sumrall,Jones County Constable,"551 Buffalo Hills Rd, Ellisville 39437",(601) 335-3034,,,
Yolanda Cook,Kemper County County Administrator," PO Box 188, DeKalb 39328 ",(601) 743-4477,(601) 743-2677,,
Tami Dawkins,Kemper County Justice Court Clerk,"PO Box 661, DeKalb 39328 ",(601) 743-2793,(601) 743-2789,,
Chance Curry,Lamar County Constable," PO Box 1010, Purvis 39475",(601) 794-2950,(601) 794-1076,,
Cliff Butler,Lawrence County Constable,"PO Box 903, Monticello 39654",(601) 587-4854,(601) 587-0755,,
Ryan Everett,Lawrence County Constable," PO Box 903, Monticello 39654",(601) 587-4854,(601) 587-0755,,
Dot Merchant,Leake County Chancery Clerk," PO Box 72, Carthage 39051",(601) 267-7371,(601) 267-6137,,
W Lavon Boyd,Lincoln County Constable (P-2)," PO Box 767, Brookhaven 39602",(601) 835-3474,(601) 835-3494,,
David Fields,Lincoln County County Administrator," 301 S First St, Rm. 202, Brookhaven 39601",(601) 853-3421,(601) 835-3455,,
Roger Martin,Lincoln County Constable (P-2)," PO Box 767, Brookhaven 39602",(601) 835-3474,(601) 835-3494,,
Anita E Wray,Madison County Circuit Clerk," PO Box 1626, Canton 39046",(601) 859-4365,(601) 859-8555,,
Chuck Thomas,Marshall County Chancery Clerk," PO Box 219, Holly Springs 38635",(662) 252-4431,(662) 551-3302,,
Karen Carter,Montgomery County Justice Court Clerk," PO Box 229, Winona 38967",(662) 283-2290,(662) 283-2052,,
Michael Hood,Montgomery County Superintendent of Education," PO Box 687, Winona 38967",(662) 283-4533,(662) 283-4584,,
R.L. Calhoun,Noxubee County Coroner,"2832 Jefferson St, Macon 39341",(662) 361-0740,,,
Shank Phelps,Oktibbeha County Constable," 2312 Douglastown Rd, Maben 39750",(601) 324-3032,,,
Michael Hunt,Oktibbeha County Coroner,"2389 Silver Ridge Rd, Starkville 39759",(662) 323-4320,(662) 323-1356,,
Nora Goliday,Oktibbeha County Justice Court Clerk,"104 Felix Long Dr, Starkville 39759 ",(662) 324-3032,(662) 388-1078,,
Allen Morgan,Oktibbeha County Tax Assessor,"101 East Main St, Starkville 39759.",(662) 323-1273,(662) 338-1066,,
Allen Morgan,Oktibbeha County Tax Collector,"101 East Main St, Starkville 39759.",(662) 323-1273,(662) 338-1066,,
Kelley Magee,Panola County County Administrator," PO Box 807, Batesville 38606",(662) 563-6200,,,
Tommy Corbin,Pontotoc County Constable," 29 E Washington, Pontotoc 38863.",(662) 489-3921,(662) 489-2986,,
Randle Downs,Prentiss County Superintendent of Education,"PO Box 179, Booneville 38829",(662) 728-4911,(662) 728-2000,,
Tommy Bryant,Quitman County Constable," PO Box 33, Crowder 38622",(662) 326-2104,(662) 326-2330,,
Alice Smith,Quitman County Tax Assessor,"220 Chestnut St,Ste 1, Marks 38646",(662) 326-8928,(662) 326-8004,,
Alice Smith,Quitman County Tax Collector,"220 Chestnut St,Ste 1, Marks 38646",(662) 326-8928,(662) 326-8004,,
Bill Freeman,Scott County Constable (P-2),"PO Box 371, Forest 39074",(601) 469-4555,(601) 469-5193,,
Ted Blakeney,Simpson County Constable (P-1),"1498 Simpson Hwy. 149, Mendenhall 39114",(601) 847-5848,(601) 847-5856,,
Cindy Austin,Smith County Chancery Clerk,"PO Box 39, Raleigh 39153",(601) 782-9811,(601) 782-4690,,
Becky Martin,Smith County Tax Assessor,"PO Box 157, Raleigh 39153",(601) 782-9803,(601) 782-4006,,
Becky Martin,Smith County Tax Collector,"PO Box 157, Raleigh 39153",(601) 782-9803,(601) 782-4006,,
Ernie Brents,Tate County Tax Collector," 201 Ward St, Senatobia 38668",(662) 562-4404,(662) 562-7486,,
Randy Graves,Tippah County Circuit Clerk,"102-A N Main, Ripley 38663",(662) 837-7370,(662) 837-1030,,
Terry Mathis,Tippah County Constable,"205-B Spring Ave, Ripley 38663 ",(662) 837-8842,(662) 837-1398,,
Melinda Crum,Tippah County County Administrator,"101 E Spring St, Ripley 38663",(662) 837-1026,(662) 837-1013,,
Jamie Stuart,Tishomingo County Constable,"1008 Battleground Dr, Iuka 38852",(662) 423-7033,(662) 423-7050,,
Mack Wilemon,Tishomingo County Coroner," 1804 Independence Sq, Iuka 38852",(662) 423-5222,(662) 423-7093,,
Joe Anderson,Tunica County Constable,"5130 Old Moon Landing Rd, Tunica 38676",(662) 363-2178,(662) 363-4234,,
Adrian McKay,Tunica County County Administrator," 1058 S Court St, PO Box 639, Tunica 38676.",(662) 363-1465,(662) 363-3215,,
Ronnie Goudy,Union County Constable,"PO Box 27, New Albany 38652",(662) 534-1951,(662) 534-1935,,
Malcoum Kent,Washington County Constable," 905 W Alexander, Greenville 38701",(662) 332-0633,(662) 390-4760,,
Barbara Gore,Webster County Tax Assessor," PO Box 417, Walthall 39771",(662) 258-6446,(662) 258-7686,,
Barbara Gore,Webster County Tax Collector," PO Box 417, Walthall 39771",(662) 258-6446,(662) 258-7686,,
Johnny Clark,Wilkinson County Constable," PO Box 40, Woodville 39669",(601) 888-3538,(601) 888-7591,,
Ken McMullan,Winston County Superintendent of Education,"PO Box 909, Louisville 39339",(662) 773-3411,(662) 773-4013,,
Darlene Bane,Winston County Tax Assessor,"113 W Main St, Louisville 39339",(662) 773-3694,(662) 773-8816,,
Darlene Bane,Winston County Tax Collector,"113 W Main St, Louisville 39339",(662) 773-3694,(662) 773-8816,,
Ralph Horton,Yalobusha County Constable," 4294 Hwy. 330, Coffeeville 38922",(662) 417-7590,(662) 473-5020,,
Quint Carver,Yazoo County Chancery Clerk," PO Box 68, Yazoo City 39194",(662) 746-2661,(662) 746-3893,,
Robert Dixon,Yazoo County County Engineer,"110 N Jerry Clower Blvd, Ste. 2, Yazoo City 39194",(662) 746-4000,,,
Robert Dixon,Yazoo County County Surveyor,"110 N Jerry Clower Blvd,Ste 2, Yazoo City 39194",(662) 746-1090,,,
Becky Fisher,Yazoo County Superintendent of Education,"119 West Jefferson, Yazoo City 39194",(662) 746-4672,(662) 746-2001,,
Johnny Butler,Alcorn County Constable (P-1)," PO Box 226, Corinth 38834",(662) 286-7776,,,
Steve Little.,Alcorn County Constable (P-1),"PO Box 360, Glen 38846",(662) 286-7777,,,
Vicky Everett,Benton County Justice Court Clerk,"PO Box 152, Ashland 38603",(662) 224-6320,(662) 224-6313,,
Steve Bostick,Benton County Superintendent of Education," PO Box 247, Ashland 38603",(662) 224-6252,(662) 224-3607,,
Hunter Nowell,Bolivar County County Court Judge," PO Box 188, Cleveland 38732",(662) 843-7175,(662) 843-5337,,
Carlton Baker,Calhoun County Circuit Clerk,"PO Box 25, Pittsboro 38951",(662) 412-3101,(662) 412-3103,,
Tracy McGuirt,Calhoun County Justice Court Clerk," PO Box 7, Pittsboro 38951.",(662) 412-3134,,,
Mark Ferguson,Calhoun County Constable (P-1)," PO Box 7, Pittsboro 38951.",(662) 412-3134,,,
Unshay Randle,Chickasaw County Constable,"234 W Main St, Rm. 207, Okolona 38860",(662) 447-3402,(662) 447-5020,,
Keith Coleman,Choctaw County Coroner," 303 N Commerce St, Ackerman 39735 ",(662) 285-8804,(662) 285-2658,,
Marty Crowder,Choctaw County County Engineer," PO Box 1209, Ackerman 39735 ",(662) 285-2062,(662) 285-2618,,
Gloria Dotson,Claiborne County Chancery Clerk," PO Box 449, Port Gibson 39150",(601) 437-4992,(601) 437-3137,,
James Mallett,Claiborne County Coroner," PO Box 219, Port Gibson 39150",(601) 437-4116,,,
Steven Myrick,Clarke County County Administrator,"PO Box 616, Quitman 39355",(601) 776-1012,(601) 776-1013,,
Paige Lampkin,Clay County Tax Assessor," PO Box 795, West Point 39773.",(662) 494-3432,(662) 494-7452,,
Paige Lampkin,Clay County Tax Collector," PO Box 795, West Point 39773.",(662) 494-3432,(662) 494-7452,,
C. Kent Haney,Coahoma County County Court Judge," PO Box 756, Clarksdale 38614",(662) 624-3036,(662) 451-0516,,
Daniel Vassel,Coahoma County County Administrator,"PO Box 579, Clarksdale 38614.",(662) 624-3028,(662) 624-3029,,
Ron McMasters,Copiah County County Engineer," 212 Waterford Square,Ste 300, Madison 39110",(601) 605-1090,,,
Roger Dickens,Covington County Constable," PO Box 665, Collins 39428.",(601) 765-6581,(601) 765-5014,,
Misty Heffner,DeSoto County Chancery Clerk,"PO Box 949, Hernando 38632",(662) 469-8005,(662) 469-8308,,
Corey Uselton,DeSoto County Superintendent of Education," 5 E South St, Southaven 38632",(662) 429-5271,,,
Parker Pickle,DeSoto County Tax Assessor," 365 Losher St, Hernando 38632",(662) 469-8029,(662) 469-8201,,
Joey Treadway,DeSoto County Tax Collector," 365 Losher St, Hernando 38632",(662) 469-8030,(662) 469-8105,,
Warren Walker,Franklin County Circuit Clerk," PO Box 267, Meadville 39653",(601) 384-2320,(601) 384-8244,,
Sandra Tanner,George County Justice Court Clerk,"368 Cox St, Lucedale 39452",(601) 947-4834,(601) 947-1911,,
Terry Necaise,Hancock County Constable," 8450 Hwy. 90, Bay St. Louis 39520",(228) 467-5573,,,
Jimmie Ladner,Hancock County Tax Assessor," PO Box 2428, Bay St. Louis 39521",(228) 467-5727,(228) 466-6239,,
Jimmie Ladner,Hancock County Tax Collector," PO Box 2428, Bay St. Louis 39521",(228) 467-4425,(228) 466-6239,,
Gary Hargrove,Harrison County Coroner," PO Box 4036, Gulfport 39502",(228) 865-4290,,,
Henry Luckett,Holmes County Chancery Clerk," PO Box 1211, Lexington 39095.",(662) 834-2508,(662) 834-1872,,
Dexter Howard,Holmes County Coroner," PO Box 641, Lexington 39095",(662) 472-2051,,,
Linda Rollins,Holmes County Tax Assessor," PO Box 449, Lexington 39095",(662) 834-2865,(662) 834-9010,,
Linda Rollins,Holmes County Tax Collector," PO Box 449, Lexington 39095",(662) 834-2865,(662) 834-9010,,
Tommy Goodwin,Humphreys County County Administrator," PO Box 547, Belzoni 39038",(662) 247-1740,(662) 247-0101,,
Ronda Delaney,Issaquena County Chancery Clerk," PO Box 27, Mayersville 39113",(622) 873-2761,(662) 873-2061,,
Terry Johnson,Itawamba County Constable," 141 Houston Lake Rd, Fulton 38843",(662) 891-1898,(662) 862-5805,,
Tami M. Beane,Itawamba County Tax Assessor,"PO Box 158, Fulton 38843",(662) 862-7598,(662) 862-7598,,
Josh Eldridge,Jackson County Chancery Clerk,"PO Box 998, Pascagoula 39568-0998",(228) 769-3131,(228) 769-3414,,
Lydia Pittman,Jasper County Justice Court Clerk,"PO Box 1054, Bay Springs 39422",(601) 764-2065,(601) 764-3402,,
Delorise Frye,Jefferson County Chancery Clerk," PO Box 145, Fayette 39069",(601) 786-3021,(601) 786-6009,,
Marilyn Jones,Jefferson County Justice Court Clerk," PO Box 1047, Fayette 39069",(601) 786-8594,(601) 786-6017,,
Harold Rhodes,Jefferson Davis County Constable (P-2)," PO Box 1407, Prentiss 39474",(601) 792-5129,(601) 792-5980,,
Ronnie Barnes,Jefferson Davis County Constable (P-1)," PO Box 1407, Prentiss 39474",(601) 792-5129,(601) 792-5980,,
Calvin Graves,Jefferson Davis County Constable (P-2)," PO Box 1407, Prentiss 39474",(601) 792-5129,(601) 792-5980,,
Nancy Barnett,Jones County Coroner,"180 Shady Grove Moss Rd, Laurel 39443",(601) 425-7200,(601) 477-7201,,
Tracey Murray,Kemper County Circuit Clerk,"PO Box 130, DeKalb 39328 ",(601) 743-2224,(601) 743-4173,,
Terry Bostick,Kemper County Coroner," Rt. 1 Box 103, Scooba 39358",(601) 476-5547,(601) 743-4173,,
Jody Mayfield,Lafayette County Constable," 713 Jackson Ave, Oxford 38655 ",(662) 234-0727,(662) 238-7990,,
Dr. Adam Pugh,Lafayette County Superintendent of Education,"100 Commodore Dr, Oxford 38655",(662) 234-3271,(662) 236-3019,,
Bill Anderson,Lamar County Constable (P-1)," PO Box 1010, Purvis 39475",(601) 794-2950,(601) 794-1076,,
Charles Greer,Lamar County Constable,"PO Box 1010, Purvis 39475",(601) 794-2950,(601) 794-1076,,
Tess R. Smith,Lamar County Superintendent of Education,"PO Box 609, Purvis 39475",(601) 794-1030,(601) 794-1012,,
Kevin Rayborn,Lawrence County Chancery Clerk,"PO Box 821, Monticello 39654",(601) 587-7162,(601) 587-0750,,
James Brister,Lawrence County Circuit Clerk," PO Box 1249, Monticello 39654",(601) 587-4791,(601) 587-4405,,
Monty Sanders,Lawrence County County Surveyor," PO Box 1707, Monticello 39654",(601) 587-4543,(601) 587-0750,,
Steve Pernell,Leflore County Constable,"PO Box 8056, Greenwood 38935",(662) 453-1605,(662) 455-8759,,
Debra Sanders,Leflore County Coroner," PO Box 934, Greenwood 38935",(662) 453-9700,(662) 453-5010,,
Larresia Hunt,Leflore County Justice Court Clerk," PO Box 8056, Greenwood 38935",(662) 453-1605,(662) 455-8759,,
Clay McMorris,Lincoln County Coroner," PO Box 357, Brookhaven 39602",(601) 835-3477,,,
Sharon Lofton,Lincoln County Justice Court Clerk," PO Box 767, Brookhaven 39602",(601) 835-3474,(601) 835-3494,,
Mickey Meyers,Lincoln County Superintendent of Education," 233 East Monticello St, Brookhaven 39601",(601) 835-0011,(601) 833-3030,,
Greg Merchant,Lowndes County Coroner," PO Box 2342, Columbus 39704 ",(662) 327-5197,(662) 329-3469,,
Michael Brown,Madison County Constable," 2961 South Liberty St, Canton 39046",(601) 859-6337,(601) 859-5878,,
Alex Breeland,Madison County Coroner," 3304 Liberty St, Canton 39046  ",(601) 859-3661,(601) 859-1299,,
Shelton Vance,Madison County County Administrator,"PO Box 608, Canton 39046",(601) 855-5500,(601) 859-5875,,
Dr. Lela Hale,Marshall County Superintendent of Education,"PO Box 38, Holly Springs 38635",(662) 252-4271,(662) 252-5129,,
Ronnie Boozer,Monroe County Chancery Clerk," PO Box 578, Aberdeen 39730",(662) 369-8143,(662) 369-7928,,
Patrick Chism,Monroe County Constable,"60018 Indian Cr, Smithville 38870",(662) 315-2349,(662) 256-7876,,
L.C. Smith Jr,Montgomery County Constable," 206 Moore St, Duck Hill 38925",(662) 565-2916,(662) 283-2052,,
Donny Collins,Newton County Constable,"PO Box 69, Decatur 39327.",(601) 635-2740,(601) 635-4047,,
Roger Liddell,Noxubee County Superintendent of Education,"PO Box 540, Macon 39341 ",(662) 726-4527,(662) 726-2809,,
Emily Garrard,Oktibbeha County County Administrator," 108 W Main St, Starkville 39759",(662) 323-1520,(662) 338-1065,,
 Derek Turnage,Pearl River County Coroner," PO Box 703, Picayune 39466",(601) 749-7750,(601) 749-7751,,
Scott Dearman,Perry County Superintendent of Education,"PO Box 137, New Augusta 39462",(601) 964-3211,(601) 964-8205,,
Denny Johnson,Pike County Constable," PO Box 509, Magnolia 39652",(601) 783-5333,(601) 783-4181,,
Brock Puckett,Pontotoc County Superintendent of Education,"285 Hwy. 15 Bypass S, Pontotoc 38863 ",(662) 489-3932,(662) 489-3182,,
Van McWhirter,Pontotoc County Tax Assessor," 11 E Washington St, Pontotoc 38863",(662) 489-3904,(662) 489-3917,,
Van McWhirter,Pontotoc County Tax Collector," 11 E Washington St, Pontotoc 38863",(662) 489-3904,(662) 489-3917,,
Joyce Houston,Quitman County Coroner," PO Box 1399, Lambert 38643",(662) 326-9232,(662) 326-8851,,
Brad Patridge,Rankin County Constable,"PO Box 71, Brandon 39043",(601) 939-1885,(601) 824-2668,,
Alison Crapps,Scott County Tax Assessor,"100 E First St, Forest 39074",(601) 469-4051,(601) 469-5184,,
Alison Crapps,Scott County Tax Collector,"100 E First St, Forest 39074",(601) 469-4051,(601) 469-5184,,
Angelia Eason,Sharkey County Constable," PO Box 218, Rolling Fork 39159",(662) 873-2755,(662) 873-6045,,
Charles Smith,Sharkey County Constable (P-1)," PO Box 39, Anguilla 38721 ",(662) 873-6140,(662) 873-0154,,
Jerry Baldwin,Smith County Constable (P-1),"PO Box 171, Raleigh 39153",(601) 782-4334,(601) 782-4005,,
Randy Wolfe …,Tallahatchie County County Administrator," PO Box 350, Charleston 38921",(662) 647-8985,(662) 647-3702,,
Eddie Hadskey,Tate County Circuit Clerk," 201 Ward St, Senatobia 38668",(662) 562-5211,(662) 562-7486,,
Roy Jene Huhn,Walthall County Constable,"808 Magnolia Ave, Tylertown 39667",(601) 876-2311,(601) 222-1351,,
Ashley Purvis,Walthall County Deputy Clerk," 808 Magnolia Ave, Tylertown 39667",(601) 876-2311,(601) 222-1351,,
Peggy Hilburn,Walthall County Tax Assessor," 200 Ball Ave, Tylertown 39667",(601) 876-4932,(601) 876-9255,,
Peggy Hilburn,Walthall County Tax Collector," 200 Ball Ave, Tylertown 39667",(601) 876-4932,(601) 876-9255,,
Antonia Jones,Warren County Tax Collector," PO Box 351, Vicksburg 39181",(601) 638-6181,(601) 636-5093,,
Eloise Brooks,Washington County Justice Court Clerk," 905 W Alexander, Greenville 38701",(662) 332-0633,(662) 390-4760,,
Mark K. Seard,Washington County Tax Assessor," PO Box 1526, Greenville 38702 ",(662) 334-2651,(662) 334-2786,,
Geary Jackson,Wayne County Chancery Clerk,"Courthouse, 609 Azalea, Waynesboro 39367",(601) 735-2873,(601) 735-6224,,
Erica Johnson,Wilkinson County Justice Court Clerk,"PO Box 40, Woodville 39669",(601) 888-3538,(601) 888-7591,,
Jeremy Ephion,Wilkinson County Tax Assessor," PO Box 695, Woodville 39669",(601) 888-4562,(601) 888-7335,,
Jeremy Ephion,Wilkinson County Tax Collector," PO Box 695, Woodville 39669",(601) 888-4562,(601) 888-7335,,
Scott Gregory,Winston County Coroner,"12902 Hwy. 397, Louisville 39339",(662) 803-1296,(662) 773-8831,,
Janet Jackson,Winston County Justice Court Clerk,"115 South Court, Louisville 39339",(662) 773-6016,(662) 773-8817,,
Larry Mitchell,Alcorn County Superintendent of Education," PO Box 1420, Corinth 38835-1420 ",(662) 286-5591,(662) 286-7766,,
Joe Lee Bassie,Bolivar County Constable,"PO Box 1507, Cleveland 38732.",(662) 843-4008,(662) 846-6783,,
Randolph Seals,Bolivar County Coroner," PO Box 127, Cleveland 38732",(662) 843-1709,(662) 843-1710,,
Romona Tillman,Calhoun County Chancery Clerk," PO Box 8, Pittsboro 38951.",(662) 412-3117,(662) 412-3111,,
Wilton A. Neal,Carroll County Tax Assessor," PO Box 193, Carrollton 38917",(662) 237-9217,(662) 237-4659,,
Wilton A. Neal,Carroll County Tax Assessor," PO Box 156, Vaiden 39176 ",(662) 464-8852,(662) 464-8802,,
Brenda T. Buck,Claiborne County County Administrator," P.O Box 689, Port Gibson 39150 ",(601) 437-5216,(601) 437-4430,,
Greg Fairchild,Clarke County Coroner," 102 Mae Avenue, Quitman 39355.",(601) 776-8974,,,
Lewis Stafford,Clay County Constable," PO Box 674, West Point 39773.",(662) 495-2051,(662) 494-4034,,
Floyd Williams,Coahoma County Constable," 144 Ritch St, Clarksdale 38614",(662) 624-3060,,,
Edna E Stevens,Copiah County Circuit Clerk," PO Box 467, Hazlehurst 39083",(601) 894-1241,(601) 894-3026,,
Cassity Booker,Covington County Justice Court Clerk," PO Box 665, Collins 39428.",(601) 765-6581,(601) 765-5014,,
Arnetta Crosby,Covington County Superintendent of Education,"PO Box 1269, Collins 39428",(601) 765-8247,(601) 765-4102,,
Betty Carlisle,Forrest County County Administrator,"PO Box 1310, Hattiesburg 39403",(601) 545-6000,(601) 582-5135,,
Tommy A. Myers,Franklin County Constable,"PO Box 365, Meadville 39653",(601) 384-2002,(601) 384-2253,,
Gladys Wilcher,Franklin County Justice Court Clerk," PO Box 365, Meadville 39653",(601) 384-2002,(601) 384-2253,,
Dee Ann Miller,George County Coroner," 238 Mill St, Lucedale 39452",(601) 410-2875,,,
Cecelia Bounds,Greene County Circuit Clerk," PO Box 310, Leakesville 39451",(601) 394-2379,(601) 394-2334,,
Elliot Wheeler,Humphreys County Superintendent of Education,"705 Cohn St, Belzoni 39038",(662) 247-6000,(662) 247-6004,,
Rhonda Delaney,Issaquena County Circuit Clerk," PO Box 27, Mayersville 39113",(662) 873-2761,(662) 873-2061,,
Sharon Perkins,Issaquena County Justice Court Clerk,"PO Box 58, Mayersville 39113",(662) 873-6287,(662) 873-2094,,
Tommy Williams,Issaquena County Constable (P-2)," PO Box 58, Mayersville 39113",(662) 873-6287,(662) 873-2094,,
Gary M. Franks,Itawamba County County Administrator," 106 S Clifton St, Fulton 38843",(662) 862-4967,,,
Arnell Harried,Jefferson County Circuit Clerk," PO Box 305, Fayette 39069",(601) 786-3422,(601) 786-9676,,
Vincent Turner,Jefferson County Superintendent of Education,"PO Box 157, Fayette 39069",(601) 786-3721,(601) 786-8441,,
Lawrence Clark,Jones County County Engineer," 714 Hillcrest Dr, Laurel 39440",(601) 649-5900,(601) 649-5963,,
Jackie Pollock,Kemper County Superintendent of Education,"PO Box 219, DeKalb 39328 ",(601) 743-2657,(601) 743-9297,,
Sherry J. Wall,Lafayette County Chancery Clerk," PO Box 1240, Oxford 38655",(662) 234-2131,(662) 234-5038,,
Baretta Mosley,Lafayette County Circuit Clerk," 1 Courthouse Sq,Ste 101, Oxford 38655",(662) 234-4951,(662) 236-0238,,
Albert Turnage,Lawrence County Constable (P-1),"PO Box 903, Monticello 39654",(601) 587-4854,(601) 587-0755,,
Robert Gill Jr,Leake County County Administrator," PO Box 595, Carthage 39051",(601) 267-8002,(601) 267-6132,,
Tillmon Bishop,Lincoln County Chancery Clerk,"PO Box 555, Brookhaven 39602",(601) 835-3411,(601) 835-3423,,
Linder D. Erby,Lowndes County Justice Court Clerk," 11 Airline Rd, Columbus 39702.",(662) 329-5929,(662) 245-4619,,
Norman Cannady,Madison County Tax Assessor,"PO Box 292, Canton 39046",(601) 859-1921,(601) 859-2899,,
Lucy Carpenter,Marshall County Circuit Clerk," PO Box 459, Holly Springs 38635",(662) 252-3434,(662) 252-5951,,
Scott Cantrell,Monroe County Superintendent of Education," PO Box 209, Amory 38821.",(662) 257-2176,(662) 257-2181,,
Freda Phillips,Noxubee County Circuit Clerk," PO Box 431, Macon 39341 ",(662) 726-5737,(662) 726-6041,,
Betty Robinson,Noxubee County Tax Assessor," 2832 Jefferson, Macon 39341",(662) 726-4744,(662) 726-2679,,
Betty Robinson,Noxubee County Tax Collector," 2832 Jefferson, Macon 39341",(662) 726-4744,(662) 726-2679,,
Vickie Walters,Perry County Chancery Clerk,"PO Box 198, New Augusta 39642",(601) 964-8398,(601) 964-8746,,
Teresa Watford,Perry County Justice Court Clerk," PO Box 455, New Augusta 39462",(601) 964-8366,(601) 964-8368,,
Daniel Calcote,Pike County County Administrator,"PO Box 431, Magnolia 39652",(601) 783-5289,,,
Ricky Ferguson,Pontotoc County Chancery Clerk,"PO Box 209, Pontotoc 38863",(662) 489-3900,(662) 489-3940,,
Greg Sparks Sr,Prentiss County Constable,"1705B S 2nd St, Booneville 38829",(662) 416-2621,,,
Evelyn Jossell,Quitman County Superintendent of Education," PO Drawer E, Marks 38646",(662) 326-5451,(662) 326-3694,,
Larry W Swales,Rankin County Chancery Clerk,"PO Box 700, Brandon 39042 ",(601) 825-1649,(601) 824-7116,,
Wilbur McCurdy,Scott County Constable (P-1)," PO Box 371, Forest 39074",(601) 469-4555,(601) 469-5193,,
Johnny Hancock,Smith County Constable (P-2),"PO Box 171, Raleigh 39153",(601) 782-4334,(601) 782-4005,,
Billy D. Allen,Smith County Coroner,"2443 SCR 538, Morton 39117",(601) 537-3392,(601) 537-3590,,
Christie Holly,Tishomingo County Superintendent of Education," 1620 Paul Edmondson Dr, Iuka 38852",(662) 423-3206,,,
Jena P. McNatt,Tishomingo County Tax Collector," 1008 Battleground Dr, Iuka 38852",(662) 423-7048,(662) 423-2388,,
Eugene Bridges,Tunica County Constable,"5130 Old Moon Landing Rd, Tunica 38676",(662) 363-2178,(662) 363-4234,,
Norma Anderson,Tunica County Tax Assessor," PO Box 655, Tunica 38676",(662) 363-1266,(662) 357-5933,,
Norma Anderson,Tunica County Tax Collector," PO Box 655, Tunica 38676",(662) 363-1266,(662) 363-2693,,
Raymond Gutter,Walthall County Constable," 808 Magnolia Ave, Tylertown 39667",(601) 876-2311,(601) 222-1351,,
Donna F. Hardy,Warren County Chancery Clerk," PO Box 351, Vicksburg 39181",(601) 636-4415,(601) 634-4815,,
Jeremy Kilgore,Webster County Constable," 24 E Fox Ave, Eupora 39744",(662) 263-4664,(662) 258-3093,,
Michael Adkins,Webster County Asst. Supt. of Education," PO Box 887, Eupora 39744 ",(662) 258-5921,(662) 258-3134,,
Nolan Thompson,Wilkinson County Coroner," 392 Elmsely Rd, Woodville 39669",(601) 888-6730,(601) 888-5105,,
Robert Coleman,Yazoo County Circuit Clerk," PO Box 108, Yazoo City 39194",(662) 746-1872,(662) 716-0113,,
David Starling,Yazoo County Constable (SD)," PO Box 798, Yazoo City 39194",(662) 746-8181,(662) 746-2023,,
Derek E Parker,Yazoo County County Court Judge," PO Box 1437, Yazoo City 39194 ",(662) 746-5214,(662) 746-9865,,
Pam Ingram May,Yazoo County Justice Court Judge (ND)," PO Box 798, Yazoo City 39194",(662) 746-8181,(662) 746-2023,,
Kenneth Brawner,Alcorn County Tax Assessor,"PO Box 179, Corinth 38835-0179",(662) 286-7733,(662) 286-2548,,
Debbie Kirkland,Amite County Circuit Clerk,"PO Box 312, Liberty 39645",(601) 657-8932,(601) 657-1082,,
Cindy Wilkinson,Amite County Comptroller,"PO Box 680, Liberty 39645",(601) 657-8733,(601) 657-8288,,
Brenda Williams,Attala County Tax Assessor," 112 N Wells St, Kosciusko 39090",(662) 289-5731,(662) 289-7667,,
Brenda Williams,Attala County Tax Collector," 112 N Wells St, Kosciusko 39090",(662) 289-4711,(662) 289-7667,,
Shannon Wilburn,Benton County Tax Assessor,"PO Box 337, Ashland 38603",(662) 224-6315,(662) 224-6303,,
Shannon Wilburn,Benton County Tax Collector,"PO Box 337, Ashland 38603",(662) 224-6315,(662) 224-6303,,
Sammie Lee Good,Claiborne County Circuit Clerk," PO Box 549, Port Gibson 39150",(601) 437-5841,(601) 437-4543,,
Diane T. Davaul,Claiborne County Tax Assessor," PO Box 469, Port Gibson 39150",(601) 437-5591,(601) 437-4430,,
Diane T. Davaul,Claiborne County Tax Collector," PO Box 469, Port Gibson 39150",(601) 437-5591,(601) 437-3419,,
Beverly Trotter,Clarke County Constable,"122 Loretta Dr, Quitman 39355",(601) 776-5371,(601) 776-1014,,
Alvin Carter Jr,Clay County Coroner," 970 Fawn Dr, West Point 39773 ",(662) 494-0565,,,
Jimmy C. Havard,Forrest County Chancery Clerk," PO Box 951, Hattiesburg 39403",(601) 545-6014,(601) 545-6017,,
Mary Ann Palmer,Forrest County Tax Assessor,"PO Box 1626, Hattiesburg 39403",(601) 545-6130,(601) 545-6180,,
Delbert Dearman,Forrest County Tax Collector,"PO Box 1689, Hattiesburg 39403",(601) 582-8228,(601) 545-6093,,
Charles E Brown,Franklin County Constable," PO Box 365, Meadville 39653",(601) 384-2002,(601) 384-2253,,
Percy J. Peeler,Franklin County Coroner,"PO Box 170, Meadville 39653",(601) 384-2963,,,
Charles Breland,Greene County Superintendent of Education," PO Box 1329, Leakesville 39451",(601) 394-2364,(601) 394-5542,,
James B. Morgan,Harrison County Constable," 190 Lameuse St, Biloxi 39530",(228) 435-8256,,,
Willie Anderson,Holmes County Constable," PO Box 99, Lexington 39095",(662) 934-4565,(662) 834-1402,,
Timaka J. Jones,Humphreys County Circuit Clerk," PO Box 696, Belzoni 39038",(662) 247-3065,(662) 247-3906,,
Marcus E Hooker,Issaquena County County Engineer," PO Box 368, Greenville 38702",(662) 334-1865,(662) 334-1871,,
Sylvia J. Baker,Lafayette County Tax Assessor," 300 N Lamar,Ste 103, Oxford 38655",(662) 234-5562,(662) 238-7992,,
Sylvia J. Baker,Lafayette County Tax Collector," 300 N Lamar,Ste 103, Oxford 38655",(662) 234-6006,(662) 238-7992,,
Steven McMillon,Leake County Constable," PO Box 69, Carthage 39051",(601) 267-5677,(601) 267-6134,,
Carl J. Scherff,Lee County County Surveyor," 705 Danielle Cv, Tupelo 38801",(662) 844-1341,(662) 680-6091,,
Debbie Berryman,Lee County Justice Court Clerk," PO Box 108, Tupelo 38802.",(662) 432-2500,(662) 680-6021,,
Leroy E Belk Jr,Lee County Tax Collector," PO Box 271, Tupelo 38802.",(662) 841-9034,(662) 841-9148,,
Annie M. Conley,Leflore County Tax Collector," PO Box 1349, Greenwood 38935",(662) 455-7907,(662) 455-8752,,
Blake Pickering,Lincoln County Tax Assessor,"301 S First, #109, Brookhaven 39601",(601) 835-3425,(601) 835-3424,,
Blake Pickering,Lincoln County Tax Collector,"301 S First, #109, Brookhaven 39601",(601) 835-3427,(601) 835-3424,,
Joe F. Ables  .,Lowndes County Constable,"11 Airline Rd, Columbus 39702",(662) 329-5929,(662) 245-4619,,
Greg D. Andrews,Lowndes County Tax Assessor,"PO Box 1077, Columbus 39703 ",(662) 329-5707,(662) 241-1935,,
Greg D. Andrews,Lowndes County Tax Collector,"PO Box 1077, Columbus 39703 ",(662) 329-5707,(662) 241-1935,,
Frank Draper Jr,Noxubee County Constable,"PO Box 550, Macon 39341 ",(662) 726-5181,(662) 726-2944,,
Martha F. Clark,Perry County Circuit Clerk," PO Box 198, New Augusta 39642",(601) 964-8663,(601) 964-8740,,
L. D. Gillespie,Pontotoc County Constable," 29 E Washington, Pontotoc 38863.",(662) 489-3921,(662) 489-2986,,
Jimmy Caldwell,Pontotoc County County Surveyor,"12 Washington St, Pontotoc 38863",(662) 489-3908,(662) 489-2318,,
Brenda A. Wiggs,Quitman County Circuit Clerk," 220 Chestnut St,Ste 4, Marks 38646",(662) 326-8003,(662) 326-8004,,
Joe C. Bradford,Scott County Coroner," 1120 E Third St, Forest 39074",(601) 469-2525,(601) 469-2525,,
Marcus E Hooker,Sharkey County County Engineer," PO Box 368, Greenville 38702",(662) 334-1865,(662) 334-1871,,
Randall Coleman,Simpson County Constable (P-1)," 1498 Simpson Hwy. 149, Mendenhall 39114",(601) 847-5848,(601) 847-5856,,
Rhuel Dickinson,Simpson County County Administrator," PO Box 308, Mendenhall 39114",(601) 847-1418,(601) 847-7004,,
Charles Baldwin,Simpson County Tax Assessor,"PO Box 459, Mendenhall 39114",(601) 847-1744,(601) 847-2119,,
Charles Baldwin,Simpson County Tax Collector,"PO Box 459, Mendenhall 39114",(601) 847-1744,(601) 847-2119,,
Anthony Grayson,Smith County Circuit Clerk,"PO Box 517, Raleigh 39153",(601) 782-4751,(601) 782-4007,,
Jeanne McLemore,Tate County Chancery Clerk," 201 Ward St, Senatobia 38668",(662) 562-5661,(662) 560-6205,,
Gloria L. White,Tippah County Justice Court Clerk,"205-B Spring Ave, Ripley 38663 ",(662) 837-8842,(662) 837-1398,,
Peyton Cummings,Tishomingo County Chancery Clerk,"1008 Battleground Dr, Iuka 38852",(662) 423-7010,(662) 423-7005,,
Larissa Edwards,Union County Justice Court Clerk," PO Box 27, New Albany 38652",(662) 534-1951,(662) 534-1935,,
Vernon E Alford,Walthall County Circuit Clerk," 200 Ball Ave, Tylertown 39667",(601) 876-5677,(601) 876-4077,,
Shannon Hartzog,Walthall County Coroner," 35 Lowery Rd, Tylertown 39667",(601) 876-9353,(601) 876-0350,,
John S Price Jr,Warren County County Court Judge," PO Box 351, Vicksburg 39181",(601) 638-8026,(601) 631-8816,,
Patricia A. Lee,Washington County Tax Collector,"PO Box 9, Greenville 38702",(662) 378-2922,(662) 334-2714,,
Rose M. Bingham,Wayne County Circuit Clerk,"Courthouse, 609 Azalea, Waynesboro 39367",(601) 735-1171,(601) 735-6261,,
Charles Chapman,Wayne County Constable (P-1),"810 Chickasawhay St, Waynesboro 39367",(601) 735-3118,(601) 735-6266,,
Willie Thompson,Wilkinson County Constable," PO Box 40, Woodville 39669",(601) 888-3538,(601) 888-7591,,
Travis Crimm Jr,Yazoo County Tax Collector,"PO Box 108, Yazoo City 39194",(662) 746-1583,(662) 751-8734,,
Murllean Hogsett,Attala County Justice Court Clerk,"100 Courthouse,Ste 4, Kosciusko 39090",(662) 289-7272,(662) 289-0105,,
Marlene McKenzie,Benton County Chancery Clerk," PO Box 218, Ashland 38603",(662) 224-6300,(662) 224-6303,,
Robert Dickerson,Benton County Constable," PO Box 218, Ashland 38603",(662) 333-6600,(662) 224-6313,,
Betsy A. Collums,Chickasaw County Superintendent of Education," PO Box 480, Houlka 38850 ",(662) 568-3333,,,
Steve Montgomery,Choctaw County Chancery Clerk,"PO Box 250, Ackerman 39735",(662) 285-6329,(662) 285-3444,,
David Flowers Jr,Claiborne County Constable," PO Box 497, Port Gibson 39150",(601) 437-4478,(601) 437-3833,,
Demetria Jackson,Coahoma County Circuit Clerk," PO Drawer 849, Clarksdale 38614",(662) 624-3014,(662) 624-3075,,
Jimmy Dale White,Copiah County Constable (P-1),"PO Box 798, Hazlehurst 39083",(601) 894-3218,(601) 894-1676,,
April S Holloway,Copiah County Tax Collector," PO Box 705, Hazlehurst 39083",(601) 894-2731,(601) 894-3026,,
Joseph L. Warren,Covington County Chancery Clerk," PO Box 1679, Collins 39428",(601) 765-4242,(601) 765-5016,,
Dale K. Thompson,DeSoto County Circuit Clerk," 2535 Hwy. 51 S, Rm. 201, Hernando 38632 ",(662) 469-8007,(662) 449-1416,,
Jeffrey Pounders,DeSoto County Coroner," 4942 Pounders Rd, Nesbit 38651",(662) 429-4057,(662) 429-1311,,
Vanessa Lynchard,DeSoto County County Administrator," 365 Losher St, Hernando 38632",(662) 469-8180,(662) 469-8181,,
Delesicia Martin,Hinds County Superintendent of Education," 13192 Hwy. 18, Raymond 39154",(601) 857-5222,(601) 857-8548,,
Charles E Stokes,Hinds County Tax Assessor,"PO Box 22908, Jackson 39225-2908",(601) 968-6626,(601) 968-6593,,
Charles E Stokes,Hinds County Tax Assessor,"PO Box 549, Raymond 39154",(601) 857-8787,(601) 857-2830,,
Matthew Williams,Issaquena County Constable (P-2)," PO Box 58, Mayersville 39113",(662) 873-6287,(662) 873-2094,,
Gaylon K. Harper,Jones County County Court Judge," 5170 Hwy 11 N, Ellisville 39437 ",(601) 649-7500,(601) 428-3620,,
Thomas D. Parker,Jones County Superintendent of Education," 5204 Hwy. 11 N, Ellisville 39437",(601) 649-5201,(601) 649-1613,,
Randall Thornton,Kemper County Constable (P-2),"514 Blackwater Rd, Daleville 39326",(601) 743-2793,(601) 743-2789,,
Adrianna Wilcher,Leake County Justice Court Clerk,"PO Box 69, Carthage 39051",(601) 267-5677,(601) 267-6134,,
Sean P. Thompson,Lee County County Administrator," PO Box 1785, Tupelo 38802",(662) 432-2020,(662) 432-2023,,
Teresa Barksdale,Lowndes County Circuit Clerk,"PO Box 31, Columbus 39703",(662) 329-5900,(662) 329-5935,,
Susan H. McCarty,Madison County Justice Court Clerk," 2961 S Liberty, Canton 39046",(601) 859-6337,(601) 859-5878,,
Alshaunta Butler,Noxubee County Comptroller,"PO Box 147, Macon 39341 ",(662) 726-6047,,,
Richelle Lumpkin,Pearl River County County Court Judge," PO Box 1746, Picayune 39466",(601) 749-7720,(601) 749-7725,,
Amy Lott Cochran,Perry County Tax Assessor," PO Box 306, New Augusta 39642",(601) 964-3398,(601) 964-3663,,
Amy Lott Cochran,Perry County Tax Collector," PO Box 306, New Augusta 39642",(601) 964-3398,(601) 964-3663,,
Percy Pittman Jr,Pike County Coroner," PO Box 431, Magnolia 39652",(601) 684-9422,(601) 249-1751,,
Thomas H. Broome,Rankin County Constable (P-2),"PO Drawer 1599, Brandon 39043",(601) 824-2545,(601) 591-4788,,
John A. Sullivan,Rankin County Tax Assessor,"211 E Government St, Brandon 39042",(601) 825-1470,(601) 824-2457,,
Judy Fortenberry,Rankin County Tax Collector,"211 E Government St, Brandon 39042",(601) 825-1467,(601) 824-7111,,
Richard Prestage,Scott County Constable (P-1),"PO Box 371, Forest 39074",(601) 469-4555,(601) 469-5193,,
David Easterling,Smith County Constable (P-1),"PO Box 171, Raleigh 39153",(601) 782-4334,(601) 782-4005,,
Cynthia Chandler,Sunflower County Tax Assessor," PO Box 1080, Indianola 38751",(662) 887-1454,(662) 887-7423,,
Cynthia Chandler,Sunflower County Tax Collector," PO Box 1080, Indianola 38751",(662) 887-1454,(662) 887-7423,,
Robert L. Taylor,Tate County Constable (P-2),"103 Preston McKay Dr, Senatobia 38668",(662) 562-7626,(662) 562-7663,,
Donna Henry Dill,Tishomingo County Circuit Clerk," 1008 Battleground Dr, Iuka 38852",(662) 423-7026,(662) 423-1667,,
David Wayne Crum,Tishomingo County Tax Assessor,"1008 Battleground Dr, Iuka 38852",(662) 423-7059,(662) 423-9544,,
Marcus Hooker Sr,Washington County County Engineer," PO Box 368, Greenville 38702",(662) 334-1865,(662) 334-1871,,
Russell S Turner,Webster County Chancery Clerk," PO Box 398, Walthall 39771",(662) 258-4131,(662) 258-9635,,
Kimberly Jackson,Wilkinson County Superintendent of Education," PO Box 785, Woodville 39669",(601) 888-3582,(601) 888-3133,,
Julie Cunningham,Winston County Chancery Clerk,"PO Drawer 69, Louisville 39339 ",(662) 773-3631,(662) 773-8814,,
Ricky L. Shivers,Yazoo County Coroner," 75 Shivers Ln, Yazoo City 39194",(662) 746-7631,(662) 746-2023,,
Beverly S Ladner,Yazoo County Tax Assessor," PO Box 108, Yazoo City 39194",(662) 746-2642,(662) 751-8734,,
Gloria D. Klauder,Bolivar County Justice Court Clerk," PO Box 1507, Cleveland 38732.",(662) 843-4008,(662) 846-6783,,
Jay Vanlandingham,Calhoun County Constable (P-1),"PO Box 7, Pittsboro 38951.",(662) 412-3135,,,
Harriett C. Bragg,Clay County Justice Court Clerk," PO Box 674, West Point 39773.",(662) 494-6140,(662) 494-4034,,
Carolyn B. Parham,Coahoma County Chancery Clerk," PO Box 98, Clarksdale 38614",(662) 624-3000,(662) 624-3040,,
Vicki Bass Ramsey,Copiah County Constable (P-2),"121 W Frost St, Hazlehurst 39083",(601) 894-3218,(601) 894-6038,,
Melissa Duckworth,Covington County Circuit Clerk,"PO Box 667, Collins 39428.",(601) 765-6506,(601) 765-5012,,
Butch Benedict Jr,Forrest County Coroner," 237 J. B. Horne Rd, Hattiesburg 39401",(601) 266-4057,(601) 266-4480,,
Johnny L. Hayward,Grenada County Chancery Clerk,"PO Box 1208, Grenada 38902-1208",(662) 226-1821,(662) 227-2860,,
Karen Ladner Ruhr,Hancock County Circuit Clerk,"152 Main St,Ste B, Bay St. Louis 39520",(228) 467-5265,(228) 467-2779,,
Patricia T. Woods,Hinds County Justice Court Clerk," PO Box 3490, Jackson 39207",(601) 965-8800,(601) 973-5532,,
Andrew Piper Dent,Humphreys County Constable," 102 Castleman St, Belzoni 39038",(662) 247-4337,(662) 247-3906,,
Sheila Summerford,Itawamba County Constable,"4494 Tucker Rd, Golden 38847",(662) 862-9735,,,
Latonya Blanchard,Jefferson Davis County Justice Court Clerk," PO Box 1407, Prentiss 39474",(601) 792-5129,(601) 792-5980,,
Jocelyn Robertson,Kemper County Tax Assessor," PO Box 328, DeKalb 39328 ",(601) 743-2693,(601) 743-4173,,
Jocelyn Robertson,Kemper County Tax Collector," PO Box 328, DeKalb 39328 ",(601) 743-2693,(601) 743-4173,,
Ronnie L. McGehee,Madison County Superintendent of Education," PO Box 159, Flora 39071",(601) 879-3000,(601) 879-3039,,
Velma (Pam) Young,Montgomery County Tax Assessor,"PO Box 674, Winona 38967",(662) 283-2112,(662) 283-2769,,
Velma (Pam) Young,Montgomery County Tax Collector,"PO Box 674, Winona 38967",(662) 283-2112,(662) 283-2769,,
Mary Ruth Shelton,Noxubee County Chancery Clerk," 2832 Jefferson, Macon 39341",(662) 726-4244,(662) 726-2272,,
Charlotte Capwell,Panola County Justice Court Clerk," PO Box 249, Sardis 38666",(662) 487-2080,(662) 487-2008,,
Andranette Jordan,Pike County Justice Court Clerk,"PO Box 509, Magnolia 39652",(601) 783-5333,(601) 783-4181,,
Gwendolyn Nunnery,Pike County Tax Collector," PO Box 111, Magnolia 39652",(601) 783-5511,(601) 783-3784,,
Michael R. Kelley,Prentiss County Circuit Clerk," PO Box 727, Booneville 38829",(662) 728-4611,(662) 728-2006,,
Tyrone Survillion,Quitman County Constable,"PO Box 100, Marks 38646",(662) 326-2104,(662) 326-8004,,
Murindia Williams,Sharkey County Chancery Clerk," PO Box 218, Rolling Fork 39159",(662) 873-2755,(662) 873-6045,,
Murindia Williams,Sharkey County Circuit Clerk," PO Box 218, Rolling Fork 39159",(662) 873-2755,(662) 873-6045,,
Murindia Williams,Sharkey County County Administrator," PO Box 218, Rolling Fork 39159",(662) 873-2755,(662) 873-6045,,
Heather H. Burton,Sunflower County Constable," PO Box 946, Indianola 38751",(662) 887-1244,,,
Chris McCallister,Tippah County Constable,"2890 Cr. 813, Ripley 38663",(662) 837-9336,(662) 837-1191,,
Michelle Pounders,Tishomingo County Justice Court Clerk,"1008 Battleground Dr, Iuka 38852",(662) 423-7033,(662) 423-7050,,
Jennifer Williams,Tunica County Justice Court Clerk," 5130 Old Moon Landing Rd, Tunica 38676",(662) 363-2178,(662) 363-4234,,
Scotty Whittington,Amite County Superintendent of Education," PO Box 378, Liberty 39645 ",(601) 657-4361,(601) 657-4291,,
Billy Joe Ferguson,Carroll County Superintendent of Education," PO Box 256, Carrollton 38917",(662) 237-9276,(662) 237-9703,,
Casey West Bozeman,Clarke County Justice Court Clerk," PO Box 4, Quitman 39355 ",(601) 776-5371,(601) 776-1014,,
Xandra Brooks-Keys,Coahoma County Superintendent of Education," PO Box 820, Clarksdale 38614",(662) 624-5448,(662) 624-5512,,
Lillie V. McKenzie,Copiah County Constable (P-1)," 121 W Frost St, Hazlehurst 39083",(601) 894-3218,(601) 894-6038,,
Robert T. Williams,Issaquena County Constable (P-1),"PO Box 58, Mayersville 39113",(662) 873-6287,(662) 873-2094,,
Sherry Hyde-Thames,Lawrence County Tax Assessor," PO Box 812, Monticello 39654",(601) 587-4543,(601) 587-0750,,
Sherry Hyde-Thames,Lawrence County Tax Collector," PO Box 812, Monticello 39654",(601) 587-2211,(601) 587-0750,,
Elmus W Stockstill,Leflore County Circuit Clerk,"PO Box 1953, Greenwood 38935",(662) 453-1435,(662) 455-1278,,
Lisa Younger Neese,Lowndes County Chancery Clerk,"PO Box 684, Columbus 39703",(662) 329-5800,(662) 328-5895,,
Willie (Hoot) West,Lowndes County Constable," 11 Airline Rd, Columbus 39702.",(662) 329-5929,(662) 245-4619,,
Juanita M. Dillard,Marshall County Tax Assessor," PO Box 40, Holly Springs 38635",(662) 252-6209,(662) 252-1881,,
Jerry Dale Bridges,Montgomery County Constable,"20 Bridges Rd, Kilmichael 39747",(662) 283-7524,(662) 283-2052,,
Kenneth P. Geno Jr,Prentiss County County Engineer," 200 Hotel St, Booneville 38829",(662) 728-1790,(662) 844-4564,,
Sharon G. Reynolds,Tunica County Circuit Clerk," PO Box 184, Tunica 38676",(662) 363-2842,(662) 363-2413,,
Debbie J. Richards,Wayne County Tax Assessor,"Courthouse, 609 Azalea, Waynesboro 39367",(601) 735-3381,(601) 735-6272,,
Debbie J. Richards,Wayne County Tax Collector,"Courthouse, 609 Azalea, Waynesboro 39367",(601) 735-3381,(601) 735-6272,,
Jerry (Bruce) Bates,Amite County Constable," 4433 Spears Rd, Liberty",(601) 657-8343,,,
Melanie Netterville,Amite County Justice Court Clerk,"PO Box 362, Liberty 39645 ",(601) 657-4527,(601) 657-8604,,
Jerry Wayne Fleming,Calhoun County Coroner," 922 N Main St, Calhoun City 38916",(662) 628-4810,,,
Roosevelt Dotson Sr,Claiborne County Constable," PO Box 497, Port Gibson 39150",(601) 437-4478,(601) 437-3833,,
Angie Wade Chisholm,Clarke County Chancery Clerk," PO Box 689, Quitman 39355",(601) 776-2126,(601) 776-2756,,
Jill Jordan Gilbert,Franklin County Chancery Clerk," PO Box 297, Meadville 39653",(601) 384-2330,(601) 384-5864,,
Cammie Brannan Byrd,George County Chancery Clerk,"355 Cox St,Ste A, Lucedale 39452",(601) 947-4801,(601) 947-1300,,
Earline Wright-Hart,Holmes County Circuit Clerk,"PO Box 718, Lexington 39095",(662) 834-2476,(662) 834-3870,,
Lawrence D. Browder,Humphreys County Chancery Clerk," PO Box 547, Belzoni 39038",(662) 247-1740,(662) 247-0101,,
Charlene H. Fairley,Jefferson Davis County Chancery Clerk," PO Box 1137, Prentiss 39474",(601) 792-4204,(601) 792-2894,,
Ray (R.C.) Williams,Kemper County Constable (P-1),"289 Terry Rd, Lauderdale 39335",(601) 743-2793,(601) 743-2789,,
William Andrews III,Lamar County County Court Judge," PO Box 307, Purvis 39475",(601) 794-3468,,,
 Dustin R. Bairfield,Lincoln County Circuit Clerk,"301 S First St, Rm 205, Brookhaven 39602",(601) 835-3435,(601) 835-3482,,
Calvert Engineering,Lowndes County County Engineer," PO Box 1078, West Point 39773",(662) 494-7101,(662) 329-5881,,
Gardner Engineering,Sunflower County County Surveyor," PO Drawer A, Indianola 38751",(662) 887-1862,(662) 887-1996,,
Jerry W Williams II,Tallahatchie County Constable," 610 Peters Hill Rd, Charleston 38921",(662) 647-3477,,,
Rechelle R. Siggers,Tunica County Chancery Clerk,"PO Box 217, Tunica 38676",(662) 363-2451,(662) 357-5934,,
Linda Rae Shuffield,Yalobusha County Tax Assessor," PO Box 260, Coffeeville 38922",(662) 675-8707,(662) 675-8004,,
Linda Rae Shuffield,Yalobusha County Tax Assessor," PO Box 1552, Water Valley 38965",(662) 473-1235,(662) 473-5020,,
Robert G. Clark III,Yazoo County Chancery Court Judge (D-11)," PO Box 39, Lexington 39095",(662) 834-1285,,,
Demetrius Westbrook,Yazoo County Justice Court Clerk," PO Box 798, Yazoo City 39194",(662) 746-8181,(662) 746-2023,,
Johnny R. Rybolt III,Coahoma County Constable," 144 Ritch St, Clarksdale 38614",(662) 624-3060,,,
Mamie (Tissy) Knight,Covington County Comptroller," PO Box 1679, Collins 39428",(601) 765-8605,(601) 765-5016,,
Ramona Q. Blackledge,Jones County Tax Assessor,"101 N Court St,Ste A, Ellisville 39437",(601) 477-3261,(601) 477-3042,,
Ramona Q. Blackledge,Jones County Tax Assessor,"PO Box 511, Laurel 39441",(601) 426-3248,(601) 428-3102,,
Otis (Rocky) Kennedy,Lafayette County Coroner,"300 N Lamar, Oxford 38655",(662) 234-6421,(662) 236-0203,,
Donald Glenn Mullins,Lawrence County Constable (P-2),"PO Box 903, Monticello 39654",(601) 587-4854,(601) 587-0755,,
Kim Sullivan Bedford,Pontotoc County Coroner," PO Box 209, Pontotoc 38863",(662) 489-3111,(662) 489-0326,,
David (Bubba) Pounds,Prentiss County Chancery Clerk," PO Box 477, Booneville 38829",(662) 728-8151,(662) 728-2007,,
T.H. (Butch) Scipper,Quitman County Chancery Clerk," 220 Chestnut St,Ste 2, Marks 38646",(662) 326-2661,(662) 326-8004,,
Stephanie Washington,Sunflower County Comptroller," PO Box 988, Indianola 38751",(662) 887-2881,(662) 887-7054,,
Nathaniel Watkins Jr,Washington County Constable," 905 W Alexander, Greenville 38701",(662) 332-0633,(662) 390-4760,,
Vernita King Johnson,Washington County County Court Judge," PO Box 816, Greenville 38702-0816",(662) 334-2657,(662) 334-2796,,
Stewart Glen Beard Jr,Choctaw County Superintendent of Education," PO Drawer 398, Ackerman 39735",(662) 285-4022,(662) 285-4049,,
Hope Moore Herrington,Clarke County Tax Assessor,"PO Drawer 69, Quitman 39355",(601) 776-6931,(601) 776-5084,,
Hope Moore Herrington,Clarke County Tax Collector,"PO Drawer 69, Quitman 39355",(601) 776-6931,(601) 776-5084,,
Keitha Sparkman-Scott,Forrest County Justice Court Clerk," 700 Main St, Hattiesburg 39401",(601) 544-3136,(601) 545-6114,,
Margaret (Mimi) Parks,Humphreys County Tax Assessor,"102 Castleman St, Belzoni 39038",(662) 247-3174,(662) 247-5657,,
Margaret (Mimi) Parks,Humphreys County Tax Collector,"102 Castleman St, Belzoni 39038",(662) 247-2552,(662) 247-5657,,
Gracie Grant-Gulledge,Panola County Coroner," PO Box 248, Batesville 38606",(662) 609-2864,(662) 563-6237,,
Homer (Rusty) Cole Jr,Prentiss County Tax Collector," PO Box 283, Booneville 38829",(662) 728-5044,(662) 728-2010,,
Barbara Esters-Parker,Washington County Circuit Clerk," PO Box 1276, Greenville 38702 ",(662) 378-2747,(662) 334-2698,,
James S (Steve) Wells,Webster County Coroner," PO Box 45, Eupora 39744",(662) 258-8659,(662) 258-5001,,
Thomas C. Tolliver Jr,Wilkinson County Chancery Clerk," PO Box 516, Woodville 39669",(601) 888-4381,(601) 888-6776,,
Sharon Grisham-Stewart,Hinds County Coroner," PO Box 1452, Jackson 39215-1452",(601) 973-5505,(601) 973-5513,,
Sherline (Dee) Watkins,Kemper County Chancery Clerk," PO Box 188, DeKalb 39328 ",(601) 743-2460,(601) 743-2789,,
James Richard Anderson,Marshall County Coroner," PO Box 5155, Holly Springs 38635",(662) 252-2341,(662) 252-6050,,
Mitzi Faulkner Presley,Monroe County Tax Assessor," PO Drawer 636, Aberdeen 39730",(662) 369-2033,(662) 369-4429,,
Lanelle Garrett Martin,Montgomery County Circuit Clerk,"PO Box 765, Winona 38967",(662) 283-4161,(662) 283-3363,,
Gloria Sample McIntosh,Sunflower County Chancery Clerk," PO Box 988, Indianola 38751",(662) 887-4703,(662) 887-2336,,
Malcolm (Trey) Manning,Tate County Constable (P-1),"103 Preston McKay Dr, Senatobia 38668",(662) 562-7626,(662) 562-7663,,
T. J. (Jeff) Mullins IV,Franklin County Tax Assessor," PO Box 456, Meadville 39653",(601) 384-2359,(601) 384-3040,,
T. J. (Jeff) Mullins IV,Franklin County Tax Collector," PO Box 456, Meadville 39653",(601) 384-2359,(601) 384-3040,,
Camille Roberts Dulaney,Lee County Circuit Clerk," PO Box 762, Tupelo 38802.",(662) 432-2300,(662) 680-6079,,
Ginger Smith Meriwether,Tallahatchie County Coroner,"951 Hwy. 35 S, Holcomb 38940 ",(662) 647-0366,(662) 647-0358,,
Bennie (Kay) Warrington,Yazoo County Justice Court Judge (SD)," PO Box 798, Yazoo City 39194",(662) 746-8181,(662) 746-2023,,
Kendrick (Rick) McDonald,Jefferson County Coroner," PO Box 623, Fayette 39069",(601) 786-8558,(601) 786-9676,,
Carolyn Gillentine-Green,Lee County Coroner,"PO Box 712, Mooreville 38857",(662) 687-1852,(662) 680-9949,,
Nance Fitzpatrick Stokes,Pearl River County Circuit Clerk," PO Box 530, Poplarville 39470",(601) 403-2328,(601) 403-2327,,
Jannie M. Lewis-Blackmon,Yazoo County Circuit Court Judge (D-21)," PO Box 149, Lexington 39095",(662) 834-1452,,,
Melinda Patterson Nowicki,Pontotoc County Circuit Clerk," PO Box 428, Pontotoc 38863",(662) 489-3908,(662) 489-2318,,
Vincent E (Vince) Carlisle ,George County Tax Assessor," 5130 Main St,Ste B, Lucedale 39452",(601) 947-7541,(601) 947-6597,,
Vincent E (Vince) Carlisle,George County Tax Collector," 5130 Main St,Ste B, Lucedale 39452",(601) 947-7541,(601) 947-6597,,
"Sharon Livingston, Interim",Oktibbeha County Chancery Clerk,"101 East Main St, Starkville 39759.",(662) 323-5834,(662) 338-1064,,
Elive Rebecca (Becky) Gray,Scott County Circuit Clerk,"PO Box 371, Forest 39074 ",(601) 469-3601,(601) 469-5188,,
Claude Collum,Yazoo County Election Commissioner (D-5), PO Box 108 Yazoo City 39194,,,,
Gretta Winters,Yazoo County Election Commissioner (D-3),"PO Box 108, Yazoo City 39194",,,,
Dale K. Thompson,DeSoto County County Court Clerk," 2535 Hwy. 51 S, Rm. 201, Hernando 38632",,,,
Ottis Wolverton Jr,Covington County County Engineer," 57 Wolverton Dr, Collins 39428",,,,
Lynn McCallister III,Yazoo County Election Commissioner (D-4)," PO Box 108, Yazoo City 39194",,,,
Virginia (Gigi) Matthews,Yazoo County Election Commissioner (D-2),"273 Davey Dr, Benton 39039",,,,