county,position,name,address,phone,fax,alt_address,alt_phone,alt_fax,mobile,email,source,verified
Adams,Supervisor (D-1),Mike Lazarus,"314 State St., Natchez 39120",(601) 442-2431,(601) 304-8088,,,,,,2016-2020 Blue Book,
Adams,Supervisor (D-2),David Carter,"314 State St., Natchez 39120",(601) 442-2431,(601) 304-8088,,,,,,2016-2020 Blue Book,
Adams,Supervisor (D-3),Angela Gibson Hutchins,"314 State St., Natchez 39120",(601) 442-2431,(601) 304-8088,,,,,,2016-2020 Blue Book,
Adams,Supervisor (D-4),Ricky Gray,"314 State St., Natchez 39120",(601) 442-2431,(601) 304-8088,,,,,,2016-2020 Blue Book,
Adams,Supervisor (D-5),Calvin Butler,"314 State St., Natchez 39120",(601) 442-2431,(601) 304-8088,,,,,,2016-2020 Blue Book,
Alcorn,Supervisor (D-1),Lowell Hinton,"P.O. Box 69, Corinth 38835-0069",(662) 286-7707,(662) 286-7065,,,,,,2016-2020 Blue Book,
Alcorn,Supervisor (D-2),James Voyles,"P.O. Box 69, Corinth 38835-0069",(662) 286-7707,(662) 286-7065,,,,,,2016-2020 Blue Book,
Alcorn,Supervisor (D-3),Tim Mitchell,"P.O. Box 69, Corinth 38835-0069",(662) 286-7707,(662) 286-7065,,,,,,2016-2020 Blue Book,
Alcorn,Supervisor (D-4),Steve Glidewell,"P.O. Box 69, Corinth 38835-0069",(662) 286-7707,(662) 286-7065,,,,,,2016-2020 Blue Book,
Alcorn,Supervisor (D-5),Jimmy Tate Waldon," P.O. Box 69, Corinth 38835-0069",(662) 286-7707,(662) 286-7065,,,,,,2016-2020 Blue Book,
Amite,Supervisor (D-1),Warren Leake,"3040 McLain Ln., Liberty 39645",(601) 657-1024,(601) 657-8288,,,,,,2016-2020 Blue Book,
Amite,Supervisor (D-2),Will L. Powell,"2098 Street Rd., Liberty 39645",(601) 657-4327,(601) 657-5782,,,,,,2016-2020 Blue Book,
Amite,Supervisor (D-3),J. P. (Jackie) Whittington," 3162 Hunter Ln., Gloster 39638",(601) 225-4734,(601) 657-8288,,,,,,2016-2020 Blue Book,
Amite,Supervisor (D-4),Melvin Quin (Butch) Graves," 5020 Hughey Rd., Smithdale 39664",(601) 567-2495,(601) 657-8288,,,,,,2016-2020 Blue Book,
Amite,Supervisor (D-5),Rickie Williams Jr," 7100 Hwy. 584, Osyka 39657",(601) 248-1438,(601) 657-8288,,,,,,2016-2020 Blue Book,
Attala,Supervisor (D-1),Bobby Lindsay," 230 W. Washington St., Kosciusko 39090",(662) 289-2898,,,,,,,2016-2020 Blue Book,
Attala,Supervisor (D-2),Charles Fancher," 230 W. Washington St., Kosciusko 39090",(662) 289-2898,,,,,,,2016-2020 Blue Book,
Attala,Supervisor (D-3),Steven Goss," 230 W. Washington St., Kosciusko 39090",(662) 289-2898,,,,,,,2016-2020 Blue Book,
Attala,Supervisor (D-4),Kary Ellington," 230 W. Washington St., Kosciusko 39090",(662) 289-2898,,,,,,,2016-2020 Blue Book,
Attala,Supervisor (D-5),Tim Pinkard," 230 W. Washington St., Kosciusko 39090",(662) 289-2898,,,,,,,2016-2020 Blue Book,
Benton,Supervisor (D-1),Chris Shoup," P.O. Box 218, Ashland 38603",(662) 224-6300,(662) 224-6303,,,,,,2016-2020 Blue Book,
Benton,Supervisor (D-2),James (Bubba) Griffin," P.O. Box 218, Ashland 38603",(662) 224-6300,(662) 224-6303,,,,,,2016-2020 Blue Book,
Benton,Supervisor (D-3),James Lowry," P.O. Box 218, Ashland 38603",(662) 224-6300,(662) 224-6303,,,,,,2016-2020 Blue Book,
Benton,Supervisor (D-4),Tommy Fortner," P.O. Box 218, Ashland 38603",(662) 224-6300,(662) 224-6303,,,,,,2016-2020 Blue Book,
Benton,Supervisor (D-5),Ricky W. (Taterbug) Pipkin,"P.O. Box 218, Ashland 38603",(662) 224-6300,(662) 224-6303,,,,,,2016-2020 Blue Book,
Bolivar,Supervisor (D-1),Benitha Calvin-Williams," P.O. Box 698, Cleveland 38732-0698",(662) 846-5877,(662) 846-5880,,,,,,2016-2020 Blue Book,
Bolivar,Supervisor (D-2),Donny Whitten,"P.O. Box 698, Cleveland 38732-0698",(662) 846-5877,(662) 846-5880,,,,,,2016-2020 Blue Book,
Bolivar,Supervisor (D-3),Preston Billings,"P.O. Box 698, Cleveland 38732-0698",(662) 846-5877,(662) 846-5880,,,,,,2016-2020 Blue Book,
Bolivar,Supervisor (D-4),James McBride,"P.O. Box 698, Cleveland 38732-0698",(662) 846-5877,(662) 846-5880,,,,,,2016-2020 Blue Book,
Bolivar,Supervisor (D-5),Larry L. King,"P.O. Box 698, Cleveland 38732-0698",(662) 846-5877,(662) 846-5880,,,,,,2016-2020 Blue Book,
Calhoun,Supervisor (D-1),Charles Bobo,"P.O. Box 36, Pittsboro 38951",(662) 412-3126,(662) 412-3128,,,,,,2016-2020 Blue Book,
Calhoun,Supervisor (D-2),Homer Moore,"P.O. Box 36, Pittsboro 38951",(662) 412-3126,(662) 412-3128,,,,,,2016-2020 Blue Book,
Calhoun,Supervisor (D-3),Gwin Longest,"P.O. Box 36, Pittsboro 38951",(662) 412-3126,(662) 412-3128,,,,,,2016-2020 Blue Book,
Calhoun,Supervisor (D-4),Barney J. Wade,"P.O. Box 36, Pittsboro 38951",(662) 412-3126,(662) 412-3128,,,,,,2016-2020 Blue Book,
Calhoun,Supervisor (D-5),Tony Morgan,"P.O. Box 36, Pittsboro 38951",(662) 412-3126,(662) 412-3128,,,,,,2016-2020 Blue Book,
Carroll,Supervisor (D-1),Jim Neill,"P.O. Box 60, Carrollton 38917",(662) 237-9660,(662) 237-9642,,,,,,2016-2020 Blue Book,
Carroll,Supervisor (D-2),Terry Brown,"P.O. Box 60, Carrollton 38917",(662) 237-9660,(662) 237-9642,,,,,,2016-2020 Blue Book,
Carroll,Supervisor (D-3),Dill Tucker,"P.O. Box 60, Carrollton 38917",(662) 237-9660,(662) 237-9642,,,,,,2016-2020 Blue Book,
Carroll,Supervisor (D-4),Claude Fluker,"P.O. Box 60, Carrollton 38917",(662) 237-9660,(662) 237-9642,,,,,,2016-2020 Blue Book,
Carroll,Supervisor (D-5),Rickie Corley,"P.O. Box 60, Carrollton 38917",(662) 237-9660,(662) 237-9642,,,,,,2016-2020 Blue Book,
Chickasaw,Supervisor (D-1),Anderson McFarland,"1 Pinson Square, Houston 38851",(662) 456-2513,(662) 456-5295,,,,,,2016-2020 Blue Book,
Chickasaw,Supervisor (D-2),Bill Blissard,"1 Pinson Square, Houston 38851",(662) 456-2513,(662) 456-5295,,,,,,2016-2020 Blue Book,
Chickasaw,Supervisor (D-3),Russell Earl Brooks,"1 Pinson Square, Houston 38851",(662) 456-2513,(662) 456-5295,,,,,,2016-2020 Blue Book,
Chickasaw,Supervisor (D-4),Jerry Hall,"1 Pinson Square, Houston 38851",(662) 456-2513,(662) 456-5295,,,,,,2016-2020 Blue Book,
Chickasaw,Supervisor (D-5),James R. King,"1 Pinson Square, Houston 38851",(662) 456-2513,(662) 456-5295,,,,,,2016-2020 Blue Book,
Choctaw,Supervisor (D-1),Joey Stephenson,"P.O. Box 250, Ackerman 39735",(662) 285-6329,(662) 285-3444,,,,,,2016-2020 Blue Book,
Choctaw,Supervisor (D-2),Greg Fondren,"P.O. Box 250, Ackerman 39735",(662) 285-6329,(662) 285-3444,,,,,,2016-2020 Blue Book,
Choctaw,Supervisor (D-3),Chris McIntire,"P.O. Box 250, Ackerman 39735",(662) 285-6329,(662) 285-3444,,,,,,2016-2020 Blue Book,
Choctaw,Supervisor (D-4),John Shumaker,"P.O. Box 250, Ackerman 39735",(662) 285-6329,(662) 285-3444,,,,,,2016-2020 Blue Book,
Choctaw,Supervisor (D-5),Eric Chambers,"P.O. Box 250, Ackerman 39735",(662) 285-6329,(662) 285-3444,,,,,,2016-2020 Blue Book,
Claiborne,Supervisor (D-1),Marie Clark,"P.O. Box 689, Port Gibson 39150",(601) 437-5216,(601) 437-4430,,,,,,2016-2020 Blue Book,
Claiborne,Supervisor (D-2),Kenneth R. Davis,"P.O. Box 689, Port Gibson 39150",(601) 437-5216,(601) 437-4430,,,,,,2016-2020 Blue Book,
Claiborne,Supervisor (D-3),Lonnie O'Quinn,"P.O. Box 689, Port Gibson 39150",(601) 437-5216,(601) 437-4430,,,,,,2016-2020 Blue Book,
Claiborne,Supervisor (D-4),Ronald Shoulders,"P.O. Box 689, Port Gibson 39150",(601) 437-5216,(601) 437-4430,,,,,,2016-2020 Blue Book,
Claiborne,Supervisor (D-5),Daniel L. Porter,"P.O. Box 689, Port Gibson 39150",(601) 437-5216,(601) 437-4430,,,,,,2016-2020 Blue Book,
Clarke,Supervisor (D-1),Darrick L. Marshall," P.O. Box 616, Quitman 39355",(601) 776-5873,(601) 776-1013,,,,,,2016-2020 Blue Book,
Clarke,Supervisor (D-2),.Lorenzo Carter,"P.O. Box 616, Quitman 39355",(601) 776-5873,(601) 776-1013,,,,,,2016-2020 Blue Book,
Clarke,Supervisor (D-3),Troy Smith,"P.O. Box 616, Quitman 39355",(601) 776-5873,(601) 776-1013,,,,,,2016-2020 Blue Book,
Clarke,Supervisor (D-4),Paul Mosley,"P.O. Box 616, Quitman 39355",(601) 776-5873,(601) 776-1013,,,,,,2016-2020 Blue Book,
Clarke,Supervisor (D-5),Mickey Long,"P.O. Box 616, Quitman 39355",(601) 776-5873,(601) 776-1013,,,,,,2016-2020 Blue Book,
Clay,Supervisor (D-1),Lynn Horton,"P.O. Box 815, West Point 39773",(662) 494-3313,(662) 492-4059,,,,,,2016-2020 Blue Book,
Clay,Supervisor (D-2),Luke Lummus,"P.O. Box 815, West Point 39773",(662) 494-3313,(662) 492-4059,,,,,,2016-2020 Blue Book,
Clay,Supervisor (D-3),R.B. Davis,"P.O. Box 815, West Point 39773",(662) 494-3313,(662) 492-4059,,,,,,2016-2020 Blue Book,
Clay,Supervisor (D-4),Shelton L. Deanes,"P.O. Box 815, West Point 39773",(662) 494-3313,(662) 492-4059,,,,,,2016-2020 Blue Book,
Clay,Supervisor (D-5),Joe D. Chandler,"P.O. Box 815, West Point 39773",(662) 494-3313,(662) 492-4059,,,,,,2016-2020 Blue Book,
Coahoma,Supervisor (D-1),Paul Pearson,"325 Pearson Rd., Lyon 38645",(662) 624-3028,(662) 624-3029,,,,,,2016-2020 Blue Book,
Coahoma,Supervisor (D-2),Pat Davis Jr,"4500 Farrell Rd., Clarksdale 38614",(662) 302-1761,(662) 624-3029,,,,,,2016-2020 Blue Book,
Coahoma,Supervisor (D-3),Derrell Washington," P.O. Box 112, Jonestown 38639",(662) 902-8221,(662) 624-3029,,,,,,2016-2020 Blue Book,
Coahoma,Supervisor (D-4),Johnny Newson,"433 Andrews St., Clarksdale 38614",(662) 627-2279,(662) 624-3029,,,,,,2016-2020 Blue Book,
Coahoma,Supervisor (D-5),Will Young,"1820 Young Rd., Clarksdale 38614",(662) 902-3276,(662) 621-9022,,,,,,2016-2020 Blue Book,
Copiah,Supervisor (D-1),Daryl McMillian," P.O. Box 551, Hazlehurst 39083",(601) 894-1858,(601) 894-1908,,,,(601) 953-9901,,2016-2020 Blue Book,
Copiah,Supervisor (D-2),Terry Channell," P.O. Box 551, Hazlehurst 39083",(601) 894-1858,(601) 894-1908,,,,(601) 953-9902,,2016-2020 Blue Book,
Copiah,Supervisor (D-3),Perry Hood," P.O. Box 551, Hazlehurst 39083",(601) 894-1858,(601) 894-1908,,,,(601) 953-9903,,2016-2020 Blue Book,
Copiah,Supervisor (D-4),Kenneth Powell," P.O. Box 551, Hazlehurst 39083",(601) 894-1858,(601) 894-1908,,,,(601) 953-9904,,2016-2020 Blue Book,
Copiah,Supervisor (D-5),Jimmy L. Phillips," P.O. Box 551, Hazlehurst 39083",(601) 894-1858,(601) 894-1908,,,,(601) 953-9905,,2016-2020 Blue Book,
Covington,Supervisor (D-1),Sterling Craft,"P.O. Box 1679, Collins 39428",(601) 765-8605,(601) 765-5016,,,,,,2016-2020 Blue Book,
Covington,Supervisor (D-2),John Holifield,"P.O. Box 1679, Collins 39428",(601) 765-8605,(601) 765-5016,,,,,,2016-2020 Blue Book,
Covington,Supervisor (D-3),Jimmy D. White,"P.O. Box 1679, Collins 39428",(601) 765-8605,(601) 765-5016,,,,,,2016-2020 Blue Book,
Covington,Supervisor (D-4),Guy Cecil Easterling,"P.O. Box 1679, Collins 39428",(601) 765-8605,(601) 765-5016,,,,,,2016-2020 Blue Book,
Covington,Supervisor (D-5),Arthur Keys,"P.O. Box 1679, Collins 39428",(601) 765-8605,(601) 765-5016,,,,,,2016-2020 Blue Book,
Desoto,Supervisor (D-1),Jessie Medlin," 365 Losher St., Hernando 38632",(662) 469-8002,(662) 469-8181,,,,,,2016-2020 Blue Book,
Desoto,Supervisor (D-2),Mark Gardner," 365 Losher St., Hernando 38632",(662) 469-8002,(662) 469-8181,,,,,,2016-2020 Blue Book,
Desoto,Supervisor (D-3),Bill Russell," 365 Losher St., Hernando 38632",(662) 469-8002,(662) 469-8181,,,,,,2016-2020 Blue Book,
Desoto,Supervisor (D-4),Lee Caldwell," 365 Losher St., Hernando 38632",(662) 469-8002,(662) 469-8181,,,,,,2016-2020 Blue Book,
Desoto,Supervisor (D-5),Michael Lee," 365 Losher St., Hernando 38632",(662) 469-8002,(662) 469-8181,,,,,,2016-2020 Blue Book,
Forrest,Supervisor (D-1),avid Hogan," P.O. Box 1310, Hattiesburg 39403-1310..(601) 545-6000",f(601) 545-6095,(601) 545-6095,,,,,,2016-2020 Blue Book,
Forrest,Supervisor (D-2),harles E. Marshall," P.O. Box 1310, Hattiesburg 39403-1310..(601) 545-6000",f(601) 545-6095,(601) 545-6095,,,,,,2016-2020 Blue Book,
Forrest,Supervisor (D-3),urkett Ross," P.O. Box 1310, Hattiesburg 39403-1310..(601) 545-6000",f(601) 545-6095,(601) 545-6095,,,,,,2016-2020 Blue Book,
Forrest,Supervisor (D-4),od Woullard," P.O. Box 1310, Hattiesburg 39403-1310..(601) 545-6000",f(601) 545-6095,(601) 545-6095,,,,,,2016-2020 Blue Book,
Forrest,Supervisor (D-5),Chris Bowen," P.O. Box 1310, Hattiesburg 39403-1310..(601) 545-6000",f(601) 545-6095,(601) 545-6095,,,,,,2016-2020 Blue Book,
Franklin,Supervisor (D-1),Gary Cameron,"P.O. Box 297, Meadville 39653",(601) 384-2330,(601) 384-5864,,,,,,2016-2020 Blue Book,
Franklin,Supervisor (D-2),David (Tubb) Southerland," P.O. Box 297, Meadville 39653",(601) 384-2330,(601) 384-5864,,,,,,2016-2020 Blue Book,
Franklin,Supervisor (D-3),Mike (Dirt) Hunt,"P.O. Box 297, Meadville 39653",(601) 384-2330,(601) 384-5864,,,,,,2016-2020 Blue Book,
Franklin,Supervisor (D-4),Jerry L. Howell,"P.O. Box 297, Meadville 39653",(601) 384-2330,(601) 384-5864,,,,,,2016-2020 Blue Book,
Franklin,Supervisor (D-5),Jimmie (Bodi) Bass,"P.O. Box 297, Meadville 39653",(601) 384-2330,(601) 384-5864,,,,,,2016-2020 Blue Book,
George,Supervisor (D-1),Fred A. Croom," 355 Cox St., Ste. D, Lucedale 39452",(601) 947-7506,,,,,,,2016-2020 Blue Book,
George,Supervisor (D-2),Kelly W. Wright," 355 Cox St., Ste. D, Lucedale 39452",(601) 947-7506,,,,,,,2016-2020 Blue Book,
George,Supervisor (D-3),Larry D. McDonald," 355 Cox St., Ste. D, Lucedale 39452",(601) 947-7506,,,,,,,2016-2020 Blue Book,
George,Supervisor (D-4),Larry Havard," 355 Cox St., Ste. D, Lucedale 39452",(601) 947-7506,,,,,,,2016-2020 Blue Book,
George,Supervisor (D-5),William Henry Cochran," 355 Cox St., Ste. D, Lucedale 39452",(601) 947-7506,,,,,,,2016-2020 Blue Book,
Greene,Supervisor (D-1),Gary L. Dearman,"P.O. Box 460, Leakesville 39451",(601) 394-2394,(601) 394-4650,,,,,,2016-2020 Blue Book,
Greene,Supervisor (D-2),William M. Hill,"P.O. Box 460, Leakesville 39451",(601) 394-2394,(601) 394-4650,,,,,,2016-2020 Blue Book,
Greene,Supervisor (D-3),Jerry Mills,"P.O. Box 460, Leakesville 39451",(601) 394-2394,(601) 394-4650,,,,,,2016-2020 Blue Book,
Greene,Supervisor (D-4),John W. (Wayne) Barrow," P.O. Box 460, Leakesville 39451",(601) 394-2394,(601) 394-4650,,,,,,2016-2020 Blue Book,
Greene,Supervisor (D-5),Harold Cook,"P.O. Box 460, Leakesville 39451",(601) 394-2394,(601) 394-4650,,,,,,2016-2020 Blue Book,
Grenada,Supervisor (D-1),Michael Lott,"P.O. Box 1208, Grenada 38902",(662) 226-1821,(662) 227-2860,,,,,,2016-2020 Blue Book,
Grenada,Supervisor (D-2),Chad Bridges,"P.O. Box 1208, Grenada 38902",(662) 226-1821,(662) 227-2860,,,,,,2016-2020 Blue Book,
Grenada,Supervisor (D-3),C. Columbus Hankins," P.O. Box 1208, Grenada 38902",(662) 226-1821,(662) 227-2860,,,,,,2016-2020 Blue Book,
Grenada,Supervisor (D-4),Darrell Robinson,"P.O. Box 1208, Grenada 38902",(662) 226-1821,(662) 226-2860,,,,,,2016-2020 Blue Book,
Grenada,Supervisor (D-5),Chad P. Gray,"P.O. Box 1208, Grenada 38902",(662) 226-1821,(662) 227-2860,,,,,,2016-2020 Blue Book,
Hancock,Supervisor (D-1),David Yarborough,"854 Hwy. 90, Ste. A, Bay St. Louis 39520.. (228) 467-0172",f(228) 466-5994,(228) 466-5994,,,,,,2016-2020 Blue Book,
Hancock,Supervisor (D-2),Greg Shaw,"854 Hwy. 90, Ste. A, Bay St. Louis 39520.. (228) 467-0172",f(228) 466-5994,(228) 466-5994,,,,,,2016-2020 Blue Book,
Hancock,Supervisor (D-3),Blaine LaFontaine,"854 Hwy. 90, Ste. A, Bay St. Louis 39520.. (228) 467-0172",f(228) 466-5994,(228) 466-5994,,,,,,2016-2020 Blue Book,
Hancock,Supervisor (D-4),Scotty Adam,"854 Hwy. 90, Ste. A, Bay St. Louis 39520.. (228) 467-0172",f(228) 466-5994,(228) 466-5994,,,,,,2016-2020 Blue Book,
Hancock,Supervisor (D-5),Darrin (Bo) Ladner,"854 Hwy. 90, Ste. A, Bay St. Louis 39520.. (228) 467-0172",f(228) 466-5994,(228) 466-5994,,,,,,2016-2020 Blue Book,
Harrison,Supervisor (D-1),Beverly Martin," P.O. Box 413, Biloxi 39533",(228) 435-8272,(228) 435-8289,,,,,,2016-2020 Blue Book,
Harrison,Supervisor (D-2),Angel Kibler-Middleton," P.O. Drawer CC, Gulfport 39502",(228) 865-4122,(228) 865-4206,,,,,,2016-2020 Blue Book,
Harrison,Supervisor (D-3),Marlin Ladner," P.O. Drawer CC, Gulfport 39502",(228) 867-6528,(228) 865-4162,,,,,,2016-2020 Blue Book,
Harrison,Supervisor (D-4),Kent Jones," P.O. Drawer CC, Gulfport 39502",(228) 865-4204,(228) 867-6551,,,,,,2016-2020 Blue Book,
Harrison,Supervisor (D-5),Connie Rockco," P.O. Box 413, Biloxi 39533",(228) 865-4123,(228) 435-8289,,,,,,2016-2020 Blue Book,
Hinds,Supervisor (D-1),Robert Graham,"P.O. Box 686, Jackson 39205",(601) 968-6689,,,,,,,2016-2020 Blue Book,
Hinds,Supervisor (D-2),Darrel McQuirter,"P.O. Box 686, Jackson 39205",(601) 968-6690,,,,,,,2016-2020 Blue Book,
Hinds,Supervisor (D-3),Peggy Hobson Calhoun," P.O. Box 686, Jackson 39205",(601) 968-6768,,,,,,,2016-2020 Blue Book,
Hinds,Supervisor (D-4),Mike Morgan,"P.O. Box 686, Jackson 39205",(601) 857-2622,,,,,,,2016-2020 Blue Book,
Hinds,Supervisor (D-5),Bobby McGowan,"P.O. Box 686, Jackson 39205",(601) 968-6699,,,,,,,2016-2020 Blue Book,
Holmes,Supervisor (D-1),Henry Anderson,"P.O. Box 239, Lexington 39095",(662) 834-0911,(662) 834-3345,,,,,,2016-2020 Blue Book,
Holmes,Supervisor (D-2),James H. Young,"144 Wade Green Road, West 39192",(662) 967-2560,(662) 834-3117,,,,,,2016-2020 Blue Book,
Holmes,Supervisor (D-3),Debra Mabry,"P.O. Box 582, Pickens 39460",(662) 502-5214,(662) 834-3117,,,,,,2016-2020 Blue Book,
Holmes,Supervisor (D-4),Larry Davis,"729 H. Davis Rd., Tchula 39169",(662) 502-5214,(662) 834-3117,,,,,,2016-2020 Blue Book,
Holmes,Supervisor (D-5),Eddie J. Carthan,"P.O. Box 239, Lexington 3905",(662) 834-0911,(662) 834-3117,,,,,,2016-2020 Blue Book,
Humphreys,Supervisor (D-1),James Bankhead,"709 Cohn St., Belzoni 39038",(662) 247-2296,(662) 247-3906,,,,,,2016-2020 Blue Book,
Humphreys,Supervisor (D-2),R. D. (Dickie) Stevens," 126 S. Belzoni St., Isola 38754",(662) 962-3101,(662) 247-5664,,,,,,2016-2020 Blue Book,
Humphreys,Supervisor (D-3),Woodrow Johnson Sr," Rt. 6 Box 234, Yazoo City 39194",(662) 746-6645,(662) 247-5664,,,,,,2016-2020 Blue Book,
Humphreys,Supervisor (D-4),Jerry Wood,"P.O. Box 375, Belzoni 39038",(662) 247-2285,(662) 247-1853,,,,,,2016-2020 Blue Book,
Humphreys,Supervisor (D-5),Roy Broomfield,"403 Eisenhower St., Belzoni 39038",(662) 247-3906,(662) 247-5664,,,,,,2016-2020 Blue Book,
Issaquena,Supervisor (D-1),Lewis Hatcher,"P.O. Box 27, Mayersville 39113",(662) 873-4316,(662) 873-2061,,,,,,2016-2020 Blue Book,
Issaquena,Supervisor (D-2),John T. Kerr Jr,"P.O. Box 27, Mayersville 39113",(662) 907-1069,(662) 873-2061,,,,,,2016-2020 Blue Book,
Issaquena,Supervisor (D-3),Stallard Williams,"P.O. Box 27, Mayersville 39113",(662) 907-0266,(662) 873-2061,,,,,,2016-2020 Blue Book,
Issaquena,Supervisor (D-4),Michael Parker,"P.O. Box 27, Mayersville 39113",(662) 873-7100,(662) 873-2061,,,,,,2016-2020 Blue Book,
Issaquena,Supervisor (D-5),Eddie Holcomb,"P.O. Box 27, Mayersville 39113",(662) 873-6478,(662) 873-2061,,,,,,2016-2020 Blue Book,
Itawamba,Supervisor (D-1),Charles Horn," P.O. Box 776, Fulton 38843",(662) 862-5600,(662) 862-3421,,,,,,2016-2020 Blue Book,
Itawamba,Supervisor (D-2),Cecil (Ike) Johnson Sr," P.O. Box 776, Fulton 38843",(662) 862-5600,(662) 862-3421,,,,,,2016-2020 Blue Book,
Itawamba,Supervisor (D-3),Steve Moore," P.O. Box 776, Fulton 38843",(662) 862-5600,(662) 862-3421,,,,,,2016-2020 Blue Book,
Itawamba,Supervisor (D-4),Eric (Tiny) Hughes," P.O. Box 776, Fulton 38843",(662) 862-5600,(662) 862-3421,,,,,,2016-2020 Blue Book,
Itawamba,Supervisor (D-5),Steve Johnson," P.O. Box 776, Fulton 38843",(662) 862-5600,(662) 862-3421,,,,,,2016-2020 Blue Book,
Jackson,Supervisor (D-1),Barry Cumbest,"P.O. Box 998, Pascagoula 39568-0998.. (228) 769-3403",f(228) 769 3475,(228) 769-3475,,,,,,2016-2020 Blue Book,
Jackson,Supervisor (D-2),Melton Harris Jr,"P.O. Box 998, Pascagoula 39568-0998.. (228) 769-3170",f(228) 762-6578,(228) 762-6578,,,,,,2016-2020 Blue Book,
Jackson,Supervisor (D-3),Kenneth Taylor,"P.O. Box 998, Pascagoula 39568-0998.. (228) 762-7641",f(228) 769-3363,(228) 769-3363,,,,,,2016-2020 Blue Book,
Jackson,Supervisor (D-4),Troy Ross,"P.O. Box 998, Pascagoula 39568-0988.. (228) 769-3457",f(228) 769-3482,(228) 769-3482,,,,,,2016-2020 Blue Book,
Jackson,Supervisor (D-5),Randy Bosarge,"P.O. Box 998, Pascagoula 39568-0998.. (228) 769-3378",f(228) 696-6500,(228) 696-6500,,,,,,2016-2020 Blue Book,
Jasper,Supervisor (D-1),Eddie Helms,"P.O. Box 406, Bay Springs 39422",(601) 764-3469,(601) 764-3468,,,,,,2016-2020 Blue Book,
Jasper,Supervisor (D-2),Sandy Stephens,"P.O. Box 406, Bay Springs 39422",(601) 764-3469,(601) 764-3468,,,,,,2016-2020 Blue Book,
Jasper,Supervisor (D-3),Doug Rogers,"P.O. Box 406, Bay Springs 39422",(601) 764-3469,(601) 764-3468,,,,,,2016-2020 Blue Book,
Jasper,Supervisor (D-4),Johnny B. Rowell,"P.O. Box 406, Bay Springs 39422",(601) 764-3469,(601) 764-3468,,,,,,2016-2020 Blue Book,
Jasper,Supervisor (D-5),Curtis Gray Sr,"P.O. Box 406, Bay Springs 39422",(601) 764-3469,(601) 764-3468,,,,,,2016-2020 Blue Book,
Jefferson,Supervisor (D-1),James Well,"P.O. Box 145, Fayette 39069",(601) 786-3021,(601) 786-6009,,,,,,2016-2020 Blue Book,
Jefferson,Supervisor (D-2),Cammie Hutcherson," P.O. Box 145, Fayette 39069",(601) 786-3021,(601) 786-6009,,,,,,2016-2020 Blue Book,
Jefferson,Supervisor (D-3),Jerry Wilson,"P.O. Box 145, Fayette 39069",(601) 786-3021,(601) 786-6009,,,,,,2016-2020 Blue Book,
Jefferson,Supervisor (D-4),S.D. Johnson,"P.O. Box 145, Fayette 39069",(601) 786-3021,(601) 786-6009,,,,,,2016-2020 Blue Book,
Jefferson,Supervisor (D-5),Tracy Collins,"P.O. Box 145, Fayette 39069",(601) 786-3021,(601) 786-6009,,,,,,2016-2020 Blue Book,
Jefferson davis,Supervisor (D-1),con (Corky) Holliman,"P.O. Box 1317, Prentiss 39474",(601) 792-4336,(601) 792-4038,,,,,,2016-2020 Blue Book,
Jefferson davis,Supervisor (D-2),Charles Reid,"P.O. Box 1317, Prentiss 39474",(601) 792-4336,(601) 792-4038,,,,,,2016-2020 Blue Book,
Jefferson davis,Supervisor (D-3),John H. Thompson,"P.O. Box 1317, Prentiss 39474",(601) 792-4336,(601) 792-4038,,,,,,2016-2020 Blue Book,
Jefferson davis,Supervisor (D-4),Michael O. Evans,"P.O. Box 1317, Prentiss 39474",(601) 792-4336,(601) 792-4038,,,,,,2016-2020 Blue Book,
Jefferson davis,Supervisor (D-5),Bobby R. Rushing,"P.O. Box 1317, Prentiss 39474",(601) 792-4336,(601) 792-4038,,,,,,2016-2020 Blue Book,
Jones,Supervisor (D-1),Johnny Burnett,"P.O. Box 1468, Laurel 39441",(601) 428-3139,(601) 428-3602,,,,,,2016-2020 Blue Book,
Jones,Supervisor (D-2),Danny Spradley,"P.O. Box 1468, Laurel 39441",(601) 428-3139,(601) 428-3602,,,,,,2016-2020 Blue Book,
Jones,Supervisor (D-3),Barry E. Saul,"P.O. Box 1468, Laurel 39441",(601) 428-3139,(601) 428-3602,,,,,,2016-2020 Blue Book,
Jones,Supervisor (D-4),David Scruggs,"P.O. Box 1468, Laurel 39441",(601) 428-3139,(601) 428-3602,,,,,,2016-2020 Blue Book,
Jones,Supervisor (D-5),Jerome Wyatt,"P.O. Box 1468, Laurel 39441",(601) 428-3139,(601) 428-3602,,,,,,2016-2020 Blue Book,
Kemper,Supervisor (D-1),James Granger,"P.O. Box 188, DeKalb 39328",(601) 743-4477,(601) 743-2789,,,,,,2016-2020 Blue Book,
Kemper,Supervisor (D-2),Johnny B. Whitsett," P.O. Box 188, DeKalb 39328",(601) 743-4477,(601) 743-2789,,,,,,2016-2020 Blue Book,
Kemper,Supervisor (D-3),Justin Creer,"P.O. Box 188, DeKalb 39328",(601) 743-4477,(601) 743-2789,,,,,,2016-2020 Blue Book,
Kemper,Supervisor (D-4),Mike Luke,"P.O. Box 188, DeKalb 39328",(601) 743-4477,(601) 743-2789,,,,,,2016-2020 Blue Book,
Kemper,Supervisor (D-5),Chris Cole,"P.O. Box 188, DeKalb 39328",(601) 743-4477,(601) 743-2789,,,,,,2016-2020 Blue Book,
Lafayette,Supervisor (D-1),Kevin Frye,"P.O. Box 1240, Oxford 38655",(662) 236-2717,(662) 234-5402,,,,,,2016-2020 Blue Book,
Lafayette,Supervisor (D-2),Jeff Busby,"P.O. Box 1240, Oxford 38655",(662) 236-2717,(662) 234-5402,,,,,,2016-2020 Blue Book,
Lafayette,Supervisor (D-3),David Rikard,"P.O. Box 1240, Oxford 38655",(662) 236-2717,(662) 234-5402,,,,,,2016-2020 Blue Book,
Lafayette,Supervisor (D-4),Chad D. McLarty,"P.O. Box 1240, Oxford 38655",(662) 236-2717,(662) 234-5402,,,,,,2016-2020 Blue Book,
Lafayette,Supervisor (D-5),James M. Roberts,"P.O. Box 1240, Oxford 38655",(662) 236-2717,(662) 234-5402,,,,,,2016-2020 Blue Book,
Lamar,Supervisor (D-1),Steve Lampton," P.O. Box 1240, Purvis 39475",(601) 794-8504,(601) 794-1049,,,,,,2016-2020 Blue Book,
Lamar,Supervisor (D-2),Warren Byrd," P.O. Box 1240, Purvis 39475",(601) 794-8504,(601) 794-1049,,,,,,2016-2020 Blue Book,
Lamar,Supervisor (D-3),Joe B. Bounds," P.O. Box 1240, Purvis 39475",(601) 794-8504,(601) 794-1049,,,,,,2016-2020 Blue Book,
Lamar,Supervisor (D-4),Phillip Carlisle," P.O. Box 1240, Purvis 39475",(601) 794-8504,(601) 794-1049,,,,,,2016-2020 Blue Book,
Lamar,Supervisor (D-5),Dale Lucus," P.O. Box 1240, Purvis 39475",(601) 794-8504,(601) 794-1049,,,,,,2016-2020 Blue Book,
Lauderdale,Supervisor (D-1),Jonathon (Coach) Wells,"410 Constitution Ave., 11th Fl., Meridian 39301",(601) 482-9746,(601) 482-9744,,,,,,2016-2020 Blue Book,
Lauderdale,Supervisor (D-2),Wayman Newell,"410 Constitution Ave., 11th Fl., Meridian 39301",(601) 482-9746,(601) 482-9744,,,,,,2016-2020 Blue Book,
Lauderdale,Supervisor (D-3),Josh Todd,"410 Constitution Ave., 11th Fl., Meridian 39301",(601) 482-9746,(601) 482-9744,,,,,,2016-2020 Blue Book,
Lauderdale,Supervisor (D-4),Joe Norwood,"410 Constitution Ave., 11th Fl., Meridian 39301",(601) 482-9746,(601) 482-9744,,,,,,2016-2020 Blue Book,
Lauderdale,Supervisor (D-5),Kyle Rutledge,"410 Constitution Ave., 11th Fl., Meridian 39301",(601) 482-9746,(601) 482-9744,,,,,,2016-2020 Blue Book,
Lawrence,Supervisor (D-1),Steve Garrett," P.O. Box 1160, Monticello 39654",(601) 587-7351,(601) 587-0750,,,,,,2016-2020 Blue Book,
Lawrence,Supervisor (D-2),Billy Joe Boutwell," P.O. Box 1160, Monticello 39654",(601) 587-7351,(601) 587-0750,,,,,,2016-2020 Blue Book,
Lawrence,Supervisor (D-3),Jerry Wayne Smithie," P.O. Box 1160, Monticello 39654",(601) 587-7351,(601) 587-0750,,,,,,2016-2020 Blue Book,
Lawrence,Supervisor (D-4),Stanley Stephens," P.O. Box 1160, Monticello 39654",(601) 587-7351,(601) 587-0750,,,,,,2016-2020 Blue Book,
Lawrence,Supervisor (D-5),Coach Archie Ross," P.O. Box 1160, Monticello 39654",(601) 587-7351,(601) 587-0750,,,,,,2016-2020 Blue Book,
Leake,Supervisor (D-1),Tony M. Smith," P.O. Box 595, Carthage 39051",(601) 267-8002,(601) 267-6132,,,,,,2016-2020 Blue Book,
Leake,Supervisor (D-2),Joe Andy Helton," P.O. Box 595, Carthage 39051",(601) 267-8002,(601) 267-6132,,,,,,2016-2020 Blue Book,
Leake,Supervisor (D-3),Oliver Smith," P.O. Box 595, Carthage 39051",(601) 267-8002,(601) 267-6132,,,,,,2016-2020 Blue Book,
Leake,Supervisor (D-4),Lucas Brown," P.O. Box 595, Carthage 39051",(601) 267-8002,(601) 267-6132,,,,,,2016-2020 Blue Book,
Leake,Supervisor (D-5),Curtis Johnson," P.O. Box 595, Carthage 39051",(601) 267-8002,(601) 267-6132,,,,,,2016-2020 Blue Book,
Lee,Supervisor (D-1),Phil Morgan,"P.O. Box 1785, Tupelo 38802",(662) 432-2000,(662) 840-4275,,,,,,2016-2020 Blue Book,
Lee,Supervisor (D-2),Mike Smith,"P.O. Box 1785, Tupelo 38802",(662) 432-2000,(662) 840-4275,,,,,,2016-2020 Blue Book,
Lee,Supervisor (D-3),Tony Roper,"P.O. Box 1785, Tupelo 38802",(662) 432-2000,(662) 840-4275,,,,,,2016-2020 Blue Book,
Lee,Supervisor (D-4),Tommie Lee Ivy,"P.O. Box 1785, Tupelo 38802",(662) 432-2000,(662) 840-4275,,,,,,2016-2020 Blue Book,
Lee,Supervisor (D-5),Billy Joe Holland,"P.O. Box 1785, Tupelo 38802",(662) 432-2000,(662) 840-4275,,,,,,2016-2020 Blue Book,
Leflore,Supervisor (D-1),Sam Abraham,"P.O. Box 250, Greenwood 38935",(662) 455-3904,(662) 455-7965,,,,,,2016-2020 Blue Book,
Leflore,Supervisor (D-2),Robert Moore,"P.O. Box 250, Greenwood 38935",(662) 455-3904,(662) 455-7965,,,,,,2016-2020 Blue Book,
Leflore,Supervisor (D-3),Anjuan Brown,"P.O. Box 250, Greenwood 38935",(662) 455-3904,(662) 455-7965,,,,,,2016-2020 Blue Book,
Leflore,Supervisor (D-4),Wayne Self,"P.O. Box 250, Greenwood 38935",(662) 455-3904,(662) 455-7965,,,,,,2016-2020 Blue Book,
Leflore,Supervisor (D-5),Robert L. Collins,"P.O. Box 250, Greenwood 38935",(662) 455-3904,(662) 455-7965,,,,,,2016-2020 Blue Book,
Lincoln,Supervisor (D-1),Jerry L. Wilson," 116 St. George St., Brookhaven 39601",(601) 833-7172,(601) 835-3423,,,,,,2016-2020 Blue Book,
Lincoln,Supervisor (D-2),Bobby Watts," P.O. Box 555, Brookhaven 39602",(601) 833-5820,(601) 835-3423,,,,,,2016-2020 Blue Book,
Lincoln,Supervisor (D-3),Nolan Earl Williamson," 2451 Pleasant Hill Dr., Bogue Chitto 39629",(601) 734-2325,(601) 835-3423,,,,,,2016-2020 Blue Book,
Lincoln,Supervisor (D-4),C.E. (Eddie) Brown," 3125 Maude Lane SW, Bogue Chitto 39629",(601) 734-6455,(601) 835-3423,,,,,,2016-2020 Blue Book,
Lincoln,Supervisor (D-5),Doug Falvey," P.O. Box 55, Brookhaven 39601",(601) 833-2680,(601) 835-3423,,,,,,2016-2020 Blue Book,
Lowndes,Supervisor (D-1),Harry S. Sanders,"P.O. Box 1364, Columbus 39703",(662) 329-5844,(662) 329-5881,,,,,,2016-2020 Blue Book,
Lowndes,Supervisor (D-2),Bill Brigham,"P.O. Box 1364, Columbus 39703",(662) 329-5844,(662) 329-5881,,,,,,2016-2020 Blue Book,
Lowndes,Supervisor (D-3),John Holliman,"P.O. Box 1364, Columbus 39703",(662) 329-5844,(662) 329-5881,,,,,,2016-2020 Blue Book,
Lowndes,Supervisor (D-4),Jeff A. Smith,"P.O. Box 1364, Columbus 39703",(662) 329-5844,(662) 329-5881,,,,,,2016-2020 Blue Book,
Lowndes,Supervisor (D-5),Leroy Brooks,"P.O. Box 1364, Columbus 39703",(662) 329-5844,(662) 329-5881,,,,,,2016-2020 Blue Book,
Madison,Supervisor (D-1),Sheila Jones,"P.O. Box 608, Canton 39046",(601) 855-5500,(601) 859-5875,,,,,,2016-2020 Blue Book,
Madison,Supervisor (D-2),Trey Baxter,"P.O. Box 608, Canton 39046",(601) 855-5500,(601) 859-5875,,,,,,2016-2020 Blue Book,
Madison,Supervisor (D-3),Gerald Steen,"P.O. Box 608, Canton 39046",(601) 855-5500,(601) 859-5875,,,,,,2016-2020 Blue Book,
Madison,Supervisor (D-4),David Bishop,"P.O. Box 608, Canton 39046",(601) 855-5500,(601) 859-5875,,,,,,2016-2020 Blue Book,
Madison,Supervisor (D-5),Paul Griffin,"P.O. Box 608, Canton 39046",(601) 855-5500,(601) 859-5875,,,,,,2016-2020 Blue Book,
Marion,Supervisor (D-1),Charles R. Dyess," 215 Broad St., Columbia 39429",(601) 736-7382,(601) 736-1232,,,,,,2016-2020 Blue Book,
Marion,Supervisor (D-2),Terry Broome," 215 Broad St., Columbia 39429",(601) 736-7382,(601) 736-1232,,,,,,2016-2020 Blue Book,
Marion,Supervisor (D-3),Tony Morgan," 215 Broad St., Columbia 39429",(601) 736-7382,(601) 736-1232,,,,,,2016-2020 Blue Book,
Marion,Supervisor (D-4),Raymon Rowell," 215 Broad St., Columbia 39429",(601) 736-7382,(601) 736-1232,,,,,,2016-2020 Blue Book,
Marion,Supervisor (D-5),Calvin Newsom Sr," 215 Broad St., Columbia 39429",(601) 736-7382,(601) 736-1232,,,,,,2016-2020 Blue Book,
Marshall,Supervisor (D-1),Charles Terry,"640 N. West St., Holly Springs 38635",(662) 252-7903,(662) 252-0004,,,,,,2016-2020 Blue Book,
Marshall,Supervisor (D-2),Eddie Dixon,"4226 Hwy. 72 E., Holly Springs 38635. (662) 252-7903",f(662) 252-0004,(662) 252-0004,,,,,,2016-2020 Blue Book,
Marshall,Supervisor (D-3),Keith Taylor,"288 Peach Tree Rd., Byhalia 38611",(662) 252-7903,(662) 252-0004,,,,,,2016-2020 Blue Book,
Marshall,Supervisor (D-4),George Zinn III,"3768 Marianna Rd., Holly Springs 38635..(662) 252-7903",f(662) 252-0004,(662) 252-0004,,,,,,2016-2020 Blue Book,
Marshall,Supervisor (D-5),Ronnie Joe Bennett," 4927 Potts Camp Rd., Potts Camp 38659. (662) 252-7903",f(662) 252-0004,(662) 252-0004,,,,,,2016-2020 Blue Book,
Monroe,Supervisor (D-1),M. Joseph Richardson," P.O. Box 578, Aberdeen 39730",(662) 369-8143,(662) 369-7928,,,,,,2016-2020 Blue Book,
Monroe,Supervisor (D-2),Billy Kirkpatrick,"P.O. Box 578, Aberdeen 39730",(662) 369-8143,(662) 369-7928,,,,,,2016-2020 Blue Book,
Monroe,Supervisor (D-3),Glenn (Chip) Chism," P.O. Box 578, Aberdeen 39730",(662) 369-8143,(662) 369-7928,,,,,,2016-2020 Blue Book,
Monroe,Supervisor (D-4),Fulton Ware,"P.O. Box 578, Aberdeen 39730",(662) 369-8143,(662) 369-7928,,,,,,2016-2020 Blue Book,
Monroe,Supervisor (D-5),Hosea Bogan,"P.O. Box 578, Aberdeen 39730",(662) 369-8143,(662) 369-7928,,,,,,2016-2020 Blue Book,
Montgomery,Supervisor (D-1),Keith McGee,"P.O. Box 71, Winona 38967",(662) 283-2333,(662) 283-2233,,,,,,2016-2020 Blue Book,
Montgomery,Supervisor (D-2),Edwin Taylor,"P.O. Box 71, Winona 38967",(662) 283-2333,(662) 283-2233,,,,,,2016-2020 Blue Book,
Montgomery,Supervisor (D-3),Willie Townsend Jr," P.O. Box 71, Winona 38967",(662) 283-2333,(662) 283-2233,,,,,,2016-2020 Blue Book,
Montgomery,Supervisor (D-4),James Ron Wood Jr," P.O. Box 71, Winona 38967",(662) 283-2333,(662) 283-2233,,,,,,2016-2020 Blue Book,
Montgomery,Supervisor (D-5),Janet Roby-Harper,"P.O. Box 71, Winona 38967",(662) 283-2333,(662) 283-2233,,,,,,2016-2020 Blue Book,
Neshoba,Supervisor (D-1),Keith E. Lillis," 401 E. Beacon St., Ste. 201, Philadelphia 39350",(601) 656-6281,(601) 650-3280,,,,,,2016-2020 Blue Book,
Neshoba,Supervisor (D-2),Kevin Cumberland," 401 E. Beacon St., Ste. 201, Philadelphia 39350",(601) 656-6281,(601) 650-3280,,,,,,2016-2020 Blue Book,
Neshoba,Supervisor (D-3),Jerry Goforth," 401 E. Beacon St., Ste. 201, Philadelphia 39350",(601) 656-6281,(601) 650-3280,,,,,,2016-2020 Blue Book,
Neshoba,Supervisor (D-4),Alen White," 401 E. Beacon St., Ste. 201, Philadelphia 39350",(601) 656-6281,(601) 650-3280,,,,,,2016-2020 Blue Book,
Neshoba,Supervisor (D-5),Obbie Riley," 401 E. Beacon St., Ste. 201, Philadelphia 39350",(601) 656-6281,(601) 650-3280,,,,,,2016-2020 Blue Book,
Newton,Supervisor (D-1),Kenneth Harris," P.O. Box 68, Decatur 39327",(601) 635-4150,(601) 635-4531,,,,,,2016-2020 Blue Book,
Newton,Supervisor (D-2),Joe Alexander," P.O. Box 68, Decatur 39327",(601) 635-4150,(601) 635-4531,,,,,,2016-2020 Blue Book,
Newton,Supervisor (D-3),Charles Moulds," P.O. Box 68, Decatur 39327",(601) 635-4150,(601) 635-4531,,,,,,2016-2020 Blue Book,
Newton,Supervisor (D-4),Charles Godwin," P.O. Box 68, Decatur 39327",(601) 635-4150,(601) 635-4531,,,,,,2016-2020 Blue Book,
Newton,Supervisor (D-5),Glenn Hollingsworth," P.O. Box 68, Decatur 39327",(601) 635-4150,(601) 635-4531,,,,,,2016-2020 Blue Book,
Noxubee,Supervisor (D-1),Larry Tate,"P.O. Box 147, Macon 39341",(662) 726-5181,(662) 726-2272,,,,,,2016-2020 Blue Book,
Noxubee,Supervisor (D-2),William Oliver,"P.O. Box 147, Macon 39341",(662) 726-5181,(662) 726-2272,,,,,,2016-2020 Blue Book,
Noxubee,Supervisor (D-3),Sherman Patterson," P.O. Box 147, Macon 39341",(662) 726-5181,(662) 726-2272,,,,,,2016-2020 Blue Book,
Noxubee,Supervisor (D-4),Eddie Coleman,"P.O. Box 147, Macon 39341",(662) 726-5181,(662) 726-2272,,,,,,2016-2020 Blue Book,
Noxubee,Supervisor (D-5),Bruce Bernard Brooks," P.O. Box 147, Macon 39341",(662) 726-5181,(662) 726-2272,,,,,,2016-2020 Blue Book,
Oktibbeha,Supervisor (D-1),John P. Montgomery Jr," P.O. Box 80285, Starkville 39760",(662) 323-1520,(662) 338-1065,,,,,,2016-2020 Blue Book,
Oktibbeha,Supervisor (D-2),Orlando Trainer," P.O. Box 80285, Starkville 39760",(662) 323-1520,(662) 338-1065,,,,,,2016-2020 Blue Book,
Oktibbeha,Supervisor (D-3),Marvell Howard," P.O. Box 80285, Starkville 39760",(662) 323-1520,(662) 338-1065,,,,,,2016-2020 Blue Book,
Oktibbeha,Supervisor (D-4),Bricklee Miller," P.O. Box 80285, Starkville 39760",(662) 323-1520,(662) 338-1065,,,,,,2016-2020 Blue Book,
Oktibbeha,Supervisor (D-5),Joe Williams," P.O. Box 80285, Starkville 39760",(662) 323-1520,(662) 338-1065,,,,,,2016-2020 Blue Book,
Panola,Supervisor (D-1),James Birge,"P.O. Box 807, Batesville 38606",(662) 563-6200,(662) 563-6237,,,,,,2016-2020 Blue Book,
Panola,Supervisor (D-2),Vernice Avant,"1332 Avant Rd., Crenshaw 38621",(662) 703-0102,(662) 563-6237,,,,,,2016-2020 Blue Book,
Panola,Supervisor (D-3),John F. Thomas,"P.O. Box 807, Batesville 38606",(662) 563-6200,(662) 563-6237,,,,,,2016-2020 Blue Book,
Panola,Supervisor (D-4),Donald Phelps,"P.O. Box 807, Batesville 30606",(662) 563-6200,(662) 563-6237,,,,,,2016-2020 Blue Book,
Panola,Supervisor (D-5),Barry C. Flint,"P.O. Box 807, Batesville 38606",(662) 563-6200,(662) 563-6237,,,,,,2016-2020 Blue Book,
Pearl river,Supervisor (D-1),Donald Hart,"P.O. Box 569, Poplarville 39470",(601) 403-2302,(601) 403-2309,,,,,,2016-2020 Blue Book,
Pearl river,Supervisor (D-2),Malcom Perry,"P.O. Box 569, Poplarville 39470",(601) 403-2302,(601) 403-2309,,,,,,2016-2020 Blue Book,
Pearl river,Supervisor (D-3),Hudson Holliday,"P.O. Box 569, Poplarville 39470",(601) 403-2302,(601) 403-2309,,,,,,2016-2020 Blue Book,
Pearl river,Supervisor (D-4),Farron Moller,"P.O. Box 569, Poplarville 39470",(601) 403-2302,(601) 403-2309,,,,,,2016-2020 Blue Book,
Pearl river,Supervisor (D-5),Sandy Kane Smith,"P.O. Box 569, Poplarville 39470",(601) 403-2302,(601) 403-2309,,,,,,2016-2020 Blue Book,
Perry,Supervisor (D-1),Bobby Bolton,"P.O. Box 345, New Augusta 39462",(601) 964-8370,(601) 964-8265,,,,,,2016-2020 Blue Book,
Perry,Supervisor (D-2),Kevin Shows,"P.O. Box 345, New Augusta 39462",(601) 964-8370,(601) 964-8265,,,,,,2016-2020 Blue Book,
Perry,Supervisor (D-3),Tommy Walley,"P.O. Box 345, New Augusta 39462",(601) 964-8370,(601) 964-8265,,,,,,2016-2020 Blue Book,
Perry,Supervisor (D-4),Mitchell Hinton,"P.O. Box 345, New Augusta 39462",(601) 964-8370,(601) 964-8265,,,,,,2016-2020 Blue Book,
Perry,Supervisor (D-5),Marc Williams,"P.O. Box 345, New Augusta 39462",(601) 964-8370,(601) 964-8265,,,,,,2016-2020 Blue Book,
Pike,Supervisor (D-1),Tazwell Bowsky,"P.O. Box 431, Magnolia 39652",(601) 783-6569,(601) 783-6540,,,,,,2016-2020 Blue Book,
Pike,Supervisor (D-2),Faye Hodges,"P.O. Box 431, Magnolia 39652",(601) 783-6569,(601) 783-6540,,,,,,2016-2020 Blue Book,
Pike,Supervisor (D-3),Chuck E. Lambert,"P.O. Box 431, Magnolia 39652",(601) 783-6569,(601) 783-6540,,,,,,2016-2020 Blue Book,
Pike,Supervisor (D-4),Luke Brewer,"P.O. Box 431, Magnolia 39652",(601) 783-6569,(601) 783-6540,,,,,,2016-2020 Blue Book,
Pike,Supervisor (D-5),Gary Honea,"P.O. Box 431, Magnolia 39652",(601) 783-6569,(601) 783-6540,,,,,,2016-2020 Blue Book,
Pontotoc,Supervisor (D-1),Wayne Stokes,"P.O. Box 209, Pontotoc 38863",(662) 489-3900,(662) 489-3940,,,,,,2016-2020 Blue Book,
Pontotoc,Supervisor (D-2),Mike McGregor,"P.O. Box 209, Pontotoc 38863",(662) 489-3900,(662) 489-3940,,,,,,2016-2020 Blue Book,
Pontotoc,Supervisor (D-3),Brad Ward,"P.O. Box 209, Pontotoc 38863",(662) 489-3900,(662) 489-3940,,,,,,2016-2020 Blue Book,
Pontotoc,Supervisor (D-4),Ernie Wright,"P.O. Box 209, Pontotoc 38863",(662) 489-3900,(662) 489-3940,,,,,,2016-2020 Blue Book,
Pontotoc,Supervisor (D-5),Dan McKnight,"P.O. Box 209, Pontotoc 38863",(662) 489-3900,(662) 489-3940,,,,,,2016-2020 Blue Book,
Prentiss,Supervisor (D-1),James Ray Plaxico," P.O. Box 477, Booneville 38829",(662) 728-4610,(662) 728-2007,,,,,,2016-2020 Blue Book,
Prentiss,Supervisor (D-2),Matt Murphy," P.O. Box 477, Booneville 38829",(662) 728-4610,(662) 728-2007,,,,,,2016-2020 Blue Book,
Prentiss,Supervisor (D-3),Mike Kesler," P.O. Box 477, Booneville 38829",(662) 728-4610,(662) 728-2007,,,,,,2016-2020 Blue Book,
Prentiss,Supervisor (D-4),Mike Huddleston," P.O. Box 477, Booneville 38829",(662) 728-4610,(662) 728-2007,,,,,,2016-2020 Blue Book,
Prentiss,Supervisor (D-5),Larry Lambert," P.O. Box 477, Booneville 38829",(662) 728-4610,(662) 728-2007,,,,,,2016-2020 Blue Book,
Quitman,Supervisor (D-1),Sheridan Boyd,"220 Chestnut St., Ste. 2, Marks 38646.. (662) 326-2661",f(662) 326-8004,(662) 326-8004,,,,,,2016-2020 Blue Book,
Quitman,Supervisor (D-2),Greg Thomas,"220 Chestnut St., Ste. 2, Marks 38646.. (662) 326-2661",f(662) 326-8004,(662) 326-8004,,,,,,2016-2020 Blue Book,
Quitman,Supervisor (D-3),Johnny Tullos,"220 Chestnut St., Ste. 2, Marks 38646.. (662) 326-2661",f(662) 326-8004,(662) 326-8004,,,,,,2016-2020 Blue Book,
Quitman,Supervisor (D-4),Manuel Killebrew,"220 Chestnut St., Ste. 2, Marks 38646. (662) 326-2661",f(662) 326-8004,(662) 326-8004,,,,,,2016-2020 Blue Book,
Quitman,Supervisor (D-5),Jesse Ellis Sr,"220 Chestnut St., Ste. 2, Marks 38646.. (662) 326-2661",f(662) 326-8004,(662) 326-8004,,,,,,2016-2020 Blue Book,
Rankin,Supervisor (D-1),Jared K. Morrison," 211 E. Government St., Ste. A, Brandon 39042",(601) 825-1475,(601) 825-9600,,,,,,2016-2020 Blue Book,
Rankin,Supervisor (D-2),Daniel Cross," 211 E. Government St., Ste. A, Brandon 39042",(601) 825-1475,(601) 825-9600,,,,,,2016-2020 Blue Book,
Rankin,Supervisor (D-3),Bob Morrow," 211 E. Government St., Ste. A, Brandon 39042",(601) 825-1475,(601) 825-9600,,,,,,2016-2020 Blue Book,
Rankin,Supervisor (D-4),Steve Gaines," 211 E. Government St., Ste. A, Brandon 39042",(601) 825-1475,(601) 825-9600,,,,,,2016-2020 Blue Book,
Rankin,Supervisor (D-5),Jay Bishop," 211 E. Government St., Ste. A, Brandon 39042",(601) 825-1475,(601) 825-9600,,,,,,2016-2020 Blue Book,
Scott,Supervisor (D-1),Jackie Bradford," P.O. Box 630, Forest 39074",(601) 469-1926,(601) 469-5180,,,,,,2016-2020 Blue Book,
Scott,Supervisor (D-2),Tim Sorey," P.O. Box 630, Forest 39074",(601) 469-1926,(601) 469-5180,,,,,,2016-2020 Blue Book,
Scott,Supervisor (D-3),Steven Crotwell," P.O. Box 630, Forest 39074",(601) 469-1926,(601) 469-5180,,,,,,2016-2020 Blue Book,
Scott,Supervisor (D-4),Johnny P. Harrell," P.O. Box 630, Forest 39074",(601) 469-1926,(601) 489-5180,,,,,,2016-2020 Blue Book,
Scott,Supervisor (D-5),Bruce McMillan," P.O. Box 630, Forest 39074",(601) 469-1926,(601) 469-5180,,,,,,2016-2020 Blue Book,
Sharkey,Supervisor (D-1),William E. Newsom," P.O. Box 218, Rolling Fork 39159",(662) 873-2755,(662) 873-6045,,,,,,2016-2020 Blue Book,
Sharkey,Supervisor (D-2),Leroy Smith Jr,"P.O. Box 218, Rolling Fork 39159",(662) 873-2755,(662) 873-6045,,,,,,2016-2020 Blue Book,
Sharkey,Supervisor (D-3),Samuel Matthews,"P.O. Box 218, Rolling Fork 39159",(662) 873-2755,(662) 873-6045,,,,,,2016-2020 Blue Book,
Sharkey,Supervisor (D-4),Tommy Ewing,"P.O. Box 218, Rolling Fork 39159",(662) 873-2755,(662) 873-6045,,,,,,2016-2020 Blue Book,
Sharkey,Supervisor (D-5),Willie Smith,"P.O. Box 218, Rolling Fork 39159",(662) 873-2755,(662) 873-6045,,,,,,2016-2020 Blue Book,
Simpson,Supervisor (D-1),Curtis Skiffer," P.O. Box 308, Mendenhall 39114",(601) 847-1418,(601) 847-7004,,,,,,2016-2020 Blue Book,
Simpson,Supervisor (D-2),Danny Craft," P.O. Box 308, Mendenhall 39114",(601) 847-1418,(601) 847-7004,,,,,,2016-2020 Blue Book,
Simpson,Supervisor (D-3),Brian Kennedy," P.O. Box 308, Mendenhall 39114",(601) 847-1418,(601) 847-7004,,,,,,2016-2020 Blue Book,
Simpson,Supervisor (D-4),Mickey Berry," P.O. Box 308, Mendenhall 39114",(601) 847-1418,(601) 847-7004,,,,,,2016-2020 Blue Book,
Simpson,Supervisor (D-5),Randy Moore," P.O. Box 308, Mendenhall 39114",(601) 847-1418,(601) 847-7004,,,,,,2016-2020 Blue Book,
Smith,Supervisor (D-1),Kenny Cain,"P.O. Box 160, Raleigh 39153",(601) 782-4000,(601) 782-4002,,,,,,2016-2020 Blue Book,
Smith,Supervisor (D-2),Dwight D. Norris,"P.O. Box 160, Raleigh 39153",(601) 782-4000,(601) 782-4002,,,,,,2016-2020 Blue Book,
Smith,Supervisor (D-3),Benjie Ford,"P.O. Box 160, Raleigh 39153",(601) 782-4000,(601) 782-4002,,,,,,2016-2020 Blue Book,
Smith,Supervisor (D-4),Danny Arender,"P.O. Box 160, Raleigh 39153",(601) 782-4000,(601) 782-4002,,,,,,2016-2020 Blue Book,
Smith,Supervisor (D-5),Howard Hammons,"P.O. Box 160, Raleigh 39153",(601) 782-4000,(601) 782-4002,,,,,,2016-2020 Blue Book,
Stone,Supervisor (D-1),Clark Byrd,"P.O. Drawer 7, Wiggins 39577",(601) 928-5266,(601) 928-6464,,,,,,2016-2020 Blue Book,
Stone,Supervisor (D-2),Daniel Harris,"P.O. Drawer 7, Wiggins 39577",(601) 928-5266,(601) 928-6464,,,,,,2016-2020 Blue Book,
Stone,Supervisor (D-3),Lance D. Pearson,"P.O. Drawer 7, Wiggins 39577",(601) 928-5266,(601) 928-6464,,,,,,2016-2020 Blue Book,
Stone,Supervisor (D-4),Scott Strickland,"P.O. Drawer 7, Wiggins 39577",(601) 928-5266,(601) 928-6464,,,,,,2016-2020 Blue Book,
Stone,Supervisor (D-5),Dale T. Bond,"P.O. Drawer 7, Wiggins 39577",(601) 928-5266,(601) 928-6464,,,,,,2016-2020 Blue Book,
Sunflower,Supervisor (D-1),Glenn Donald," 1 David Matthew Lane, Indianola 38751",(662) 303-8877,(662) 887-1755,,,,,,2016-2020 Blue Book,
Sunflower,Supervisor (D-2),Riley Rice," P.O. Box 1158, Indianola 38751",(662) 303-5324,(662) 887-8424,,,,,,2016-2020 Blue Book,
Sunflower,Supervisor (D-3),Dennis W. Holmes," P.O. Box 946, Indianola 38751",(662) 207-8001,(662) 887-1000,,,,,,2016-2020 Blue Book,
Sunflower,Supervisor (D-4),Anthony Clark," 179 Fisackerly Rd., Indianola 38751",(662) 303-9108,(662) 887-9312,,,,,,2016-2020 Blue Book,
Sunflower,Supervisor (D-5),Gloria Dickerson," 166 Broadway, Drew 38737",(662) 303-9049,(662) 345-8345,,,,,,2016-2020 Blue Book,
Tallahatchie,Supervisor (D-1),Kenneth (Buck) Havens," P.O. Box 350, Charleston 38921",(662) 647-5551,(662) 647-3702,,,,,,2016-2020 Blue Book,
Tallahatchie,Supervisor (D-2),Johnny Goodwin,"P.O. Box 350, Charleston 38921",(662) 647-5551,(662) 647-3702,,,,,,2016-2020 Blue Book,
Tallahatchie,Supervisor (D-3),Larry Cole,"P.O. Box 350, Charleston 38921",(662) 647-5551,(662) 647-3702,,,,,,2016-2020 Blue Book,
Tallahatchie,Supervisor (D-4),Marcus Echols,"P.O. Box 350, Charleston 38921",(662) 647-5551,(662) 647-3702,,,,,,2016-2020 Blue Book,
Tallahatchie,Supervisor (D-5),Eddie J. Meeks,"P.O. Box 350, Charleston 38921",(662) 647-5551,(662) 647-3702,,,,,,2016-2020 Blue Book,
Tate,Supervisor (D-1),Cam Walker," 201 Ward St., Senatobia 38668",(662) 562-5661,(662) 560-6205,,,,,,2016-2020 Blue Book,
Tate,Supervisor (D-2),Mike Campbell," 201 Ward St., Senatobia 38668",(662) 562-5661,(662) 560-6205,,,,,,2016-2020 Blue Book,
Tate,Supervisor (D-3),Tony M. Sandridge," 201 Ward St., Senatobia 38668",(662) 562-5661,(662) 560-6205,,,,,,2016-2020 Blue Book,
Tate,Supervisor (D-4),Billy Saunders," 201 Ward St., Senatobia 38668",(662) 562-5661,(662) 560-6205,,,,,,2016-2020 Blue Book,
Tate,Supervisor (D-5),Josh Meredith," 201 Ward St., Senatobia 38668",(662) 562-5661,(662) 560-6205,,,,,,2016-2020 Blue Book,
Tippah,Supervisor (D-1),Jimmy W. Gunn,"101 E. Spring St., Ripley 38663",(662) 837-3655,(662) 837-1105,,,,,,2016-2020 Blue Book,
Tippah,Supervisor (D-2),Greg Harrell,"101 E. Spring St., Ripley 38663",(662) 837-3655,(662) 837-1105,,,,,,2016-2020 Blue Book,
Tippah,Supervisor (D-3),Mike Graves,"101 E. Spring St., Ripley 38663",(662) 837-3655,(662) 837-1105,,,,,,2016-2020 Blue Book,
Tippah,Supervisor (D-4),Dennis Grisham,"101 E. Spring St., Ripley 38663",(662) 837-3655,(662) 837-1105,,,,,,2016-2020 Blue Book,
Tippah,Supervisor (D-5),Chad Newby,"101 E. Spring St., Ripley 38663",(662) 837-3655,(662) 837-1105,,,,,,2016-2020 Blue Book,
Tishomingo,Supervisor (D-1),Brandon L. Grissom," 1008 Battleground Dr., Iuka 38852",(662) 423-7032,(662) 423-7005,,,,,,2016-2020 Blue Book,
Tishomingo,Supervisor (D-2),Nicky McRae,"1008 Battleground Dr., Iuka 38852",(662) 423-7032,(662) 423-7005,,,,,,2016-2020 Blue Book,
Tishomingo,Supervisor (D-3),Michael Busby,"1008 Battleground Dr., Iuka 38852",(662) 423-7032,(662) 423-7005,,,,,,2016-2020 Blue Book,
Tishomingo,Supervisor (D-4),Jeff Holt,"1008 Battleground Dr., Iuka 38852",(662) 423-7032,(662) 423-7005,,,,,,2016-2020 Blue Book,
Tishomingo,Supervisor (D-5),Greg Collier,"1008 Battleground Dr., Iuka 38852",(662) 423-7032,(662) 423-7005,,,,,,2016-2020 Blue Book,
Tunica,Supervisor (D-1),James Dunn," P.O. Box 217, Tunica 38676",(662) 363-1304,(662) 357-5934,,,,,,2016-2020 Blue Book,
Tunica,Supervisor (D-2),Michael E. Johnson Jr.," P.O. Box 217, Tunica 38676",(662) 363-1465,(662) 357-5934,,,,,,2016-2020 Blue Book,
Tunica,Supervisor (D-3),Phillis Williams," P.O. Box 217, Tunica 38676",(662) 363-1465,(662) 357-5934,,,,,,2016-2020 Blue Book,
Tunica,Supervisor (D-4),Henry Nickson Jr," P.O. Box 217, Tunica 38676",(662) 363-1465,(662) 357-5934,,,,,,2016-2020 Blue Book,
Tunica,Supervisor (D-5),William Pegram," P.O. Box 217, Tunica 38676",(662) 363-1465,(662) 357-5934,,,,,,2016-2020 Blue Book,
Union,Supervisor (D-1),Evan Denton," P.O. Box 847, New Albany 38652",(662) 534-1902,(662) 534-1907,,,,,,2016-2020 Blue Book,
Union,Supervisor (D-2),Chad Coffey," P.O. Box 847, New Albany 38652",(662) 534-1902,(662) 534-1907,,,,,,2016-2020 Blue Book,
Union,Supervisor (D-3),Dave Kitchens," P.O. Box 847, New Albany 38652",(662) 534-1902,(662) 534-1907,,,,,,2016-2020 Blue Book,
Union,Supervisor (D-4),Randy Owen," P.O. Box 847, New Albany 38652",(662) 534-1902,(662) 534-1907,,,,,,2016-2020 Blue Book,
Union,Supervisor (D-5),Steve Watson," P.O. Box 847, New Albany 38652",(662) 534-1902,(662) 534-1907,,,,,,2016-2020 Blue Book,
Walthall,Supervisor (D-1),Larry Montgomery," P.O. Box 351, Tylertown 39667",(601) 876-4947,(601) 876-6026,,,,,,2016-2020 Blue Book,
Walthall,Supervisor (D-2),Fred Magee,"P.O. Box 351, Tylertown 39667",(601) 876-4947,(601) 876-6026,,,,,,2016-2020 Blue Book,
Walthall,Supervisor (D-3),Shelton Stogner,"P.O. Box 351, Tylertown 39667",(601) 876-4947,(601) 876-6026,,,,,,2016-2020 Blue Book,
Walthall,Supervisor (D-4),Bruce Boyd,"P.O. Box 351, Tylertown 39667",(601) 876-4947,(601) 876-6026,,,,,,2016-2020 Blue Book,
Walthall,Supervisor (D-5),Clennel Brown,"P.O. Box 351, Tylertown 39667",(601) 876-4947,(601) 876-6026,,,,,,2016-2020 Blue Book,
Warren,Supervisor (D-1),John Arnold,"913 Jackson St., Vicksburg 39183",(601) 634-8073,(601) 630-8020,,,,,,2016-2020 Blue Book,
Warren,Supervisor (D-2),William H. Banks Jr," 913 Jackson St., Vicksburg 39183",(601) 634-8073,(601) 630-8020,,,,,,2016-2020 Blue Book,
Warren,Supervisor (D-3),Charles Selmon,"913 Jackson St., Vicksburg 39183",(601) 634-8073,(601) 630-8020,,,,,,2016-2020 Blue Book,
Warren,Supervisor (D-4),John Carlisle,"913 Jackson St., Vicksburg 39183",(601) 634-8073,(601) 630-8020,,,,,,2016-2020 Blue Book,
Warren,Supervisor (D-5),Richard George,"913 Jackson St., Vicksburg 39183",(601) 634-8073,(601) 630-8020,,,,,,2016-2020 Blue Book,
Washington,Supervisor (D-1),Lee Gordon,"P.O. Box 158, Greenville 38702",(662) 378-8355,(662) 335-3739,,,,,,2016-2020 Blue Book,
Washington,Supervisor (D-2),Tommy Benson III," P.O. Box 158, Greenville 38702",(662) 378-8355,(662) 335-3739,,,,,,2016-2020 Blue Book,
Washington,Supervisor (D-3),Carl McGee,"P.O. Box 158, Greenville 38702",(662) 378-8355,(662) 335-3739,,,,,,2016-2020 Blue Book,
Washington,Supervisor (D-4),Jesse Amos,"P.O. Box 158, Greenville 38702",(662) 378-8355,(662) 335-3739,,,,,,2016-2020 Blue Book,
Washington,Supervisor (D-5),Jerry Redmond Sr.," P.O. Box 158, Greenville 38702",(662) 378-8355,(662) 335-3739,,,,,,2016-2020 Blue Book,
Wayne,Supervisor (D-1),David Mills,"Courthouse, 609 Azalea, Waynesboro 39367",(601) 735-3414,(601) 735-6248,,,,,,2016-2020 Blue Book,
Wayne,Supervisor (D-2),Joe Dyess,"Courthouse, 609 Azalea, Waynesboro 39367",(601) 735-3414,(601) 735-6248,,,,,,2016-2020 Blue Book,
Wayne,Supervisor (D-3),Jerry Hutto,"Courthouse, 609 Azalea, Waynesboro 39367",(601) 735-3414,(601) 735-6248,,,,,,2016-2020 Blue Book,
Wayne,Supervisor (D-4),Tommy Roberts Sr.,"Courthouse, 609 Azalea, Waynesboro 39367",(601) 735-3414,(601) 735-6248,,,,,,2016-2020 Blue Book,
Wayne,Supervisor (D-5),Gaston D. Hutcherson,"Courthouse, 609 Azalea, Waynesboro 39367",(601) 735-3414,(601) 735-6248,,,,,,2016-2020 Blue Book,
Webster,Supervisor (D-1),Curtis Morris,"P.O. Box 398, Walthall 39771",(662) 258-2666,(662) 258-6657,,,,,,2016-2020 Blue Book,
Webster,Supervisor (D-2),Patrick Scott Cummings," P.O. Box 398, Walthall 39771",(662) 258-4131,(662) 258-6657,,,,,,2016-2020 Blue Book,
Webster,Supervisor (D-3),Randy Rico,"P.O. Box 398, Walthall 39771",(662) 258-4131,(662) 258-6657,,,,,,2016-2020 Blue Book,
Webster,Supervisor (D-4),William P. Crowley," P.O. Box 398, Walthall 39771",(662) 552-2627,(662) 258-6657,,,,,,2016-2020 Blue Book,
Webster,Supervisor (D-5),Doug Burgess,"P.O. Box 398, Walthall 39771",(662) 456-2673,(662) 258-4131,,,,,,2016-2020 Blue Book,
Wilkinson,Supervisor (D-1),Wil Seal,"P.O. Box 1284, Woodville 39669",(601) 888-4387,(601) 888-6776,,,,,,2016-2020 Blue Book,
Wilkinson,Supervisor (D-2),Richard Hollins,"140 Mary Ln., Woodville 39669",(601) 888-5045,(601) 888-6776,,,,,,2016-2020 Blue Book,
Wilkinson,Supervisor (D-3),Venton McNabb Jr," P.O. Box 806, Centreville 39631",(601) 645-5712,(601) 888-6776,,,,,,2016-2020 Blue Book,
Wilkinson,Supervisor (D-4),Kenyon Jackson,"P.O. Box 121, Woodville 39339",(601) 888-4851,(601) 888-6776,,,,,,2016-2020 Blue Book,
Wilkinson,Supervisor (D-5),Jennings Nettles,"201 Box Wood Lane, Woodville 39669",(601) 639-4530,(601) 888-6776,,,,,,2016-2020 Blue Book,
Winston,Supervisor (D-1),James L. (Burr) Warner Jr,"P.O. Drawer 69, Louisville 39339",(662) 773-7170,(662) 773-8824,,,,,,2016-2020 Blue Book,
Winston,Supervisor (D-2),Luke Lamar Parkes,"P.O. Drawer 69, Louisville 39339",(662) 773-7170,(662) 773-8824,,,,,,2016-2020 Blue Book,
Winston,Supervisor (D-3),Marion Jordan,"P.O. Drawer 69, Louisville 39339",(662) 773-7170,(662) 773-8824,,,,,,2016-2020 Blue Book,
Winston,Supervisor (D-4),Ralph Goss,"P.O. Drawer 69, Louisville 39339",(662) 773-7170,(662) 773-8824,,,,,,2016-2020 Blue Book,
Winston,Supervisor (D-5),Larry Duran,"P.O. Drawer 69, Louisville 39339",(662) 773-7170,(662) 773-8824,,,,,,2016-2020 Blue Book,
Yalobusha,Supervisor (D-1),Cayce Washington," 6759 CR 436, Water Valley 38965",(662) 473-6797,(662) 473-3622,,,,,,2016-2020 Blue Book,
Yalobusha,Supervisor (D-2),Kenny Rogers,"5907 CR 223, Water Valley 38965",(662) 473-6795,(662) 473-3622,,,,,,2016-2020 Blue Book,
Yalobusha,Supervisor (D-3),John L. McMinn Jr," 1202 CR 18, Water Valley 38965",(662) 816-8024,(662) 473-3622,,,,,,2016-2020 Blue Book,
Yalobusha,Supervisor (D-4),Timothy Booker,"P.O. Box 127, Oakland 38948",(662) 473-6038,(662) 473-3622,,,,,,2016-2020 Blue Book,
Yalobusha,Supervisor (D-5),Gaylon Gray,"4113 CR 147, Coffeeville 38922",(662) 473-8324,(662) 473-3622,,,,,,2016-2020 Blue Book,
Yazoo,Supervisor (D-1),Van Foster,"P.O. Box 1106, Yazoo City 39194",(662) 746-8668,(662) 746-5116,,,,,,2016-2020 Blue Book,
Yazoo,Supervisor (D-2),David Berry,"P.O. Box 1106, Yazoo City 39194",(662) 746-8668,(662) 746-5116,,,,,,2016-2020 Blue Book,
Yazoo,Supervisor (D-3),Willie Wright,"P.O. Box 1106, Yazoo City 39194",(662) 746-8668,(662) 746-5116,,,,,,2016-2020 Blue Book,
Yazoo,Supervisor (D-4),Jayne Dew,"P.O. Box 1106, Yazoo City 39194",(662) 746-8668,(662) 746-5116,,,,,,2016-2020 Blue Book,
Yazoo,Supervisor (D-5),Cobie Collins,"P.O. Box 1106, Yazoo City 39194",(662) 746-8668,(662) 746-5116,,,,,,2016-2020 Blue Book,