county,position,name,address,phone,fax,alt_address,alt_phone,alt_fax,mobile,email,source,verified
Adams,Tax Collector,Peter Burns Jr,"115 South Wall St., Natchez 39120",(601) 442-8601,(601) 445-7909,,,,,,2016-2020 Blue Book,
Alcorn,Tax Collector,Larry Ross,"P.O. Box 190, Corinth 38835-0190 ",(662) 286-7750,(662) 286-5713,,,,,,2016-2020 Blue Book,
Amite,Tax Collector,Eunice Blake,"P.O. Box 356, Liberty 39645",(601) 657-8973,(601) 657-1083,,,,,,2016-2020 Blue Book,
Attala,Tax Collector,Brenda Williams," 112 N. Wells St., Kosciusko 39090",(662) 289-4711,(662) 289-7667,,,,,,2016-2020 Blue Book,
Benton,Tax Collector,Shannon Wilburn," P.O. Box 337, Ashland 38603",(662) 224-6315,(662) 224-6303,,,,,,2016-2020 Blue Book,
Bolivar,Tax Collector,Nancy J. Havens,"P.O. Box 248, Cleveland 38732",(662) 843-2285,(662) 846-2936,"P.O. Box 339, Rosedale 38769",(662) 759-6244,,,,2016-2020 Blue Book,
Calhoun,Tax Collector,Bill Malone,"P.O. Box 6, Pittsboro 38951",(662) 412-3140,(662) 412-3143,,,,,,2016-2020 Blue Book,
Carroll,Tax Collector,Wilton A. Neal,"P.O. Box 156, Vaiden 39176",(662) 464-8852,(662) 464-8802,"P.O. Box 193, Carrollton 38917",(662) 237-9217,(662) 237-4659,,,2016-2020 Blue Book,
Chickasaw,Tax Collector,Sue Ard," 234 W. Main St., Rm. 204, Okolona 38860",(662) 447-2242,(662) 447-5022," 1 Pinson Square, Rm. 3, Houston 38851",(662) 456-3327,(662) 456-5496,,,2016-2020 Blue Book,
Choctaw,Tax Collector,Lori Power Kerr,"P.O. Box 907, Ackerman 39735",(662) 285-6320,(662) 285-9067,,,,,,2016-2020 Blue Book,
Claiborne,Tax Collector,Diane T. Davaul,"P.O. Box 469, Port Gibson 39150",(601) 437-5591,(601) 437-3419,,,,,,2016-2020 Blue Book,
Clarke,Tax Collector,Hope Moore Herrington," P.O. Drawer 69, Quitman 39355",(601) 776-6931,(601) 776-5084,,,,,,2016-2020 Blue Book,
Clay,Tax Collector,Paige Lampkin,"P.O. Box 795, West Point 39773",(662) 494-3432,(662) 494-7452,,,,,,2016-2020 Blue Book,
Coahoma,Tax Collector,Hattie B. Shivers,"P.O. Box 219, Clarksdale 38614",(662) 624-3020,(662) 624-3075,,,,,,2016-2020 Blue Book,
Copiah,Tax Collector,April S. Holloway," P.O. Box 705, Hazlehurst 39083",(601) 894-2731,(601) 894-3026,,,,,,2016-2020 Blue Book,
Covington,Tax Collector,Cindy Aultman Sanford,"P.O. Box 1537, Collins 39428",(601) 765-6402,(601) 765-1052,,,,,,2016-2020 Blue Book,
Desoto,Tax Collector,Joey Treadway," 365 Losher St., Hernando 38632",(662) 469-8030,(662) 469-8105,,,,,,2016-2020 Blue Book,
Forrest,Tax Collector,Delbert Dearman," P.O. Box 1689, Hattiesburg 39403",(601) 582-8228,(601) 545-6093,,,,,,2016-2020 Blue Book,
Franklin,Tax Collector,T. J. (Jeff) Mullins IV," P.O. Box 456, Meadville 39653",(601) 384-2359,(601) 384-3040,,,,,,2016-2020 Blue Book,
George,Tax Collector,Vincent E. (Vince) Carlisle," 5130 Main St., Ste. B, Lucedale 39452",(601) 947-7541,(601) 947-6597,,,,,,2016-2020 Blue Book,
Greene,Tax Collector,Mark Holder,"P.O. Box 477, Leakesville 39451",(601) 394-2378,(601) 394-6199,,,,,,2016-2020 Blue Book,
Grenada,Tax Collector,David Melton,"P.O. Box 1488, Grenada 38902-1488",(662) 226-1741,(662) 226-3701,,,,,,2016-2020 Blue Book,
Hancock,Tax Collector,Jimmie Ladner,"P.O. Box 2428, Bay St. Louis 39521",(228) 467-4425,(228) 466-6239,,,,,,2016-2020 Blue Book,
Harrison,Tax Collector,David LaRosa," P.O. Box 1270, Gulfport 39502",(228) 865-4039,(228) 865-4180,,,,,,2016-2020 Blue Book,
Hinds,Tax Collector,Eddie J. Fair,"P.O. Box 1727, Jackson 39215",(601) 968-6588,(601) 353-1261,"P.O. Box 51, Raymond 39154",(601) 857-5574,,,,2016-2020 Blue Book,
Holmes,Tax Collector,Linda Rollins,"P.O. Box 449, Lexington 39095",(662) 834-2865,(662) 834-9010,,,,,,2016-2020 Blue Book,
Humphreys,Tax Collector,Margaret (Mimi) Parks," 102 Castleman St., Belzoni 39038",(662) 247-2552,(662) 247-5657,,,,,,2016-2020 Blue Book,
Issaquena,Tax Collector,Pam Horton,"P.O. Box 67, Mayersville 39113",(662) 873-4665,(662) 873-2600,,,,,,2016-2020 Blue Book,
Itawamba,Tax Collector,Debbie Ann Johnson," P.O. Box 818, Fulton 38843",(662) 862-4304,(662) 862-7598,,,,,,2016-2020 Blue Book,
Jackson,Tax Collector,Joe Tucker,"P.O. Box 998, Pascagoula 39568-0998.. (228) 769-3074",f(228) 769-3270,(228) 769-3270,,,,,,2016-2020 Blue Book,
Jasper,Tax Collector,Timothy McRee,"P.O. Box 372, Bay Springs 39422",(601) 764-2813,(601) 764-6519,"P.O. Box 8, Paulding 39348",(601) 727-4971,(601) 727-3469,,,2016-2020 Blue Book,
Jefferson,Tax Collector,Samantha F. Jackson," P.O. Box 357, Fayette 39069",(601) 786-3781,(601) 786-3262,,,,,,2016-2020 Blue Book,
Jefferson davis,Tax Collector,Kelley R. Brown,"P.O. Box 547, Prentiss 39474",(601) 792-4291,(601) 792-2276,,,,,,2016-2020 Blue Book,
Jones,Tax Collector,Ramona Q. Blackledge," 101 N. Court St., Ste. A, Ellisville 39437",(601) 477-3261,(601) 477-3253," P.O. Box 511, Laurel 39441",(601) 426-3248,(601) 428-3102,,,2016-2020 Blue Book,
Kemper,Tax Collector,Jocelyn Robertson,"P.O. Box 328, DeKalb 39328",(601) 743-2693,(601) 743-4173,,,,,,2016-2020 Blue Book,
Lafayette,Tax Collector,Sylvia J. Baker,"300 N. Lamar, Ste. 103, Oxford 38655",(662) 234-6006,(662) 238-7992,,,,,,2016-2020 Blue Book,
Lamar,Tax Collector,Jack Smith," P.O. Box 309, Purvis 39475",(601) 794-8504,(601) 794-1064,,,,,,2016-2020 Blue Book,
Lauderdale,Tax Collector,Doris Spidle,"P.O. Box 5205, Meridian 39302-5205",(601) 482-9786,,,,,,,2016-2020 Blue Book,
Lawrence,Tax Collector,Sherry Hyde-Thames," P.O. Box 812, Monticello 39654",(601) 587-2211,(601) 587-0750,,,,,,2016-2020 Blue Book,
Leake,Tax Collector,Kim Withers," 101 Court Sq., Ste. 123, Carthage 39051",(601) 267-3021,(601) 267-6131,,,,,,2016-2020 Blue Book,
Lee,Tax Collector,Leroy E. Belk Jr,"P.O. Box 271, Tupelo 38802",(662) 841-9034,(662) 841-9148,,,,,,2016-2020 Blue Book,
Leflore,Tax Collector,Annie M. Conley,"P.O. Box 1349, Greenwood 38935",(662) 455-7907,(662) 455-8752,,,,,,2016-2020 Blue Book,
Lincoln,Tax Collector,Blake Pickering," 301 S. First, #109, Brookhaven 39601",(601) 835-3427,(601) 835-3424,,,,,,2016-2020 Blue Book,
Lowndes,Tax Collector,Greg D. Andrews,"P.O. Box 1077, Columbus 39703",(662) 329-5707,(662) 241-1935,,,,,,2016-2020 Blue Book,
Madison,Tax Collector,Kay Pace,"P.O. Box 113, Canton 39046",(601) 859-5226,(601) 859-0322,"344 Hwy. 51, Ridgeland 39157",(601) 856-4472,(601) 898-0731,,,2016-2020 Blue Book,
Marion,Tax Collector,Teresa Terrell," 250 Broad St., Ste. 3, Columbia 39429",(601) 736-8256,(601) 731-2304,,,,,,2016-2020 Blue Book,
Marshall,Tax Collector,Betty Byrd,"P.O. Box 40, Holly Springs 38635",(662) 252-3661,(662) 252-1881,,,,,,2016-2020 Blue Book,
Monroe,Tax Collector,Pat Birkholz,"P.O. Box 684, Aberdeen 39730",(662) 369-6484,(662) 369-3033,,,,,,2016-2020 Blue Book,
Montgomery,Tax Collector,Velma (Pam) Young," P.O. Box 674, Winona 38967",(662) 283-2112,(662) 283-2769,,,,,,2016-2020 Blue Book,
Neshoba,Tax Collector,Mike Lewis," 401 E. Beacon St., Ste. 105, Philadelphia 39350",(601) 656-4541,(601) 650-5121,,,,,,2016-2020 Blue Book,
Newton,Tax Collector,May Bender," P.O. Box 7, Decatur 39327",(601) 635-2517,(601) 635-3402,,,,,,2016-2020 Blue Book,
Noxubee,Tax Collector,Betty Robinson,"2832 Jefferson, Macon 39341",(662) 726-4744,(662) 726-2679,,,,,,2016-2020 Blue Book,
Oktibbeha,Tax Collector,Allen Morgan," 101 East Main St., Starkville 39759",(662) 323-1273,(662) 338-1066,,,,,,2016-2020 Blue Book,
Panola,Tax Collector,David Garner,"215 S. Pocahontas, Sardis 38666",(662) 487-2092,(662) 487-2090,"151 Public Sq., Ste. C, Batesville 38606",(662) 563-6215,(662) 563-6241,,,2016-2020 Blue Book,
Pearl river,Tax Collector,Gary Beech,"P.O. Box 509, Poplarville 39470",(601) 403-2220,(601) 403-2229,,,,,,2016-2020 Blue Book,
Perry,Tax Collector,Amy Lott Cochran,"P.O. Box 306, New Augusta 39642",(601) 964-3398,(601) 964-3663,,,,,,2016-2020 Blue Book,
Pike,Tax Collector,Gwendolyn Nunnery," P.O. Box 111, Magnolia 39652",(601) 783-5511,(601) 783-3784,,,,,,2016-2020 Blue Book,
Pontotoc,Tax Collector,Van McWhirter,"11 E. Washington St., Pontotoc 38863",(662) 489-3904,(662) 489-3917,,,,,,2016-2020 Blue Book,
Prentiss,Tax Collector,Homer (Rusty) Cole Jr," P.O. Box 283, Booneville 38829",(662) 728-5044,(662) 728-2010,,,,,,2016-2020 Blue Book,
Quitman,Tax Collector,Alice Smith,"220 Chestnut St., Ste. 1, Marks 38646.. (662) 326-8928",f(662) 326-8004,(662) 326-8004,,,,,,2016-2020 Blue Book,
Rankin,Tax Collector,Judy Fortenberry," 211 E. Government St., Brandon 39042",(601) 825-1467,(601) 824-7111,,,,,,2016-2020 Blue Book,
Scott,Tax Collector,Alison Crapps," 100 E. First St., Forest 39074",(601) 469-4051,(601) 469-5184,,,,,,2016-2020 Blue Book,
Sharkey,Tax Collector,Tracy Brown,"P.O. Box 245, Rolling Fork 39159",(662) 873-4317,(662) 873-0115,,,,,,2016-2020 Blue Book,
Simpson,Tax Collector,Charles Baldwin," P.O. Box 459, Mendenhall 39114",(601) 847-1744,(601) 847-2119,,,,,,2016-2020 Blue Book,
Smith,Tax Collector,Becky Martin,"P.O. Box 157, Raleigh 39153",(601) 782-9803,(601) 782-4006,,,,,,2016-2020 Blue Book,
Stone,Tax Collector,Charles Williams Jr,"308 Court St., Wiggins 39577",(601) 928-3121,(601) 928-2507,,,,,,2016-2020 Blue Book,
Sunflower,Tax Collector,Cynthia Chandler," P.O. Box 1080, Indianola 38751",(662) 887-1454,(662) 887-7423,,,,,,2016-2020 Blue Book,
Tallahatchie,Tax Collector,Dorothy M. Martin," P.O. Box 87, Sumner 38957",(662) 375-8386,(662) 375-7275," P.O. Box 307, Charleston 38921",(662) 647-8922,(662) 647-8490,,,2016-2020 Blue Book,
Tate,Tax Collector,Ernie Brents," 201 Ward St., Senatobia 38668",(662) 562-4404,(662) 562-7486,,,,,,2016-2020 Blue Book,
Tippah,Tax Collector,Joe Atkins,"102-C N. Main St., Ripley 38663",(662) 837-9410,(662) 837-1193,,,,,,2016-2020 Blue Book,
Tishomingo,Tax Collector,Jena P. McNatt,"1008 Battleground Dr., Iuka 38852",(662) 423-7048,(662) 423-2388,,,,,,2016-2020 Blue Book,
Tunica,Tax Collector,Norma Anderson," P.O. Box 655, Tunica 38676",(662) 363-1266,(662) 363-2693,,,,,,2016-2020 Blue Book,
Union,Tax Collector,Randy Dunnam," P.O. Box 862, New Albany 38652",(662) 534-1972,(662) 534-1971,,,,,,2016-2020 Blue Book,
Walthall,Tax Collector,Peggy Hilburn,"200 Ball Ave., Tylertown 39667",(601) 876-4932,(601) 876-9255,,,,,,2016-2020 Blue Book,
Warren,Tax Collector,Antonia Jones,"P.O. Box 351, Vicksburg 39181",(601) 638-6181,(601) 636-5093,,,,,,2016-2020 Blue Book,
Washington,Tax Collector,Patricia A. Lee,"P.O. Box 9, Greenville 38702",(662) 378-2922,(662) 334-2714,,,,,,2016-2020 Blue Book,
Wayne,Tax Collector,Debbie J. Richards,"Courthouse, 609 Azalea, Waynesboro 39367",(601) 735-3381,(601) 735-6272,,,,,,2016-2020 Blue Book,
Webster,Tax Collector,Barbara Gore,"P.O. Box 417, Walthall 39771",(662) 258-6446,(662) 258-7686,,,,,,2016-2020 Blue Book,
Wilkinson,Tax Collector,Jeremy Ephion,"P.O. Box 695, Woodville 39669",(601) 888-4562,(601) 888-7335,,,,,,2016-2020 Blue Book,
Winston,Tax Collector,Darlene Bane,"113 W. Main St., Louisville 39339",(662) 773-3694,(662) 773-8816,,,,,,2016-2020 Blue Book,
Yalobusha,Tax Collector,Linda Rae Shuffield," P.O. Box 260, Coffeeville 38922",(662) 675-8707,(662) 675-8004," P.O. Box 1552, Water Valley 38965",(662) 473-1235,(662) 473-5020,,,2016-2020 Blue Book,
Yazoo,Tax Collector,Travis Crimm Jr,"P.O. Box 108, Yazoo City 39194",(662) 746-1583,(662) 751-8734,,,,,,2016-2020 Blue Book,